{
"type": "FeatureCollection",
"name": "all_green_polygons",
"crs": { "type": "name", "properties": { "name": "urn:ogc:def:crs:OGC:1.3:CRS84" } },
"features": [
{ "type": "Feature", "properties": { "osm_id": "way/4349012", "name": "Parque Infantil Paseo del prado", "kind": "park" }, "geometry": { "type": "Polygon", "coordinates": [ [ [ -3.6936347, 40.418761 ], [ -3.6937594, 40.4187812 ], [ -3.6941666, 40.41733 ], [ -3.6945786, 40.4157718 ], [ -3.6945633, 40.4157114 ], [ -3.6945342, 40.4156873 ], [ -3.6944823, 40.4156739 ], [ -3.6945038, 40.4157163 ], [ -3.6940186, 40.4158727 ], [ -3.6939975, 40.4158194 ], [ -3.6938968, 40.4157727 ], [ -3.6938082, 40.4157462 ], [ -3.6937475, 40.4157416 ], [ -3.6937401, 40.4159164 ], [ -3.6937811, 40.4159199 ], [ -3.6938082, 40.4159468 ], [ -3.6938352, 40.4159516 ], [ -3.6937906, 40.4160016 ], [ -3.6937764, 40.4160304 ], [ -3.6933047, 40.418321 ], [ -3.693304, 40.4183439 ], [ -3.693305, 40.4183647 ], [ -3.6933155, 40.4183801 ], [ -3.693329, 40.4183974 ], [ -3.6933487, 40.4184147 ], [ -3.6932805, 40.4186946 ], [ -3.6936347, 40.418761 ] ] ] } },
{ "type": "Feature", "properties": { "osm_id": "way/15244787", "name": "", "kind": "garden" }, "geometry": { "type": "Polygon", "coordinates": [ [ [ -3.6915751, 40.4148 ], [ -3.6915806, 40.4150519 ], [ -3.6916128, 40.4150823 ], [ -3.6931598, 40.4150539 ], [ -3.6931061, 40.4149928 ], [ -3.6930672, 40.4149582 ], [ -3.6930142, 40.4149307 ], [ -3.6929485, 40.4149049 ], [ -3.692908, 40.4148942 ], [ -3.6928603, 40.4148854 ], [ -3.6928113, 40.4148781 ], [ -3.6927557, 40.4148748 ], [ -3.6927043, 40.4148784 ], [ -3.6926565, 40.4148893 ], [ -3.6926147, 40.41491 ], [ -3.6925881, 40.4149319 ], [ -3.6925712, 40.4149544 ], [ -3.6925679, 40.4150545 ], [ -3.6925041, 40.4150557 ], [ -3.6925052, 40.4149513 ], [ -3.6922043, 40.4149375 ], [ -3.6921582, 40.41493 ], [ -3.6921102, 40.4149176 ], [ -3.6920665, 40.4149025 ], [ -3.6920322, 40.4148874 ], [ -3.6920037, 40.4148704 ], [ -3.6919698, 40.4148464 ], [ -3.6919402, 40.4148273 ], [ -3.6919105, 40.4148125 ], [ -3.6918933, 40.4148071 ], [ -3.6918607, 40.4147966 ], [ -3.691816, 40.4147862 ], [ -3.691775, 40.4147801 ], [ -3.6917392, 40.414779 ], [ -3.6916976, 40.4147806 ], [ -3.6916649, 40.4147841 ], [ -3.6916287, 40.4147903 ], [ -3.6915997, 40.4147954 ], [ -3.6915751, 40.4148 ] ] ] } },
{ "type": "Feature", "properties": { "osm_id": "way/15244804", "name": "Real Jardín Botánico de Madrid", "kind": "garden" }, "geometry": { "type": "Polygon", "coordinates": [ [ [ -3.6890058, 40.4120017 ], [ -3.6891003, 40.4120234 ], [ -3.6891567, 40.4120364 ], [ -3.6892223, 40.4120514 ], [ -3.6892764, 40.4120639 ], [ -3.6893483, 40.4120804 ], [ -3.6894243, 40.4120978 ], [ -3.6894447, 40.4121025 ], [ -3.6896329, 40.4121454 ], [ -3.6896933, 40.4121592 ], [ -3.689702, 40.4121614 ], [ -3.6897047, 40.4121621 ], [ -3.6901978, 40.4122857 ], [ -3.6904329, 40.412339 ], [ -3.6904465, 40.4125734 ], [ -3.6904853, 40.4126075 ], [ -3.6905998, 40.4126039 ], [ -3.6912814, 40.4125855 ], [ -3.6913076, 40.4125573 ], [ -3.6912905, 40.4124618 ], [ -3.6918671, 40.4123987 ], [ -3.6920894, 40.4123728 ], [ -3.6921452, 40.4123656 ], [ -3.6925873, 40.4123086 ], [ -3.6922718, 40.4109724 ], [ -3.6922645, 40.4109417 ], [ -3.6922572, 40.4109096 ], [ -3.6919781, 40.4097313 ], [ -3.6893722, 40.4097671 ], [ -3.6890965, 40.4097631 ], [ -3.6889179, 40.4098835 ], [ -3.6889504, 40.4105923 ], [ -3.6890058, 40.4120017 ] ] ] } },
{ "type": "Feature", "properties": { "osm_id": "way/15244847", "name": "", "kind": "garden" }, "geometry": { "type": "Polygon", "coordinates": [ [ [ -3.6931477, 40.4131124 ], [ -3.6931507, 40.4131224 ], [ -3.6931152, 40.4131886 ], [ -3.6931893, 40.4131898 ], [ -3.6933968, 40.4141694 ], [ -3.6933687, 40.4142108 ], [ -3.6935077, 40.4147691 ], [ -3.6936777, 40.4148196 ], [ -3.6937735, 40.4148043 ], [ -3.6938516, 40.4147645 ], [ -3.6939442, 40.414732 ], [ -3.6940673, 40.41474 ], [ -3.6941975, 40.4147689 ], [ -3.6939755, 40.4142447 ], [ -3.6937197, 40.4136131 ], [ -3.6935457, 40.4131483 ], [ -3.693514, 40.4131122 ], [ -3.6934843, 40.4130883 ], [ -3.6934568, 40.4130742 ], [ -3.6934287, 40.4130632 ], [ -3.6933996, 40.413053 ], [ -3.6933551, 40.4130464 ], [ -3.6933158, 40.4130464 ], [ -3.6932774, 40.4130497 ], [ -3.6932372, 40.413061 ], [ -3.6932189, 40.4130677 ], [ -3.6931901, 40.4130803 ], [ -3.6931613, 40.4130996 ], [ -3.6931477, 40.4131124 ] ] ] } },
{ "type": "Feature", "properties": { "osm_id": "way/28683983", "name": "", "kind": "park" }, "geometry": { "type": "Polygon", "coordinates": [ [ [ -3.6960638, 40.4043252 ], [ -3.6957859, 40.4046636 ], [ -3.6958372, 40.4043147 ], [ -3.6960638, 40.4043252 ] ] ] } },
{ "type": "Feature", "properties": { "osm_id": "way/28684065", "name": "", "kind": "park" }, "geometry": { "type": "Polygon", "coordinates": [ [ [ -3.6918098, 40.4094903 ], [ -3.6911764, 40.4094556 ], [ -3.6912221, 40.4093278 ], [ -3.6912331, 40.4093291 ], [ -3.6912439, 40.4093275 ], [ -3.6912534, 40.4093231 ], [ -3.6912603, 40.4093166 ], [ -3.6912639, 40.4093086 ], [ -3.6912636, 40.4093002 ], [ -3.6912597, 40.4092923 ], [ -3.6912524, 40.409286 ], [ -3.6912427, 40.4092819 ], [ -3.6912643, 40.409236 ], [ -3.6912906, 40.4091803 ], [ -3.6913003, 40.4091825 ], [ -3.6913105, 40.4091822 ], [ -3.69132, 40.4091796 ], [ -3.691328, 40.4091748 ], [ -3.6913336, 40.4091684 ], [ -3.6913364, 40.409161 ], [ -3.691336, 40.4091532 ], [ -3.6913324, 40.409146 ], [ -3.6913261, 40.40914 ], [ -3.6913176, 40.4091357 ], [ -3.6913644, 40.4090664 ], [ -3.6914015, 40.4090114 ], [ -3.6915971, 40.4091827 ], [ -3.6918098, 40.4094903 ] ] ] } },
{ "type": "Feature", "properties": { "osm_id": "way/29471311", "name": "Real Observatorio de Madrid", "kind": "park" }, "geometry": { "type": "Polygon", "coordinates": [ [ [ -3.6879774, 40.4080792 ], [ -3.6884841, 40.4081826 ], [ -3.688527, 40.4094132 ], [ -3.6885277, 40.4094559 ], [ -3.6883865, 40.4094631 ], [ -3.68833, 40.4094269 ], [ -3.6882958, 40.4093851 ], [ -3.688273, 40.4093328 ], [ -3.6882559, 40.4093103 ], [ -3.6880962, 40.4092099 ], [ -3.6876339, 40.4088921 ], [ -3.6875726, 40.4088183 ], [ -3.6874384, 40.408822 ], [ -3.6874191, 40.4088212 ], [ -3.6862451, 40.4088091 ], [ -3.6860744, 40.4087558 ], [ -3.6860328, 40.4087073 ], [ -3.686017, 40.4086966 ], [ -3.6860058, 40.4086847 ], [ -3.6860046, 40.4086739 ], [ -3.6860114, 40.4085918 ], [ -3.6860599, 40.4084974 ], [ -3.6866351, 40.4074097 ], [ -3.6867975, 40.4074555 ], [ -3.686834, 40.4074459 ], [ -3.6873426, 40.4075916 ], [ -3.6872479, 40.4077496 ], [ -3.687353, 40.4078006 ], [ -3.6879774, 40.4080792 ] ] ] } },
{ "type": "Feature", "properties": { "osm_id": "way/29471363", "name": "La Rosaleda", "kind": "garden" }, "geometry": { "type": "Polygon", "coordinates": [ [ [ -3.6803805, 40.4113198 ], [ -3.6802721, 40.4112984 ], [ -3.6801495, 40.4112411 ], [ -3.6800567, 40.4111881 ], [ -3.6799585, 40.4110944 ], [ -3.679896, 40.4109974 ], [ -3.6798786, 40.4109526 ], [ -3.6798391, 40.4108636 ], [ -3.6798275, 40.4108303 ], [ -3.6798115, 40.4107392 ], [ -3.679808, 40.4106527 ], [ -3.6798287, 40.4105397 ], [ -3.6798861, 40.4104143 ], [ -3.6799837, 40.4103169 ], [ -3.6800508, 40.4102854 ], [ -3.6801159, 40.4102632 ], [ -3.6801914, 40.4102563 ], [ -3.6802902, 40.4102726 ], [ -3.6803829, 40.4102957 ], [ -3.6804858, 40.4103329 ], [ -3.6806046, 40.4104039 ], [ -3.6806357, 40.4104351 ], [ -3.6806677, 40.4104742 ], [ -3.6807197, 40.410554 ], [ -3.6807756, 40.4106562 ], [ -3.6807898, 40.4106821 ], [ -3.6808062, 40.4107336 ], [ -3.6808137, 40.4107572 ], [ -3.6808276, 40.4108449 ], [ -3.6808289, 40.4109176 ], [ -3.6808095, 40.410994 ], [ -3.6807747, 40.411085 ], [ -3.6807303, 40.4111602 ], [ -3.6806689, 40.4112438 ], [ -3.6806102, 40.4112843 ], [ -3.6805259, 40.4113197 ], [ -3.6803805, 40.4113198 ] ] ] } },
{ "type": "Feature", "properties": { "osm_id": "way/29489645", "name": "Plaza de la Lealtad", "kind": "park" }, "geometry": { "type": "Polygon", "coordinates": [ [ [ -3.6933138, 40.4168441 ], [ -3.6934643, 40.4160341 ], [ -3.6933425, 40.4159288 ], [ -3.6928756, 40.4159855 ], [ -3.6928016, 40.4159928 ], [ -3.6927357, 40.4160054 ], [ -3.6926684, 40.4160239 ], [ -3.6926161, 40.4160454 ], [ -3.6925682, 40.4160711 ], [ -3.6925185, 40.4161026 ], [ -3.6924832, 40.416131 ], [ -3.6924557, 40.416161 ], [ -3.692428, 40.4161966 ], [ -3.6924003, 40.4162388 ], [ -3.6923862, 40.4162669 ], [ -3.6923761, 40.416292 ], [ -3.6923708, 40.4163143 ], [ -3.6923646, 40.416352 ], [ -3.6923626, 40.4163859 ], [ -3.6923638, 40.4164244 ], [ -3.6923707, 40.416462 ], [ -3.692383, 40.4164996 ], [ -3.6923965, 40.4165306 ], [ -3.6924173, 40.4165665 ], [ -3.6924342, 40.4165897 ], [ -3.6924564, 40.4166142 ], [ -3.692491, 40.4166445 ], [ -3.6925321, 40.4166743 ], [ -3.6925737, 40.4167021 ], [ -3.6926181, 40.4167293 ], [ -3.6926639, 40.416753 ], [ -3.6927061, 40.4167673 ], [ -3.6927428, 40.4167765 ], [ -3.692783, 40.4167844 ], [ -3.6933138, 40.4168441 ] ] ] } },
{ "type": "Feature", "properties": { "osm_id": "way/30675430", "name": "", "kind": "garden" }, "geometry": { "type": "Polygon", "coordinates": [ [ [ -3.6903131, 40.4155733 ], [ -3.6897821, 40.4155709 ], [ -3.6897802, 40.415509 ], [ -3.6898955, 40.4155071 ], [ -3.6900128, 40.4154958 ], [ -3.6901332, 40.4154706 ], [ -3.6901674, 40.4154517 ], [ -3.6901912, 40.4154264 ], [ -3.6903043, 40.4154019 ], [ -3.6903131, 40.4155733 ] ] ] } },
{ "type": "Feature", "properties": { "osm_id": "way/30759681", "name": "", "kind": "park" }, "geometry": { "type": "Polygon", "coordinates": [ [ [ -3.686865, 40.4063086 ], [ -3.6864203, 40.406282 ], [ -3.6861091, 40.4062465 ], [ -3.6859832, 40.4062142 ], [ -3.6857039, 40.4062174 ], [ -3.6854384, 40.4062515 ], [ -3.6852759, 40.4062781 ], [ -3.6852232, 40.4060922 ], [ -3.6851118, 40.4057304 ], [ -3.6860798, 40.4059743 ], [ -3.6866306, 40.4061285 ], [ -3.686865, 40.4063086 ] ] ] } },
{ "type": "Feature", "properties": { "osm_id": "way/108878883", "name": "", "kind": "garden" }, "geometry": { "type": "Polygon", "coordinates": [ [ [ -3.6874609, 40.4065952 ], [ -3.6870674, 40.4065062 ], [ -3.6867306, 40.4064385 ], [ -3.6871135, 40.4064217 ], [ -3.6874609, 40.4065952 ] ] ] } },
{ "type": "Feature", "properties": { "osm_id": "way/108878921", "name": "", "kind": "garden" }, "geometry": { "type": "Polygon", "coordinates": [ [ [ -3.6875942, 40.4062733 ], [ -3.686711, 40.4060306 ], [ -3.6867075, 40.4060388 ], [ -3.6867967, 40.4060742 ], [ -3.6869231, 40.4061374 ], [ -3.6870309, 40.4062108 ], [ -3.6870971, 40.4062633 ], [ -3.687133, 40.4062834 ], [ -3.6871708, 40.406295 ], [ -3.6872069, 40.4062969 ], [ -3.6873319, 40.406279 ], [ -3.6874571, 40.4062748 ], [ -3.6875875, 40.4062834 ], [ -3.6875942, 40.4062733 ] ] ] } },
{ "type": "Feature", "properties": { "osm_id": "way/128089340", "name": "", "kind": "garden" }, "geometry": { "type": "Polygon", "coordinates": [ [ [ -3.6919406, 40.4127911 ], [ -3.6918983, 40.4127894 ], [ -3.6918576, 40.4127803 ], [ -3.6918207, 40.4127644 ], [ -3.6917896, 40.4127424 ], [ -3.6917659, 40.4127157 ], [ -3.6917509, 40.4126855 ], [ -3.6917454, 40.4126535 ], [ -3.6917496, 40.4126213 ], [ -3.6917635, 40.4125908 ], [ -3.6917861, 40.4125635 ], [ -3.6918163, 40.4125409 ], [ -3.6918526, 40.4125241 ], [ -3.6918929, 40.4125141 ], [ -3.6921625, 40.4124817 ], [ -3.6921997, 40.4124886 ], [ -3.6922342, 40.4125012 ], [ -3.6922647, 40.4125187 ], [ -3.6922899, 40.4125406 ], [ -3.6923087, 40.412566 ], [ -3.6923205, 40.4125937 ], [ -3.6923246, 40.4126226 ], [ -3.692321, 40.4126516 ], [ -3.6923097, 40.4126794 ], [ -3.6922914, 40.412705 ], [ -3.6922666, 40.4127271 ], [ -3.6922364, 40.412745 ], [ -3.6922021, 40.4127579 ], [ -3.6919406, 40.4127911 ] ] ] } },
{ "type": "Feature", "properties": { "osm_id": "way/158854585", "name": "", "kind": "garden" }, "geometry": { "type": "Polygon", "coordinates": [ [ [ -3.6919036, 40.4147668 ], [ -3.6918191, 40.4147611 ], [ -3.6917825, 40.4147564 ], [ -3.691747, 40.4147549 ], [ -3.6917002, 40.4147547 ], [ -3.6916688, 40.4147581 ], [ -3.6916267, 40.4147635 ], [ -3.6915765, 40.4147696 ], [ -3.6915745, 40.4147262 ], [ -3.6915811, 40.4147108 ], [ -3.6915931, 40.4146825 ], [ -3.691602, 40.4146607 ], [ -3.6916094, 40.4146331 ], [ -3.6916182, 40.4145956 ], [ -3.6916204, 40.4145677 ], [ -3.6916177, 40.4143927 ], [ -3.6916233, 40.4143854 ], [ -3.6917548, 40.4143831 ], [ -3.6917713, 40.4143857 ], [ -3.6917868, 40.4143907 ], [ -3.6917985, 40.4143975 ], [ -3.6918124, 40.4144101 ], [ -3.6918182, 40.4144231 ], [ -3.6918207, 40.4144444 ], [ -3.6918247, 40.4144769 ], [ -3.6918299, 40.4145061 ], [ -3.6918361, 40.4145283 ], [ -3.691846, 40.4145566 ], [ -3.6918559, 40.4145771 ], [ -3.6918798, 40.4146244 ], [ -3.6918934, 40.4146522 ], [ -3.6919048, 40.4146822 ], [ -3.6919097, 40.4147067 ], [ -3.6919095, 40.4147312 ], [ -3.6919036, 40.4147668 ] ] ] } },
{ "type": "Feature", "properties": { "osm_id": "way/183213419", "name": "", "kind": "park" }, "geometry": { "type": "Polygon", "coordinates": [ [ [ -3.6875633, 40.4094649 ], [ -3.6875707, 40.4094059 ], [ -3.6875527, 40.4093303 ], [ -3.6875328, 40.4093193 ], [ -3.687479, 40.4092897 ], [ -3.6874772, 40.4092042 ], [ -3.6874766, 40.4090231 ], [ -3.6875256, 40.4089835 ], [ -3.6879879, 40.4093012 ], [ -3.6880962, 40.4092099 ], [ -3.6882559, 40.4093103 ], [ -3.688273, 40.4093328 ], [ -3.6882958, 40.4093851 ], [ -3.68833, 40.4094269 ], [ -3.6883865, 40.4094631 ], [ -3.688352, 40.4094923 ], [ -3.6883111, 40.4095269 ], [ -3.6881796, 40.4095628 ], [ -3.6879102, 40.4096261 ], [ -3.687901, 40.409613 ], [ -3.6878755, 40.4096175 ], [ -3.6878515, 40.4096046 ], [ -3.6878278, 40.4096024 ], [ -3.6878111, 40.4096057 ], [ -3.687797, 40.4096125 ], [ -3.6877835, 40.409626 ], [ -3.6877785, 40.4096399 ], [ -3.6877288, 40.4096655 ], [ -3.6876056, 40.4096918 ], [ -3.6875779, 40.4096889 ], [ -3.6875524, 40.4096808 ], [ -3.6875234, 40.4096623 ], [ -3.6875048, 40.4096379 ], [ -3.6874984, 40.4096045 ], [ -3.6874902, 40.4095403 ], [ -3.687497, 40.409517 ], [ -3.6875633, 40.4094649 ] ] ] } },
{ "type": "Feature", "properties": { "osm_id": "way/186321487", "name": "", "kind": "park" }, "geometry": { "type": "Polygon", "coordinates": [ [ [ -3.6884779, 40.4079433 ], [ -3.6884375, 40.4079126 ], [ -3.6878679, 40.4078567 ], [ -3.6879149, 40.4076069 ], [ -3.687905, 40.4075798 ], [ -3.6878619, 40.4075567 ], [ -3.6876771, 40.4075122 ], [ -3.687353, 40.4078006 ], [ -3.6879774, 40.4080792 ], [ -3.6884841, 40.4081826 ], [ -3.6884779, 40.4079433 ] ] ] } },
{ "type": "Feature", "properties": { "osm_id": "way/261164085", "name": "", "kind": "garden" }, "geometry": { "type": "Polygon", "coordinates": [ [ [ -3.6893049, 40.4073143 ], [ -3.6894781, 40.4071696 ], [ -3.6901847, 40.4077077 ], [ -3.6908867, 40.4082854 ], [ -3.6893049, 40.4073143 ] ] ] } },
{ "type": "Feature", "properties": { "osm_id": "way/261523820", "name": "", "kind": "garden" }, "geometry": { "type": "Polygon", "coordinates": [ [ [ -3.6924659, 40.4085081 ], [ -3.6924256, 40.4084589 ], [ -3.6923608, 40.4084064 ], [ -3.6922984, 40.4083666 ], [ -3.6924299, 40.4082849 ], [ -3.692843, 40.4078218 ], [ -3.6930647, 40.4075559 ], [ -3.6932324, 40.4073549 ], [ -3.6932772, 40.4073199 ], [ -3.6933266, 40.4073009 ], [ -3.6933866, 40.4072899 ], [ -3.6934466, 40.4072931 ], [ -3.6924659, 40.4085081 ] ] ] } },
{ "type": "Feature", "properties": { "osm_id": "way/311105283", "name": "", "kind": "garden" }, "geometry": { "type": "Polygon", "coordinates": [ [ [ -3.6931929, 40.414685 ], [ -3.6931164, 40.414695 ], [ -3.6930889, 40.4145713 ], [ -3.6931433, 40.4145641 ], [ -3.6931353, 40.4145292 ], [ -3.6930825, 40.4145362 ], [ -3.6930223, 40.4142728 ], [ -3.6930785, 40.4142654 ], [ -3.6930705, 40.4142302 ], [ -3.6930438, 40.4142337 ], [ -3.6930367, 40.4142024 ], [ -3.6930755, 40.4141975 ], [ -3.6931929, 40.414685 ] ] ] } },
{ "type": "Feature", "properties": { "osm_id": "way/311105284", "name": "", "kind": "garden" }, "geometry": { "type": "Polygon", "coordinates": [ [ [ -3.6921418, 40.4147175 ], [ -3.6922267, 40.4147076 ], [ -3.6922606, 40.4148316 ], [ -3.6922277, 40.4148363 ], [ -3.6921883, 40.4148376 ], [ -3.6921512, 40.4148326 ], [ -3.6921162, 40.414823 ], [ -3.6920874, 40.41481 ], [ -3.6920624, 40.4147965 ], [ -3.6920419, 40.4147805 ], [ -3.6920215, 40.4147587 ], [ -3.6920074, 40.4147377 ], [ -3.6919952, 40.4147098 ], [ -3.6919899, 40.4146779 ], [ -3.6919795, 40.414634 ], [ -3.6919638, 40.4145968 ], [ -3.6919428, 40.4145609 ], [ -3.6919219, 40.4145091 ], [ -3.6919166, 40.4144812 ], [ -3.6919096, 40.414436 ], [ -3.6919131, 40.414388 ], [ -3.6919606, 40.4143817 ], [ -3.6919895, 40.4145147 ], [ -3.6920334, 40.4147084 ], [ -3.6920715, 40.4147271 ], [ -3.6921418, 40.4147175 ] ] ] } },
{ "type": "Feature", "properties": { "osm_id": "way/311105285", "name": "", "kind": "garden" }, "geometry": { "type": "Polygon", "coordinates": [ [ [ -3.6926745, 40.4128557 ], [ -3.6925889, 40.4128655 ], [ -3.6925846, 40.412857 ], [ -3.6925784, 40.412849 ], [ -3.6925723, 40.4128434 ], [ -3.6925618, 40.4128373 ], [ -3.6925488, 40.412834 ], [ -3.6925396, 40.412834 ], [ -3.6925266, 40.4128354 ], [ -3.6925167, 40.4128392 ], [ -3.6925093, 40.4128439 ], [ -3.6925025, 40.41285 ], [ -3.6924963, 40.412857 ], [ -3.6924939, 40.412866 ], [ -3.6924951, 40.4128749 ], [ -3.6924062, 40.4128848 ], [ -3.6924044, 40.4128735 ], [ -3.6924044, 40.4128608 ], [ -3.692408, 40.4128458 ], [ -3.6924175, 40.412824 ], [ -3.6924309, 40.4128077 ], [ -3.692447, 40.4127945 ], [ -3.6924649, 40.4127832 ], [ -3.6924819, 40.4127765 ], [ -3.692505, 40.4127691 ], [ -3.6925312, 40.4127668 ], [ -3.6925612, 40.4127663 ], [ -3.6925871, 40.4127724 ], [ -3.6926104, 40.41278 ], [ -3.6926352, 40.412794 ], [ -3.6926561, 40.4128141 ], [ -3.6926632, 40.4128241 ], [ -3.6926704, 40.4128406 ], [ -3.6926745, 40.4128557 ] ] ] } },
{ "type": "Feature", "properties": { "osm_id": "way/311105286", "name": "", "kind": "garden" }, "geometry": { "type": "Polygon", "coordinates": [ [ [ -3.692712, 40.4130172 ], [ -3.6927399, 40.4131396 ], [ -3.6926192, 40.4131555 ], [ -3.6925914, 40.4130331 ], [ -3.692712, 40.4130172 ] ] ] } },
{ "type": "Feature", "properties": { "osm_id": "way/311105287", "name": "", "kind": "garden" }, "geometry": { "type": "Polygon", "coordinates": [ [ [ -3.6925738, 40.4138598 ], [ -3.6924682, 40.413875 ], [ -3.6925445, 40.4142351 ], [ -3.6926561, 40.4142217 ], [ -3.6925738, 40.4138598 ] ] ] } },
{ "type": "Feature", "properties": { "osm_id": "way/311105288", "name": "", "kind": "garden" }, "geometry": { "type": "Polygon", "coordinates": [ [ [ -3.6930494, 40.4145401 ], [ -3.6929284, 40.4145555 ], [ -3.6929015, 40.414433 ], [ -3.6930224, 40.4144176 ], [ -3.6930494, 40.4145401 ] ] ] } },
{ "type": "Feature", "properties": { "osm_id": "way/311105289", "name": "", "kind": "garden" }, "geometry": { "type": "Polygon", "coordinates": [ [ [ -3.6929008, 40.4145566 ], [ -3.6927791, 40.4145737 ], [ -3.69275, 40.4144537 ], [ -3.6928718, 40.4144366 ], [ -3.6929008, 40.4145566 ] ] ] } },
{ "type": "Feature", "properties": { "osm_id": "way/311105290", "name": "", "kind": "garden" }, "geometry": { "type": "Polygon", "coordinates": [ [ [ -3.6928198, 40.413228 ], [ -3.692856, 40.413223 ], [ -3.6929346, 40.4135975 ], [ -3.6928979, 40.4136025 ], [ -3.6928198, 40.413228 ] ] ] } },
{ "type": "Feature", "properties": { "osm_id": "way/311105291", "name": "", "kind": "garden" }, "geometry": { "type": "Polygon", "coordinates": [ [ [ -3.6930789, 40.4146839 ], [ -3.6928111, 40.41472 ], [ -3.692786, 40.4146102 ], [ -3.6930538, 40.4145747 ], [ -3.6930789, 40.4146839 ] ] ] } },
{ "type": "Feature", "properties": { "osm_id": "way/311105292", "name": "", "kind": "garden" }, "geometry": { "type": "Polygon", "coordinates": [ [ [ -3.692445, 40.4132779 ], [ -3.6923378, 40.4132918 ], [ -3.6924178, 40.4136477 ], [ -3.6925255, 40.4136338 ], [ -3.692445, 40.4132779 ] ] ] } },
{ "type": "Feature", "properties": { "osm_id": "way/311105293", "name": "", "kind": "garden" }, "geometry": { "type": "Polygon", "coordinates": [ [ [ -3.6929511, 40.4137964 ], [ -3.6929919, 40.4137917 ], [ -3.693067, 40.4141667 ], [ -3.6930295, 40.4141718 ], [ -3.6929511, 40.4137964 ] ] ] } },
{ "type": "Feature", "properties": { "osm_id": "way/311105294", "name": "", "kind": "garden" }, "geometry": { "type": "Polygon", "coordinates": [ [ [ -3.6928666, 40.4144166 ], [ -3.6927457, 40.4144321 ], [ -3.6927187, 40.4143096 ], [ -3.6928397, 40.4142942 ], [ -3.6928666, 40.4144166 ] ] ] } },
{ "type": "Feature", "properties": { "osm_id": "way/311105295", "name": "", "kind": "garden" }, "geometry": { "type": "Polygon", "coordinates": [ [ [ -3.6926828, 40.4128754 ], [ -3.6927079, 40.4130009 ], [ -3.6925873, 40.4130149 ], [ -3.6925621, 40.4128893 ], [ -3.6926828, 40.4128754 ] ] ] } },
{ "type": "Feature", "properties": { "osm_id": "way/311105296", "name": "", "kind": "garden" }, "geometry": { "type": "Polygon", "coordinates": [ [ [ -3.6930168, 40.414398 ], [ -3.6928958, 40.4144134 ], [ -3.6928689, 40.414291 ], [ -3.6929898, 40.4142756 ], [ -3.6930168, 40.414398 ] ] ] } },
{ "type": "Feature", "properties": { "osm_id": "way/311105297", "name": "", "kind": "garden" }, "geometry": { "type": "Polygon", "coordinates": [ [ [ -3.6925626, 40.4130366 ], [ -3.6925905, 40.413159 ], [ -3.6924698, 40.4131749 ], [ -3.692442, 40.4130525 ], [ -3.6925626, 40.4130366 ] ] ] } },
{ "type": "Feature", "properties": { "osm_id": "way/311105298", "name": "", "kind": "garden" }, "geometry": { "type": "Polygon", "coordinates": [ [ [ -3.6925571, 40.4130186 ], [ -3.6924346, 40.413034 ], [ -3.6924076, 40.4129094 ], [ -3.6925302, 40.412894 ], [ -3.6925571, 40.4130186 ] ] ] } },
{ "type": "Feature", "properties": { "osm_id": "way/311105299", "name": "", "kind": "garden" }, "geometry": { "type": "Polygon", "coordinates": [ [ [ -3.6927711, 40.413432 ], [ -3.6928072, 40.4135826 ], [ -3.6928316, 40.4135792 ], [ -3.6928393, 40.4136112 ], [ -3.6925736, 40.4136495 ], [ -3.6925332, 40.413461 ], [ -3.6927711, 40.413432 ] ] ] } },
{ "type": "Feature", "properties": { "osm_id": "way/311105300", "name": "", "kind": "garden" }, "geometry": { "type": "Polygon", "coordinates": [ [ [ -3.692866, 40.4138376 ], [ -3.6928927, 40.4138341 ], [ -3.6928861, 40.4138017 ], [ -3.6926131, 40.4138321 ], [ -3.6926549, 40.4140225 ], [ -3.6928987, 40.413992 ], [ -3.692866, 40.4138376 ] ] ] } },
{ "type": "Feature", "properties": { "osm_id": "way/311105301", "name": "", "kind": "garden" }, "geometry": { "type": "Polygon", "coordinates": [ [ [ -3.6927367, 40.413263 ], [ -3.6927651, 40.4132592 ], [ -3.6927589, 40.413233 ], [ -3.6924908, 40.4132686 ], [ -3.6925277, 40.4134422 ], [ -3.6927719, 40.4134125 ], [ -3.6927367, 40.413263 ] ] ] } },
{ "type": "Feature", "properties": { "osm_id": "way/311105302", "name": "", "kind": "garden" }, "geometry": { "type": "Polygon", "coordinates": [ [ [ -3.6929025, 40.4140109 ], [ -3.6929341, 40.4141586 ], [ -3.6929627, 40.414155 ], [ -3.6929683, 40.414181 ], [ -3.6926983, 40.4142156 ], [ -3.69266, 40.4140409 ], [ -3.6929025, 40.4140109 ] ] ] } },
{ "type": "Feature", "properties": { "osm_id": "way/311105303", "name": "", "kind": "garden" }, "geometry": { "type": "Polygon", "coordinates": [ [ [ -3.6927797, 40.4128625 ], [ -3.6927155, 40.4128706 ], [ -3.6927749, 40.4131342 ], [ -3.6928289, 40.4131275 ], [ -3.6928367, 40.4131643 ], [ -3.6928066, 40.413168 ], [ -3.6928127, 40.4131966 ], [ -3.6928497, 40.4131921 ], [ -3.6927797, 40.4128625 ] ] ] } },
{ "type": "Feature", "properties": { "osm_id": "way/311105304", "name": "", "kind": "garden" }, "geometry": { "type": "Polygon", "coordinates": [ [ [ -3.6929724, 40.4142068 ], [ -3.6929803, 40.414241 ], [ -3.692895, 40.4142523 ], [ -3.6928939, 40.4142456 ], [ -3.6927969, 40.4142577 ], [ -3.6927983, 40.4142648 ], [ -3.692712, 40.4142767 ], [ -3.6927041, 40.414243 ], [ -3.6929724, 40.4142068 ] ] ] } },
{ "type": "Feature", "properties": { "osm_id": "way/311105305", "name": "", "kind": "garden" }, "geometry": { "type": "Polygon", "coordinates": [ [ [ -3.6927455, 40.4131747 ], [ -3.692753, 40.4132072 ], [ -3.6924834, 40.4132431 ], [ -3.6924758, 40.4132099 ], [ -3.692565, 40.413198 ], [ -3.6925661, 40.4132025 ], [ -3.6926629, 40.4131897 ], [ -3.692662, 40.4131858 ], [ -3.6927455, 40.4131747 ] ] ] } },
{ "type": "Feature", "properties": { "osm_id": "way/311106574", "name": "", "kind": "garden" }, "geometry": { "type": "Polygon", "coordinates": [ [ [ -3.6923891, 40.4097978 ], [ -3.6924448, 40.4099096 ], [ -3.6927919, 40.410997 ], [ -3.6932531, 40.41243 ], [ -3.6935037, 40.4130503 ], [ -3.6934546, 40.4130264 ], [ -3.6934072, 40.4130147 ], [ -3.6933516, 40.4130105 ], [ -3.6932975, 40.4130105 ], [ -3.6932573, 40.4130158 ], [ -3.693225, 40.4130245 ], [ -3.693184, 40.4130411 ], [ -3.6931341, 40.4130673 ], [ -3.6930891, 40.4131052 ], [ -3.6925999, 40.4108848 ], [ -3.6923789, 40.4099096 ], [ -3.6923348, 40.4098081 ], [ -3.6923891, 40.4097978 ] ] ] } },
{ "type": "Feature", "properties": { "osm_id": "way/311106575", "name": "", "kind": "garden" }, "geometry": { "type": "Polygon", "coordinates": [ [ [ -3.6923046, 40.4097387 ], [ -3.6921627, 40.4094126 ], [ -3.6921415, 40.4092935 ], [ -3.6922379, 40.4093225 ], [ -3.6922726, 40.4094408 ], [ -3.6923645, 40.4097221 ], [ -3.6923046, 40.4097387 ] ] ] } },
{ "type": "Feature", "properties": { "osm_id": "way/311275308", "name": "Plantas ornamentales", "kind": "garden" }, "geometry": { "type": "Polygon", "coordinates": [ [ [ -3.6924684, 40.4122775 ], [ -3.6923935, 40.4119408 ], [ -3.6923587, 40.4117855 ], [ -3.6923192, 40.4116096 ], [ -3.6918192, 40.4116756 ], [ -3.6915866, 40.4117074 ], [ -3.6913564, 40.4117368 ], [ -3.6914345, 40.4120673 ], [ -3.6915042, 40.4123921 ], [ -3.6917348, 40.412366 ], [ -3.6919646, 40.4123399 ], [ -3.6922191, 40.4123084 ], [ -3.6924684, 40.4122775 ] ] ] } },
{ "type": "Feature", "properties": { "osm_id": "way/311275311", "name": "Rosaleda", "kind": "garden" }, "geometry": { "type": "Polygon", "coordinates": [ [ [ -3.6921717, 40.4109538 ], [ -3.6922127, 40.411137 ], [ -3.6922483, 40.4112951 ], [ -3.6917496, 40.4113571 ], [ -3.6915145, 40.4113872 ], [ -3.6912838, 40.4114149 ], [ -3.691207, 40.4110792 ], [ -3.6911346, 40.4107532 ], [ -3.6913655, 40.4107251 ], [ -3.6916044, 40.4106929 ], [ -3.6918547, 40.4106608 ], [ -3.6920983, 40.4106296 ], [ -3.6921309, 40.4107742 ], [ -3.6921717, 40.4109538 ] ] ] } },
{ "type": "Feature", "properties": { "osm_id": "way/311391622", "name": "Astéridas", "kind": "garden" }, "geometry": { "type": "Polygon", "coordinates": [ [ [ -3.6910351, 40.410766 ], [ -3.6910691, 40.4109129 ], [ -3.6911077, 40.4110921 ], [ -3.6911443, 40.4112674 ], [ -3.6911792, 40.411428 ], [ -3.6912145, 40.4115901 ], [ -3.6912496, 40.4117509 ], [ -3.6912867, 40.4119215 ], [ -3.6913214, 40.4120849 ], [ -3.6911286, 40.4121086 ], [ -3.6909342, 40.4121333 ], [ -3.6908974, 40.4119711 ], [ -3.6908592, 40.4118025 ], [ -3.6908228, 40.4116423 ], [ -3.6907853, 40.4114769 ], [ -3.6907487, 40.4113157 ], [ -3.6906356, 40.4108172 ], [ -3.6908288, 40.4107925 ], [ -3.6910351, 40.410766 ] ] ] } },
{ "type": "Feature", "properties": { "osm_id": "way/311391623", "name": "Cariofílidas y Dillénidas", "kind": "garden" }, "geometry": { "type": "Polygon", "coordinates": [ [ [ -3.6906181, 40.4108357 ], [ -3.6907503, 40.4114648 ], [ -3.690375, 40.4115119 ], [ -3.690234, 40.4108814 ], [ -3.6906181, 40.4108357 ] ] ] } },
{ "type": "Feature", "properties": { "osm_id": "way/311391624", "name": "Comelínidas", "kind": "garden" }, "geometry": { "type": "Polygon", "coordinates": [ [ [ -3.6908892, 40.4100963 ], [ -3.6909036, 40.4101621 ], [ -3.6909485, 40.4103683 ], [ -3.6909619, 40.4104297 ], [ -3.6910012, 40.4105976 ], [ -3.6910351, 40.410766 ], [ -3.6908288, 40.4107925 ], [ -3.6906356, 40.4108172 ], [ -3.690597, 40.4106472 ], [ -3.6905596, 40.4104823 ], [ -3.6905455, 40.4104202 ], [ -3.6905226, 40.4103191 ], [ -3.690483, 40.4101445 ], [ -3.6906827, 40.410121 ], [ -3.6908892, 40.4100963 ] ] ] } },
{ "type": "Feature", "properties": { "osm_id": "way/311391625", "name": "Gimnospermas", "kind": "garden" }, "geometry": { "type": "Polygon", "coordinates": [ [ [ -3.6901203, 40.4105399 ], [ -3.6900553, 40.4101986 ], [ -3.6902745, 40.4101694 ], [ -3.690483, 40.4101445 ], [ -3.6905226, 40.4103191 ], [ -3.6905455, 40.4104202 ], [ -3.6905596, 40.4104823 ], [ -3.6903469, 40.4105103 ], [ -3.6901203, 40.4105399 ] ] ] } },
{ "type": "Feature", "properties": { "osm_id": "way/311391626", "name": "Huerta y frutales", "kind": "garden" }, "geometry": { "type": "Polygon", "coordinates": [ [ [ -3.6915306, 40.4103552 ], [ -3.6917795, 40.4103226 ], [ -3.6920219, 40.4102908 ], [ -3.6919848, 40.4101264 ], [ -3.6919496, 40.4099704 ], [ -3.6917076, 40.4099991 ], [ -3.6914592, 40.4100286 ], [ -3.6912179, 40.4100581 ], [ -3.6909839, 40.410085 ], [ -3.6910587, 40.410417 ], [ -3.6915306, 40.4103552 ] ] ] } },
{ "type": "Feature", "properties": { "osm_id": "way/311391627", "name": "Magnólidas y Hamamélidas", "kind": "garden" }, "geometry": { "type": "Polygon", "coordinates": [ [ [ -3.6905596, 40.4104823 ], [ -3.690597, 40.4106472 ], [ -3.6906356, 40.4108172 ], [ -3.6904262, 40.410844 ], [ -3.6901989, 40.4108733 ], [ -3.6901203, 40.4105399 ], [ -3.6903469, 40.4105103 ], [ -3.6905596, 40.4104823 ] ] ] } },
{ "type": "Feature", "properties": { "osm_id": "way/311391628", "name": "Plantas acidófilas", "kind": "garden" }, "geometry": { "type": "Polygon", "coordinates": [ [ [ -3.6916044, 40.4106929 ], [ -3.6915656, 40.4105254 ], [ -3.6915306, 40.4103552 ], [ -3.6917795, 40.4103226 ], [ -3.6920219, 40.4102908 ], [ -3.6920595, 40.4104576 ], [ -3.6920983, 40.4106296 ], [ -3.6918547, 40.4106608 ], [ -3.6916044, 40.4106929 ] ] ] } },
{ "type": "Feature", "properties": { "osm_id": "way/311391629", "name": "Plantas aromáticas y medicinales", "kind": "garden" }, "geometry": { "type": "Polygon", "coordinates": [ [ [ -3.6916044, 40.4106929 ], [ -3.6915656, 40.4105254 ], [ -3.6915306, 40.4103552 ], [ -3.6910587, 40.410417 ], [ -3.6911346, 40.4107532 ], [ -3.6913655, 40.4107251 ], [ -3.6916044, 40.4106929 ] ] ] } },
{ "type": "Feature", "properties": { "osm_id": "way/311391630", "name": "Plantas de bosque de ribera y de la Comunidad de Madrid", "kind": "garden" }, "geometry": { "type": "Polygon", "coordinates": [ [ [ -3.6913564, 40.4117368 ], [ -3.6912838, 40.4114149 ], [ -3.6915145, 40.4113872 ], [ -3.6917496, 40.4113571 ], [ -3.6920024, 40.4113258 ], [ -3.6922483, 40.4112951 ], [ -3.6922827, 40.4114476 ], [ -3.6923192, 40.4116096 ], [ -3.6918192, 40.4116756 ], [ -3.6915866, 40.4117074 ], [ -3.6913564, 40.4117368 ] ] ] } },
{ "type": "Feature", "properties": { "osm_id": "way/311391631", "name": "Rósidas", "kind": "garden" }, "geometry": { "type": "Polygon", "coordinates": [ [ [ -3.6907591, 40.4114963 ], [ -3.6909035, 40.4121246 ], [ -3.6905235, 40.4121753 ], [ -3.6903816, 40.4115434 ], [ -3.6907591, 40.4114963 ] ] ] } },
{ "type": "Feature", "properties": { "osm_id": "way/320320747", "name": "", "kind": "garden" }, "geometry": { "type": "Polygon", "coordinates": [ [ [ -3.6792785, 40.4077797 ], [ -3.6793122, 40.4077364 ], [ -3.6793424, 40.4076905 ], [ -3.6793884, 40.407618 ], [ -3.6795197, 40.4075935 ], [ -3.6793675, 40.4078299 ], [ -3.6792785, 40.4077797 ] ] ] } },
{ "type": "Feature", "properties": { "osm_id": "way/323039754", "name": "", "kind": "garden" }, "geometry": { "type": "Polygon", "coordinates": [ [ [ -3.6886804, 40.42024 ], [ -3.6886383, 40.4202325 ], [ -3.6886015, 40.4202236 ], [ -3.6885716, 40.4202128 ], [ -3.6885358, 40.4201978 ], [ -3.6885034, 40.4201792 ], [ -3.6884744, 40.4201538 ], [ -3.6884529, 40.420125 ], [ -3.6884372, 40.4200974 ], [ -3.6884279, 40.4200724 ], [ -3.6884185, 40.4200406 ], [ -3.6884141, 40.4199954 ], [ -3.6884161, 40.4199693 ], [ -3.6884185, 40.4199394 ], [ -3.6884254, 40.4199152 ], [ -3.6884352, 40.4198883 ], [ -3.6884489, 40.4198618 ], [ -3.6884641, 40.4198386 ], [ -3.6884946, 40.4198043 ], [ -3.6885196, 40.4197849 ], [ -3.6885519, 40.4197662 ], [ -3.6885735, 40.4197572 ], [ -3.6886069, 40.4199043 ], [ -3.6885941, 40.4199062 ], [ -3.6886368, 40.420094 ], [ -3.6886476, 40.4200929 ], [ -3.6886804, 40.42024 ] ] ] } },
{ "type": "Feature", "properties": { "osm_id": "way/323039756", "name": "", "kind": "garden" }, "geometry": { "type": "Polygon", "coordinates": [ [ [ -3.6888732, 40.4202195 ], [ -3.6888403, 40.4200694 ], [ -3.6888521, 40.4200683 ], [ -3.6888094, 40.4198778 ], [ -3.6887967, 40.4198797 ], [ -3.6887638, 40.4197296 ], [ -3.6887913, 40.4197318 ], [ -3.6888236, 40.4197371 ], [ -3.6888575, 40.419746 ], [ -3.6888933, 40.4197591 ], [ -3.6889276, 40.4197744 ], [ -3.6889575, 40.4197938 ], [ -3.6889909, 40.4198192 ], [ -3.6890179, 40.4198476 ], [ -3.6890316, 40.4198648 ], [ -3.6890493, 40.4198946 ], [ -3.6890586, 40.4199174 ], [ -3.6890664, 40.4199458 ], [ -3.6890703, 40.4199824 ], [ -3.6890664, 40.4200264 ], [ -3.6890551, 40.4200612 ], [ -3.6890434, 40.4200862 ], [ -3.6890252, 40.4201153 ], [ -3.6889948, 40.4201478 ], [ -3.6889624, 40.4201754 ], [ -3.688933, 40.4201933 ], [ -3.6889041, 40.4202079 ], [ -3.6888732, 40.4202195 ] ] ] } },
{ "type": "Feature", "properties": { "osm_id": "way/323039759", "name": "", "kind": "garden" }, "geometry": { "type": "Polygon", "coordinates": [ [ [ -3.6884264, 40.4201444 ], [ -3.6884156, 40.420128 ], [ -3.6884068, 40.420109 ], [ -3.6883989, 40.4200892 ], [ -3.6883916, 40.4200686 ], [ -3.6883852, 40.4200481 ], [ -3.6883818, 40.4200294 ], [ -3.6883793, 40.4200055 ], [ -3.6883788, 40.4199835 ], [ -3.6883793, 40.4199656 ], [ -3.6883808, 40.4199544 ], [ -3.6883705, 40.4199514 ], [ -3.6882768, 40.4200122 ], [ -3.6882425, 40.4200317 ], [ -3.6882022, 40.4200526 ], [ -3.6881503, 40.4200795 ], [ -3.6881223, 40.4200918 ], [ -3.6880953, 40.4201022 ], [ -3.6881032, 40.4201213 ], [ -3.6881282, 40.4201213 ], [ -3.6881635, 40.4201213 ], [ -3.6882096, 40.4201228 ], [ -3.6882444, 40.420125 ], [ -3.6882959, 40.4201295 ], [ -3.6883396, 40.4201355 ], [ -3.6883788, 40.4201418 ], [ -3.6884077, 40.4201482 ], [ -3.688419, 40.4201511 ], [ -3.6884264, 40.4201444 ] ] ] } },
{ "type": "Feature", "properties": { "osm_id": "way/323143341", "name": "", "kind": "garden" }, "geometry": { "type": "Polygon", "coordinates": [ [ [ -3.6797294, 40.4076 ], [ -3.6796092, 40.4075566 ], [ -3.6795815, 40.407512 ], [ -3.6796847, 40.4074991 ], [ -3.6797217, 40.4074991 ], [ -3.6797541, 40.4075167 ], [ -3.6797725, 40.4075378 ], [ -3.6797879, 40.4075709 ], [ -3.6797664, 40.4076111 ], [ -3.6797294, 40.4076 ] ] ] } },
{ "type": "Feature", "properties": { "osm_id": "way/323143346", "name": "", "kind": "garden" }, "geometry": { "type": "Polygon", "coordinates": [ [ [ -3.6796782, 40.4083426 ], [ -3.6794769, 40.4083055 ], [ -3.6796111, 40.4081105 ], [ -3.6796782, 40.4083426 ] ] ] } },
{ "type": "Feature", "properties": { "osm_id": "way/356932659", "name": "", "kind": "garden" }, "geometry": { "type": "Polygon", "coordinates": [ [ [ -3.6960154, 40.4181839 ], [ -3.696033, 40.4182328 ], [ -3.6961024, 40.4182165 ], [ -3.6960892, 40.4181868 ], [ -3.6961679, 40.4181678 ], [ -3.6959773, 40.4176867 ], [ -3.695648, 40.4176953 ], [ -3.6957829, 40.41829 ], [ -3.6958363, 40.4182779 ], [ -3.6958949, 40.4182646 ], [ -3.6958749, 40.4182161 ], [ -3.6960154, 40.4181839 ] ] ] } },
{ "type": "Feature", "properties": { "osm_id": "way/356932662", "name": "Jardines del Thyssen", "kind": "garden" }, "geometry": { "type": "Polygon", "coordinates": [ [ [ -3.695216, 40.4167904 ], [ -3.6953, 40.4164157 ], [ -3.6949696, 40.4163653 ], [ -3.6946392, 40.4163149 ], [ -3.6946238, 40.4163716 ], [ -3.6945536, 40.4166301 ], [ -3.6945407, 40.4166775 ], [ -3.695216, 40.4167904 ] ] ] } },
{ "type": "Feature", "properties": { "osm_id": "way/370648509", "name": "", "kind": "garden" }, "geometry": { "type": "Polygon", "coordinates": [ [ [ -3.691661, 40.4203606 ], [ -3.6920312, 40.4204122 ], [ -3.692058, 40.4204008 ], [ -3.692078, 40.4203926 ], [ -3.6922085, 40.4200976 ], [ -3.6921319, 40.4200767 ], [ -3.6921265, 40.4200885 ], [ -3.6920877, 40.4201034 ], [ -3.6920443, 40.4200904 ], [ -3.6920281, 40.4200613 ], [ -3.6920335, 40.4200499 ], [ -3.6919516, 40.4200275 ], [ -3.691961, 40.4200042 ], [ -3.6919521, 40.4200015 ], [ -3.6919437, 40.419998 ], [ -3.6919359, 40.4199932 ], [ -3.6919293, 40.4199873 ], [ -3.6919238, 40.419981 ], [ -3.6919198, 40.4199739 ], [ -3.6919178, 40.4199665 ], [ -3.6919155, 40.419959 ], [ -3.6918824, 40.4199625 ], [ -3.6918431, 40.4199659 ], [ -3.6918446, 40.4199919 ], [ -3.6918456, 40.4199881 ], [ -3.6918515, 40.419989 ], [ -3.6918641, 40.4199837 ], [ -3.6918801, 40.4199863 ], [ -3.6918885, 40.4199978 ], [ -3.6918848, 40.4200116 ], [ -3.6918804, 40.4200137 ], [ -3.6918861, 40.4200148 ], [ -3.6918756, 40.4200539 ], [ -3.6918794, 40.4200545 ], [ -3.6918685, 40.4200951 ], [ -3.6918531, 40.4200926 ], [ -3.6918505, 40.4201025 ], [ -3.6918373, 40.4201053 ], [ -3.6918151, 40.4201019 ], [ -3.6917534, 40.4201006 ], [ -3.6917188, 40.4200998 ], [ -3.691661, 40.4203606 ] ] ] } },
{ "type": "Feature", "properties": { "osm_id": "way/393196791", "name": "", "kind": "garden" }, "geometry": { "type": "Polygon", "coordinates": [ [ [ -3.6873579, 40.4081929 ], [ -3.6873393, 40.4081968 ], [ -3.6873252, 40.4082068 ], [ -3.6873189, 40.4082207 ], [ -3.6873217, 40.4082352 ], [ -3.6873331, 40.408247 ], [ -3.6873504, 40.4082535 ], [ -3.6873697, 40.4082531 ], [ -3.6873865, 40.4082459 ], [ -3.687397, 40.4082336 ], [ -3.6873988, 40.408219 ], [ -3.6873915, 40.4082054 ], [ -3.6873767, 40.408196 ], [ -3.6873579, 40.4081929 ] ] ] } },
{ "type": "Feature", "properties": { "osm_id": "way/393196796", "name": "", "kind": "garden" }, "geometry": { "type": "Polygon", "coordinates": [ [ [ -3.6877489, 40.4083397 ], [ -3.6877688, 40.4081444 ], [ -3.6879525, 40.4082258 ], [ -3.6879354, 40.4083505 ], [ -3.6877489, 40.4083397 ] ] ] } },
{ "type": "Feature", "properties": { "osm_id": "way/393196797", "name": "", "kind": "garden" }, "geometry": { "type": "Polygon", "coordinates": [ [ [ -3.6873567, 40.4081285 ], [ -3.6873498, 40.4081649 ], [ -3.6873233, 40.4081717 ], [ -3.6873051, 40.4081826 ], [ -3.6872879, 40.4082062 ], [ -3.6872727, 40.4082071 ], [ -3.6872737, 40.408122 ], [ -3.6873567, 40.4081285 ] ] ] } },
{ "type": "Feature", "properties": { "osm_id": "way/393196798", "name": "", "kind": "garden" }, "geometry": { "type": "Polygon", "coordinates": [ [ [ -3.6872765, 40.408228 ], [ -3.6872832, 40.4082857 ], [ -3.6872907, 40.4083267 ], [ -3.6873371, 40.4083275 ], [ -3.6873396, 40.4082761 ], [ -3.6873157, 40.4082672 ], [ -3.6872932, 40.4082469 ], [ -3.6872856, 40.4082267 ], [ -3.6872765, 40.408228 ] ] ] } },
{ "type": "Feature", "properties": { "osm_id": "way/393196799", "name": "", "kind": "garden" }, "geometry": { "type": "Polygon", "coordinates": [ [ [ -3.6873674, 40.408278 ], [ -3.6873693, 40.4083289 ], [ -3.6874706, 40.4083296 ], [ -3.6874776, 40.4082417 ], [ -3.6874313, 40.4082387 ], [ -3.6874196, 40.4082558 ], [ -3.6874011, 40.408269 ], [ -3.6873869, 40.4082745 ], [ -3.6873674, 40.408278 ] ] ] } },
{ "type": "Feature", "properties": { "osm_id": "way/393196800", "name": "", "kind": "garden" }, "geometry": { "type": "Polygon", "coordinates": [ [ [ -3.6874348, 40.4082185 ], [ -3.6874276, 40.4081968 ], [ -3.6874189, 40.4081861 ], [ -3.6874054, 40.408176 ], [ -3.6873827, 40.408167 ], [ -3.687388, 40.408131 ], [ -3.6874857, 40.4081386 ], [ -3.6874793, 40.4082197 ], [ -3.6874348, 40.4082185 ] ] ] } },
{ "type": "Feature", "properties": { "osm_id": "way/463905871", "name": "", "kind": "garden" }, "geometry": { "type": "Polygon", "coordinates": [ [ [ -3.6919572, 40.411188 ], [ -3.6919608, 40.4112102 ], [ -3.691947, 40.4112073 ], [ -3.691937, 40.4112032 ], [ -3.6919265, 40.4111963 ], [ -3.6919173, 40.4111858 ], [ -3.691942, 40.4111829 ], [ -3.6919572, 40.411188 ] ] ] } },
{ "type": "Feature", "properties": { "osm_id": "way/463905872", "name": "", "kind": "garden" }, "geometry": { "type": "Polygon", "coordinates": [ [ [ -3.69204, 40.4111454 ], [ -3.6920342, 40.4111343 ], [ -3.6920253, 40.4111244 ], [ -3.6920136, 40.4111164 ], [ -3.6919999, 40.4111106 ], [ -3.6919848, 40.4111072 ], [ -3.6919691, 40.4111066 ], [ -3.6919607, 40.41107 ], [ -3.6919795, 40.4110701 ], [ -3.6919981, 40.4110724 ], [ -3.6920159, 40.4110769 ], [ -3.6920327, 40.4110834 ], [ -3.6920479, 40.4110919 ], [ -3.6920612, 40.411102 ], [ -3.6920722, 40.4111137 ], [ -3.6920807, 40.4111264 ], [ -3.6920866, 40.41114 ], [ -3.69204, 40.4111454 ] ] ] } },
{ "type": "Feature", "properties": { "osm_id": "way/463905873", "name": "", "kind": "garden" }, "geometry": { "type": "Polygon", "coordinates": [ [ [ -3.691964, 40.4112256 ], [ -3.6919501, 40.4112241 ], [ -3.6919369, 40.4112205 ], [ -3.6919249, 40.411215 ], [ -3.6919146, 40.4112077 ], [ -3.6919064, 40.411199 ], [ -3.6919007, 40.4111893 ], [ -3.6918543, 40.4111956 ], [ -3.6918616, 40.4112119 ], [ -3.691873, 40.4112267 ], [ -3.6918881, 40.4112395 ], [ -3.6919063, 40.4112497 ], [ -3.6919268, 40.4112569 ], [ -3.6919488, 40.4112608 ], [ -3.6919714, 40.4112613 ], [ -3.691964, 40.4112256 ] ] ] } },
{ "type": "Feature", "properties": { "osm_id": "way/463905874", "name": "", "kind": "garden" }, "geometry": { "type": "Polygon", "coordinates": [ [ [ -3.6919712, 40.4111202 ], [ -3.6919758, 40.4111415 ], [ -3.6919925, 40.4111506 ], [ -3.6920223, 40.4111472 ], [ -3.6920139, 40.4111365 ], [ -3.6920015, 40.4111278 ], [ -3.6919894, 40.411123 ], [ -3.6919712, 40.4111202 ] ] ] } },
{ "type": "Feature", "properties": { "osm_id": "way/463905875", "name": "", "kind": "garden" }, "geometry": { "type": "Polygon", "coordinates": [ [ [ -3.6919878, 40.411182 ], [ -3.691992, 40.4112039 ], [ -3.6920002, 40.4112016 ], [ -3.6920148, 40.4111933 ], [ -3.6920229, 40.4111843 ], [ -3.6920274, 40.4111723 ], [ -3.6919974, 40.4111738 ], [ -3.6919878, 40.411182 ] ] ] } },
{ "type": "Feature", "properties": { "osm_id": "way/463905876", "name": "", "kind": "garden" }, "geometry": { "type": "Polygon", "coordinates": [ [ [ -3.6918501, 40.4111676 ], [ -3.691897, 40.4111615 ], [ -3.6918985, 40.4111484 ], [ -3.6919044, 40.4111359 ], [ -3.6919142, 40.4111249 ], [ -3.6919273, 40.4111162 ], [ -3.6919428, 40.4111103 ], [ -3.6919355, 40.4110739 ], [ -3.6919187, 40.4110788 ], [ -3.6919031, 40.4110856 ], [ -3.691889, 40.411094 ], [ -3.6918767, 40.4111039 ], [ -3.6918665, 40.4111152 ], [ -3.6918585, 40.4111274 ], [ -3.6918531, 40.4111404 ], [ -3.6918503, 40.4111539 ], [ -3.6918501, 40.4111676 ] ] ] } },
{ "type": "Feature", "properties": { "osm_id": "way/463905877", "name": "", "kind": "garden" }, "geometry": { "type": "Polygon", "coordinates": [ [ [ -3.6919437, 40.4111271 ], [ -3.6919479, 40.4111486 ], [ -3.6919386, 40.411157 ], [ -3.6919137, 40.4111609 ], [ -3.6919147, 40.4111537 ], [ -3.6919191, 40.4111442 ], [ -3.6919276, 40.4111353 ], [ -3.6919437, 40.4111271 ] ] ] } },
{ "type": "Feature", "properties": { "osm_id": "way/463905878", "name": "", "kind": "garden" }, "geometry": { "type": "Polygon", "coordinates": [ [ [ -3.6919965, 40.4112206 ], [ -3.6920103, 40.4112167 ], [ -3.6920227, 40.4112107 ], [ -3.6920331, 40.4112027 ], [ -3.692041, 40.4111933 ], [ -3.6920461, 40.4111828 ], [ -3.6920481, 40.4111717 ], [ -3.6920951, 40.4111652 ], [ -3.6920947, 40.4111807 ], [ -3.6920907, 40.4111958 ], [ -3.6920832, 40.4112102 ], [ -3.6920725, 40.4112233 ], [ -3.6920589, 40.4112347 ], [ -3.6920428, 40.4112441 ], [ -3.6920247, 40.4112512 ], [ -3.6920053, 40.4112556 ], [ -3.6919965, 40.4112206 ] ] ] } },
{ "type": "Feature", "properties": { "osm_id": "way/463905879", "name": "", "kind": "garden" }, "geometry": { "type": "Polygon", "coordinates": [ [ [ -3.6918716, 40.410828 ], [ -3.6918751, 40.4108502 ], [ -3.6918614, 40.4108473 ], [ -3.6918513, 40.4108432 ], [ -3.6918408, 40.4108363 ], [ -3.6918316, 40.4108258 ], [ -3.6918563, 40.4108228 ], [ -3.6918716, 40.410828 ] ] ] } },
{ "type": "Feature", "properties": { "osm_id": "way/463905880", "name": "", "kind": "garden" }, "geometry": { "type": "Polygon", "coordinates": [ [ [ -3.6919543, 40.4107854 ], [ -3.6919485, 40.4107743 ], [ -3.6919396, 40.4107644 ], [ -3.6919279, 40.4107564 ], [ -3.6919142, 40.4107505 ], [ -3.6918991, 40.4107472 ], [ -3.6918834, 40.4107466 ], [ -3.691875, 40.41071 ], [ -3.6918938, 40.4107101 ], [ -3.6919124, 40.4107124 ], [ -3.6919302, 40.4107169 ], [ -3.691947, 40.4107234 ], [ -3.6919622, 40.4107319 ], [ -3.6919755, 40.410742 ], [ -3.6919865, 40.4107536 ], [ -3.6919951, 40.4107664 ], [ -3.6920009, 40.41078 ], [ -3.6919543, 40.4107854 ] ] ] } },
{ "type": "Feature", "properties": { "osm_id": "way/463905881", "name": "", "kind": "garden" }, "geometry": { "type": "Polygon", "coordinates": [ [ [ -3.6918783, 40.4108655 ], [ -3.6918644, 40.4108641 ], [ -3.6918512, 40.4108605 ], [ -3.6918392, 40.4108549 ], [ -3.6918289, 40.4108477 ], [ -3.6918207, 40.410839 ], [ -3.691815, 40.4108292 ], [ -3.6917687, 40.4108355 ], [ -3.6917759, 40.4108518 ], [ -3.6917873, 40.4108667 ], [ -3.6918024, 40.4108795 ], [ -3.6918206, 40.4108897 ], [ -3.6918411, 40.4108969 ], [ -3.6918631, 40.4109008 ], [ -3.6918857, 40.4109012 ], [ -3.6918783, 40.4108655 ] ] ] } },
{ "type": "Feature", "properties": { "osm_id": "way/463905882", "name": "", "kind": "garden" }, "geometry": { "type": "Polygon", "coordinates": [ [ [ -3.6918855, 40.4107602 ], [ -3.6918901, 40.4107815 ], [ -3.6919068, 40.4107905 ], [ -3.6919366, 40.4107872 ], [ -3.6919282, 40.4107765 ], [ -3.6919158, 40.4107677 ], [ -3.6919037, 40.410763 ], [ -3.6918855, 40.4107602 ] ] ] } },
{ "type": "Feature", "properties": { "osm_id": "way/463905883", "name": "", "kind": "garden" }, "geometry": { "type": "Polygon", "coordinates": [ [ [ -3.6919021, 40.410822 ], [ -3.6919063, 40.4108439 ], [ -3.6919145, 40.4108416 ], [ -3.6919292, 40.4108333 ], [ -3.6919372, 40.4108243 ], [ -3.6919417, 40.4108123 ], [ -3.6919117, 40.4108138 ], [ -3.6919021, 40.410822 ] ] ] } },
{ "type": "Feature", "properties": { "osm_id": "way/463905884", "name": "", "kind": "garden" }, "geometry": { "type": "Polygon", "coordinates": [ [ [ -3.6917644, 40.4108075 ], [ -3.6918113, 40.4108015 ], [ -3.6918129, 40.4107883 ], [ -3.6918187, 40.4107759 ], [ -3.6918285, 40.4107649 ], [ -3.6918416, 40.4107562 ], [ -3.6918571, 40.4107503 ], [ -3.6918498, 40.4107139 ], [ -3.691833, 40.4107188 ], [ -3.6918174, 40.4107255 ], [ -3.6918033, 40.410734 ], [ -3.691791, 40.4107439 ], [ -3.6917808, 40.4107551 ], [ -3.6917729, 40.4107674 ], [ -3.6917674, 40.4107804 ], [ -3.6917646, 40.4107939 ], [ -3.6917644, 40.4108075 ] ] ] } },
{ "type": "Feature", "properties": { "osm_id": "way/463905885", "name": "", "kind": "garden" }, "geometry": { "type": "Polygon", "coordinates": [ [ [ -3.691858, 40.4107671 ], [ -3.6918622, 40.4107886 ], [ -3.6918529, 40.410797 ], [ -3.691828, 40.4108009 ], [ -3.691829, 40.4107937 ], [ -3.6918334, 40.4107842 ], [ -3.6918419, 40.4107753 ], [ -3.691858, 40.4107671 ] ] ] } },
{ "type": "Feature", "properties": { "osm_id": "way/463905886", "name": "", "kind": "garden" }, "geometry": { "type": "Polygon", "coordinates": [ [ [ -3.6919108, 40.4108606 ], [ -3.6919246, 40.4108567 ], [ -3.691937, 40.4108507 ], [ -3.6919474, 40.4108427 ], [ -3.6919553, 40.4108333 ], [ -3.6919604, 40.4108227 ], [ -3.6919624, 40.4108116 ], [ -3.6920094, 40.4108052 ], [ -3.692009, 40.4108206 ], [ -3.692005, 40.4108358 ], [ -3.6919975, 40.4108501 ], [ -3.6919868, 40.4108632 ], [ -3.6919732, 40.4108747 ], [ -3.6919571, 40.4108841 ], [ -3.691939, 40.4108911 ], [ -3.6919196, 40.4108956 ], [ -3.6919108, 40.4108606 ] ] ] } },
{ "type": "Feature", "properties": { "osm_id": "way/463905887", "name": "", "kind": "garden" }, "geometry": { "type": "Polygon", "coordinates": [ [ [ -3.6913919, 40.4108926 ], [ -3.6913955, 40.4109148 ], [ -3.6913817, 40.4109119 ], [ -3.6913717, 40.4109078 ], [ -3.6913612, 40.4109009 ], [ -3.691352, 40.4108904 ], [ -3.6913767, 40.4108874 ], [ -3.6913919, 40.4108926 ] ] ] } },
{ "type": "Feature", "properties": { "osm_id": "way/463905888", "name": "", "kind": "garden" }, "geometry": { "type": "Polygon", "coordinates": [ [ [ -3.6914747, 40.41085 ], [ -3.6914689, 40.4108389 ], [ -3.69146, 40.410829 ], [ -3.6914483, 40.410821 ], [ -3.6914346, 40.4108151 ], [ -3.6914195, 40.4108118 ], [ -3.6914038, 40.4108112 ], [ -3.6913953, 40.4107746 ], [ -3.6914142, 40.4107747 ], [ -3.6914327, 40.410777 ], [ -3.6914506, 40.4107815 ], [ -3.6914674, 40.410788 ], [ -3.6914826, 40.4107965 ], [ -3.6914958, 40.4108066 ], [ -3.6915069, 40.4108182 ], [ -3.6915154, 40.410831 ], [ -3.6915213, 40.4108446 ], [ -3.6914747, 40.41085 ] ] ] } },
{ "type": "Feature", "properties": { "osm_id": "way/463905889", "name": "", "kind": "garden" }, "geometry": { "type": "Polygon", "coordinates": [ [ [ -3.6913987, 40.4109301 ], [ -3.6913848, 40.4109287 ], [ -3.6913716, 40.4109251 ], [ -3.6913596, 40.4109195 ], [ -3.6913492, 40.4109123 ], [ -3.6913411, 40.4109036 ], [ -3.6913353, 40.4108938 ], [ -3.691289, 40.4109001 ], [ -3.6912963, 40.4109164 ], [ -3.6913077, 40.4109313 ], [ -3.6913228, 40.4109441 ], [ -3.691341, 40.4109543 ], [ -3.6913615, 40.4109615 ], [ -3.6913835, 40.4109654 ], [ -3.6914061, 40.4109658 ], [ -3.6913987, 40.4109301 ] ] ] } },
{ "type": "Feature", "properties": { "osm_id": "way/463905890", "name": "", "kind": "garden" }, "geometry": { "type": "Polygon", "coordinates": [ [ [ -3.6914059, 40.4108248 ], [ -3.6914105, 40.4108461 ], [ -3.6914271, 40.4108551 ], [ -3.691457, 40.4108518 ], [ -3.6914486, 40.4108411 ], [ -3.6914362, 40.4108323 ], [ -3.691424, 40.4108275 ], [ -3.6914059, 40.4108248 ] ] ] } },
{ "type": "Feature", "properties": { "osm_id": "way/463905891", "name": "", "kind": "garden" }, "geometry": { "type": "Polygon", "coordinates": [ [ [ -3.6914225, 40.4108866 ], [ -3.6914267, 40.4109085 ], [ -3.6914349, 40.4109062 ], [ -3.6914495, 40.4108979 ], [ -3.6914576, 40.4108889 ], [ -3.6914621, 40.4108769 ], [ -3.6914321, 40.4108784 ], [ -3.6914225, 40.4108866 ] ] ] } },
{ "type": "Feature", "properties": { "osm_id": "way/463905892", "name": "", "kind": "garden" }, "geometry": { "type": "Polygon", "coordinates": [ [ [ -3.6912848, 40.4108721 ], [ -3.6913317, 40.4108661 ], [ -3.6913332, 40.4108529 ], [ -3.6913391, 40.4108405 ], [ -3.6913489, 40.4108295 ], [ -3.691362, 40.4108208 ], [ -3.6913775, 40.4108149 ], [ -3.6913702, 40.4107785 ], [ -3.6913534, 40.4107834 ], [ -3.6913378, 40.4107901 ], [ -3.6913237, 40.4107986 ], [ -3.6913114, 40.4108085 ], [ -3.6913012, 40.4108197 ], [ -3.6912932, 40.410832 ], [ -3.6912878, 40.410845 ], [ -3.691285, 40.4108585 ], [ -3.6912848, 40.4108721 ] ] ] } },
{ "type": "Feature", "properties": { "osm_id": "way/463905893", "name": "", "kind": "garden" }, "geometry": { "type": "Polygon", "coordinates": [ [ [ -3.6913784, 40.4108317 ], [ -3.6913826, 40.4108532 ], [ -3.6913733, 40.4108616 ], [ -3.6913484, 40.4108655 ], [ -3.6913494, 40.4108583 ], [ -3.6913538, 40.4108488 ], [ -3.6913623, 40.4108399 ], [ -3.6913784, 40.4108317 ] ] ] } },
{ "type": "Feature", "properties": { "osm_id": "way/463905894", "name": "", "kind": "garden" }, "geometry": { "type": "Polygon", "coordinates": [ [ [ -3.6914312, 40.4109252 ], [ -3.691445, 40.4109213 ], [ -3.6914574, 40.4109153 ], [ -3.6914678, 40.4109073 ], [ -3.6914757, 40.4108979 ], [ -3.6914808, 40.4108873 ], [ -3.6914828, 40.4108762 ], [ -3.6915298, 40.4108698 ], [ -3.6915294, 40.4108852 ], [ -3.6915254, 40.4109004 ], [ -3.6915179, 40.4109147 ], [ -3.6915072, 40.4109278 ], [ -3.6914936, 40.4109393 ], [ -3.6914775, 40.4109487 ], [ -3.6914594, 40.4109557 ], [ -3.69144, 40.4109602 ], [ -3.6914312, 40.4109252 ] ] ] } },
{ "type": "Feature", "properties": { "osm_id": "way/463905895", "name": "", "kind": "garden" }, "geometry": { "type": "Polygon", "coordinates": [ [ [ -3.6913643, 40.4112264 ], [ -3.6914112, 40.4112203 ], [ -3.6914128, 40.4112071 ], [ -3.6914186, 40.4111947 ], [ -3.6914284, 40.4111837 ], [ -3.6914415, 40.411175 ], [ -3.691457, 40.4111691 ], [ -3.6914497, 40.4111327 ], [ -3.6914329, 40.4111376 ], [ -3.6914173, 40.4111443 ], [ -3.6914032, 40.4111528 ], [ -3.6913909, 40.4111627 ], [ -3.6913807, 40.4111739 ], [ -3.6913728, 40.4111862 ], [ -3.6913673, 40.4111992 ], [ -3.6913645, 40.4112127 ], [ -3.6913643, 40.4112264 ] ] ] } },
{ "type": "Feature", "properties": { "osm_id": "way/463905896", "name": "", "kind": "garden" }, "geometry": { "type": "Polygon", "coordinates": [ [ [ -3.6915542, 40.4112042 ], [ -3.6915484, 40.4111931 ], [ -3.6915395, 40.4111832 ], [ -3.6915279, 40.4111752 ], [ -3.6915141, 40.4111693 ], [ -3.691499, 40.411166 ], [ -3.6914833, 40.4111654 ], [ -3.6914749, 40.4111288 ], [ -3.6914937, 40.4111289 ], [ -3.6915123, 40.4111312 ], [ -3.6915301, 40.4111357 ], [ -3.6915469, 40.4111422 ], [ -3.6915621, 40.4111507 ], [ -3.6915754, 40.4111608 ], [ -3.6915864, 40.4111724 ], [ -3.691595, 40.4111852 ], [ -3.6916008, 40.4111988 ], [ -3.6915542, 40.4112042 ] ] ] } },
{ "type": "Feature", "properties": { "osm_id": "way/463905897", "name": "", "kind": "garden" }, "geometry": { "type": "Polygon", "coordinates": [ [ [ -3.6915107, 40.4112794 ], [ -3.6915245, 40.4112755 ], [ -3.6915369, 40.4112695 ], [ -3.6915473, 40.4112615 ], [ -3.6915552, 40.4112521 ], [ -3.6915603, 40.4112416 ], [ -3.6915623, 40.4112304 ], [ -3.6916093, 40.411224 ], [ -3.6916089, 40.4112394 ], [ -3.6916049, 40.4112546 ], [ -3.6915975, 40.4112689 ], [ -3.6915867, 40.411282 ], [ -3.6915731, 40.4112935 ], [ -3.691557, 40.4113029 ], [ -3.691539, 40.4113099 ], [ -3.6915195, 40.4113144 ], [ -3.6915107, 40.4112794 ] ] ] } },
{ "type": "Feature", "properties": { "osm_id": "way/463905898", "name": "", "kind": "garden" }, "geometry": { "type": "Polygon", "coordinates": [ [ [ -3.6914783, 40.4112843 ], [ -3.6914643, 40.4112829 ], [ -3.6914511, 40.4112793 ], [ -3.6914391, 40.4112738 ], [ -3.6914288, 40.4112665 ], [ -3.6914206, 40.4112578 ], [ -3.6914149, 40.411248 ], [ -3.6913686, 40.4112543 ], [ -3.6913758, 40.4112706 ], [ -3.6913872, 40.4112855 ], [ -3.6914023, 40.4112983 ], [ -3.6914205, 40.4113085 ], [ -3.691441, 40.4113157 ], [ -3.691463, 40.4113196 ], [ -3.6914856, 40.41132 ], [ -3.6914783, 40.4112843 ] ] ] } },
{ "type": "Feature", "properties": { "osm_id": "way/463905899", "name": "", "kind": "garden" }, "geometry": { "type": "Polygon", "coordinates": [ [ [ -3.691502, 40.4112408 ], [ -3.6915062, 40.4112627 ], [ -3.6915144, 40.4112604 ], [ -3.6915291, 40.4112521 ], [ -3.6915371, 40.4112431 ], [ -3.6915416, 40.4112311 ], [ -3.6915116, 40.4112326 ], [ -3.691502, 40.4112408 ] ] ] } },
{ "type": "Feature", "properties": { "osm_id": "way/463905900", "name": "", "kind": "garden" }, "geometry": { "type": "Polygon", "coordinates": [ [ [ -3.6914715, 40.4112468 ], [ -3.691475, 40.411269 ], [ -3.6914613, 40.4112661 ], [ -3.6914512, 40.411262 ], [ -3.6914408, 40.4112551 ], [ -3.6914315, 40.4112446 ], [ -3.6914562, 40.4112416 ], [ -3.6914715, 40.4112468 ] ] ] } },
{ "type": "Feature", "properties": { "osm_id": "way/463905901", "name": "", "kind": "garden" }, "geometry": { "type": "Polygon", "coordinates": [ [ [ -3.6914855, 40.411179 ], [ -3.69149, 40.4112003 ], [ -3.6915067, 40.4112093 ], [ -3.6915365, 40.411206 ], [ -3.6915281, 40.4111953 ], [ -3.6915157, 40.4111865 ], [ -3.6915036, 40.4111818 ], [ -3.6914855, 40.411179 ] ] ] } },
{ "type": "Feature", "properties": { "osm_id": "way/463905902", "name": "", "kind": "garden" }, "geometry": { "type": "Polygon", "coordinates": [ [ [ -3.6914579, 40.4111859 ], [ -3.6914621, 40.4112074 ], [ -3.6914528, 40.4112158 ], [ -3.6914279, 40.4112197 ], [ -3.6914289, 40.4112125 ], [ -3.6914333, 40.411203 ], [ -3.6914418, 40.4111941 ], [ -3.6914579, 40.4111859 ] ] ] } },
{ "type": "Feature", "properties": { "osm_id": "way/539422505", "name": "", "kind": "garden" }, "geometry": { "type": "Polygon", "coordinates": [ [ [ -3.6916321, 40.414329 ], [ -3.6916302, 40.4142749 ], [ -3.691626, 40.4141586 ], [ -3.691808, 40.413998 ], [ -3.6918721, 40.414283 ], [ -3.691874, 40.414297 ], [ -3.6917873, 40.4143083 ], [ -3.6916321, 40.414329 ] ] ] } },
{ "type": "Feature", "properties": { "osm_id": "way/539422507", "name": "", "kind": "garden" }, "geometry": { "type": "Polygon", "coordinates": [ [ [ -3.6918006, 40.4139646 ], [ -3.6917857, 40.413897 ], [ -3.6915968, 40.4139459 ], [ -3.6916043, 40.4141397 ], [ -3.6918006, 40.4139646 ] ] ] } },
{ "type": "Feature", "properties": { "osm_id": "way/539422508", "name": "", "kind": "garden" }, "geometry": { "type": "Polygon", "coordinates": [ [ [ -3.6917799, 40.4138708 ], [ -3.6915978, 40.4139184 ], [ -3.6915939, 40.4137544 ], [ -3.6917628, 40.4137934 ], [ -3.6917799, 40.4138708 ] ] ] } },
{ "type": "Feature", "properties": { "osm_id": "way/539422509", "name": "", "kind": "garden" }, "geometry": { "type": "Polygon", "coordinates": [ [ [ -3.6917571, 40.4137678 ], [ -3.6915934, 40.4137263 ], [ -3.6915876, 40.4135692 ], [ -3.6917331, 40.4136591 ], [ -3.6917571, 40.4137678 ] ] ] } },
{ "type": "Feature", "properties": { "osm_id": "way/539422511", "name": "", "kind": "garden" }, "geometry": { "type": "Polygon", "coordinates": [ [ [ -3.6915643, 40.4135193 ], [ -3.6915614, 40.4133001 ], [ -3.6916493, 40.4132908 ], [ -3.6916799, 40.4134184 ], [ -3.6917241, 40.4136185 ], [ -3.6915643, 40.4135193 ] ] ] } },
{ "type": "Feature", "properties": { "osm_id": "way/554720472", "name": "Jardín Tropical", "kind": "garden" }, "geometry": { "type": "Polygon", "coordinates": [ [ [ -3.6912328, 40.4064151 ], [ -3.6907498, 40.4066219 ], [ -3.6914847, 40.4076131 ], [ -3.6919788, 40.4074167 ], [ -3.6912328, 40.4064151 ] ] ] } },
{ "type": "Feature", "properties": { "osm_id": "way/556136740", "name": "", "kind": "garden" }, "geometry": { "type": "Polygon", "coordinates": [ [ [ -3.6943035, 40.4050738 ], [ -3.6943162, 40.4049638 ], [ -3.6940308, 40.4050555 ], [ -3.6943035, 40.4050738 ] ] ] } },
{ "type": "Feature", "properties": { "osm_id": "way/556136741", "name": "", "kind": "garden" }, "geometry": { "type": "Polygon", "coordinates": [ [ [ -3.6943128, 40.4049354 ], [ -3.6940292, 40.4050324 ], [ -3.6940417, 40.4049182 ], [ -3.6943128, 40.4049354 ] ] ] } },
{ "type": "Feature", "properties": { "osm_id": "way/570379828", "name": "", "kind": "garden" }, "geometry": { "type": "Polygon", "coordinates": [ [ [ -3.6934745, 40.4198104 ], [ -3.6933143, 40.420155 ], [ -3.6935323, 40.4202182 ], [ -3.6938374, 40.4202345 ], [ -3.6939389, 40.4202317 ], [ -3.6939199, 40.4202036 ], [ -3.6939013, 40.4201559 ], [ -3.6938971, 40.4201096 ], [ -3.6939103, 40.420054 ], [ -3.6939436, 40.4200087 ], [ -3.6939932, 40.4199676 ], [ -3.6940635, 40.4199195 ], [ -3.6941429, 40.4198768 ], [ -3.6942352, 40.4198311 ], [ -3.6942524, 40.4198202 ], [ -3.694244, 40.4198051 ], [ -3.6941789, 40.4197836 ], [ -3.6941161, 40.4197592 ], [ -3.6940527, 40.4197242 ], [ -3.6940011, 40.4196845 ], [ -3.6939576, 40.4196406 ], [ -3.6939346, 40.4196075 ], [ -3.6939106, 40.4195642 ], [ -3.6938847, 40.4195118 ], [ -3.6937851, 40.4195253 ], [ -3.6937345, 40.4196188 ], [ -3.6936683, 40.4196995 ], [ -3.6935924, 40.4197554 ], [ -3.6934745, 40.4198104 ] ] ] } },
{ "type": "Feature", "properties": { "osm_id": "way/584992253", "name": "", "kind": "garden" }, "geometry": { "type": "Polygon", "coordinates": [ [ [ -3.6793441, 40.4078662 ], [ -3.6793141, 40.4079128 ], [ -3.6792828, 40.4079002 ], [ -3.6792784, 40.4079064 ], [ -3.6791721, 40.4078668 ], [ -3.6792314, 40.4078241 ], [ -3.6792424, 40.4078139 ], [ -3.6792827, 40.4078528 ], [ -3.6793441, 40.4078662 ] ] ] } },
{ "type": "Feature", "properties": { "osm_id": "way/598662590", "name": "", "kind": "garden" }, "geometry": { "type": "Polygon", "coordinates": [ [ [ -3.6930555, 40.4199719 ], [ -3.6929341, 40.4202357 ], [ -3.6929973, 40.4202522 ], [ -3.692716, 40.4208786 ], [ -3.6927124, 40.420894 ], [ -3.6926479, 40.4208759 ], [ -3.6924877, 40.4212181 ], [ -3.6926211, 40.4212573 ], [ -3.6923992, 40.4217352 ], [ -3.6924177, 40.4217407 ], [ -3.6932844, 40.4198893 ], [ -3.6930933, 40.4199397 ], [ -3.6931019, 40.4199572 ], [ -3.6930555, 40.4199719 ] ] ] } },
{ "type": "Feature", "properties": { "osm_id": "way/598662591", "name": "", "kind": "garden" }, "geometry": { "type": "Polygon", "coordinates": [ [ [ -3.6928332, 40.4202002 ], [ -3.6927509, 40.4201773 ], [ -3.6927175, 40.4202517 ], [ -3.6927094, 40.4202641 ], [ -3.6927004, 40.4202734 ], [ -3.6926931, 40.4202827 ], [ -3.6926768, 40.4203 ], [ -3.6926679, 40.4203112 ], [ -3.6926377, 40.4203428 ], [ -3.6925335, 40.4205746 ], [ -3.6919548, 40.4218286 ], [ -3.6919548, 40.4218388 ], [ -3.6919642, 40.4218449 ], [ -3.6921004, 40.4218412 ], [ -3.6921763, 40.4216732 ], [ -3.6921593, 40.4216691 ], [ -3.6921745, 40.4216348 ], [ -3.6921919, 40.4216387 ], [ -3.6923185, 40.4213699 ], [ -3.6922992, 40.4213643 ], [ -3.6923088, 40.4213441 ], [ -3.692327, 40.4213488 ], [ -3.6924872, 40.4210114 ], [ -3.6924569, 40.4210034 ], [ -3.6924709, 40.4209724 ], [ -3.6924961, 40.4209788 ], [ -3.6925095, 40.4209497 ], [ -3.6924923, 40.4209455 ], [ -3.6925021, 40.4209228 ], [ -3.6925167, 40.420926 ], [ -3.6925413, 40.420862 ], [ -3.6925307, 40.4208592 ], [ -3.6925438, 40.4208291 ], [ -3.6925614, 40.420834 ], [ -3.6926218, 40.4207025 ], [ -3.6926044, 40.4206983 ], [ -3.6926169, 40.420668 ], [ -3.6926345, 40.420672 ], [ -3.692764, 40.4203529 ], [ -3.6927861, 40.4203492 ], [ -3.6928215, 40.4202624 ], [ -3.6928102, 40.4202535 ], [ -3.6928332, 40.4202002 ] ] ] } },
{ "type": "Feature", "properties": { "osm_id": "way/661052395", "name": "", "kind": "park" }, "geometry": { "type": "Polygon", "coordinates": [ [ [ -3.6784836, 40.4076632 ], [ -3.6784451, 40.4076335 ], [ -3.6784011, 40.4076153 ], [ -3.6783622, 40.4076068 ], [ -3.6782624, 40.407599 ], [ -3.6782987, 40.4076732 ], [ -3.6783448, 40.4077374 ], [ -3.6784079, 40.407795 ], [ -3.6784811, 40.4078425 ], [ -3.678505, 40.4078095 ], [ -3.6785158, 40.4077813 ], [ -3.6785208, 40.4077524 ], [ -3.6785161, 40.4077184 ], [ -3.6785047, 40.4076926 ], [ -3.6784836, 40.4076632 ] ] ] } },
{ "type": "Feature", "properties": { "osm_id": "way/661052396", "name": "", "kind": "park" }, "geometry": { "type": "Polygon", "coordinates": [ [ [ -3.6784267, 40.4072155 ], [ -3.6783051, 40.4071473 ], [ -3.6781356, 40.4070787 ], [ -3.6780206, 40.4073429 ], [ -3.6783276, 40.4073772 ], [ -3.6783807, 40.4073704 ], [ -3.6784338, 40.4073583 ], [ -3.6784603, 40.4073152 ], [ -3.6784674, 40.4072667 ], [ -3.6784267, 40.4072155 ] ] ] } },
{ "type": "Feature", "properties": { "osm_id": "way/661052397", "name": "", "kind": "park" }, "geometry": { "type": "Polygon", "coordinates": [ [ [ -3.6783738, 40.4075258 ], [ -3.6784854, 40.4075321 ], [ -3.6784863, 40.4074898 ], [ -3.6784767, 40.407447 ], [ -3.6784651, 40.407417 ], [ -3.6783849, 40.4074337 ], [ -3.6783951, 40.4074518 ], [ -3.6783992, 40.4074713 ], [ -3.6783968, 40.4074909 ], [ -3.6783882, 40.4075095 ], [ -3.6783738, 40.4075258 ] ] ] } },
{ "type": "Feature", "properties": { "osm_id": "way/741227868", "name": "", "kind": "garden" }, "geometry": { "type": "Polygon", "coordinates": [ [ [ -3.683078, 40.4213703 ], [ -3.6833382, 40.4212074 ], [ -3.6834756, 40.4211401 ], [ -3.6836734, 40.4210569 ], [ -3.6841857, 40.4209073 ], [ -3.6843795, 40.4208782 ], [ -3.6843876, 40.4209047 ], [ -3.6842052, 40.4209435 ], [ -3.6840308, 40.4210063 ], [ -3.6835563, 40.4212076 ], [ -3.6832691, 40.4213432 ], [ -3.683198, 40.4213734 ], [ -3.6831487, 40.4213785 ], [ -3.6831206, 40.4213785 ], [ -3.683078, 40.4213703 ] ] ] } },
{ "type": "Feature", "properties": { "osm_id": "way/818605681", "name": "", "kind": "dog_park" }, "geometry": { "type": "Polygon", "coordinates": [ [ [ -3.6804463, 40.4085728 ], [ -3.6796821, 40.4084511 ], [ -3.6796295, 40.4085546 ], [ -3.6796216, 40.4085745 ], [ -3.6796115, 40.4086263 ], [ -3.6796485, 40.408689 ], [ -3.6797005, 40.4088055 ], [ -3.679698, 40.4088713 ], [ -3.6796938, 40.4089052 ], [ -3.6796744, 40.4089623 ], [ -3.6795698, 40.4089703 ], [ -3.67959, 40.4090068 ], [ -3.679619, 40.4090519 ], [ -3.6796538, 40.4090813 ], [ -3.6797139, 40.409129 ], [ -3.679771, 40.4091613 ], [ -3.6799206, 40.4092294 ], [ -3.6800138, 40.4092771 ], [ -3.6800579, 40.40931 ], [ -3.6802221, 40.4094354 ], [ -3.6802545, 40.4094664 ], [ -3.680273, 40.409499 ], [ -3.680291, 40.4095275 ], [ -3.6803097, 40.4095616 ], [ -3.6803809, 40.4095712 ], [ -3.6806215, 40.4095822 ], [ -3.6806612, 40.4095772 ], [ -3.6808346, 40.4095552 ], [ -3.6809792, 40.4095224 ], [ -3.6807231, 40.4092933 ], [ -3.6805973, 40.4091664 ], [ -3.6805336, 40.409044 ], [ -3.6804633, 40.4086645 ], [ -3.6804463, 40.4085728 ] ] ] } },
{ "type": "Feature", "properties": { "osm_id": "way/991444022", "name": "", "kind": "garden" }, "geometry": { "type": "Polygon", "coordinates": [ [ [ -3.6946964, 40.4083321 ], [ -3.6948226, 40.4081615 ], [ -3.6946922, 40.4081052 ], [ -3.6945891, 40.4082431 ], [ -3.6946036, 40.4082576 ], [ -3.6946114, 40.4082749 ], [ -3.6946117, 40.4082931 ], [ -3.6946111, 40.408296 ], [ -3.6946964, 40.4083321 ] ] ] } },
{ "type": "Feature", "properties": { "osm_id": "way/991444023", "name": "", "kind": "garden" }, "geometry": { "type": "Polygon", "coordinates": [ [ [ -3.694546, 40.4085352 ], [ -3.6944138, 40.4084781 ], [ -3.6945173, 40.4083394 ], [ -3.6945241, 40.4083412 ], [ -3.6945481, 40.4083415 ], [ -3.6945709, 40.408336 ], [ -3.6945906, 40.4083251 ], [ -3.694675, 40.408361 ], [ -3.694546, 40.4085352 ] ] ] } },
{ "type": "Feature", "properties": { "osm_id": "way/991444024", "name": "", "kind": "garden" }, "geometry": { "type": "Polygon", "coordinates": [ [ [ -3.6943787, 40.4084629 ], [ -3.6944825, 40.4083237 ], [ -3.69448, 40.4083221 ], [ -3.6944668, 40.4083053 ], [ -3.6944618, 40.408286 ], [ -3.6944645, 40.4082713 ], [ -3.6943838, 40.408237 ], [ -3.6943784, 40.408243 ], [ -3.6943563, 40.4082579 ], [ -3.6943303, 40.4082684 ], [ -3.6943017, 40.408274 ], [ -3.6942721, 40.4082742 ], [ -3.6942434, 40.4082692 ], [ -3.69424, 40.4082679 ], [ -3.6941657, 40.4083701 ], [ -3.6943787, 40.4084629 ] ] ] } },
{ "type": "Feature", "properties": { "osm_id": "way/991444025", "name": "", "kind": "garden" }, "geometry": { "type": "Polygon", "coordinates": [ [ [ -3.6939177, 40.4082652 ], [ -3.6941323, 40.408356 ], [ -3.6942071, 40.4082531 ], [ -3.6941945, 40.4082446 ], [ -3.6941771, 40.4082264 ], [ -3.6941658, 40.4082057 ], [ -3.6941613, 40.4081835 ], [ -3.6941651, 40.4081567 ], [ -3.6941709, 40.4081463 ], [ -3.6940988, 40.4081156 ], [ -3.6940836, 40.4081234 ], [ -3.6940608, 40.4081289 ], [ -3.6940368, 40.4081287 ], [ -3.6940226, 40.4081248 ], [ -3.6939177, 40.4082652 ] ] ] } },
{ "type": "Feature", "properties": { "osm_id": "way/991444026", "name": "", "kind": "garden" }, "geometry": { "type": "Polygon", "coordinates": [ [ [ -3.6937529, 40.4081948 ], [ -3.6938855, 40.4082513 ], [ -3.6939919, 40.4081086 ], [ -3.6939794, 40.4080927 ], [ -3.6939744, 40.4080735 ], [ -3.6939765, 40.4080634 ], [ -3.6938805, 40.4080225 ], [ -3.6937529, 40.4081948 ] ] ] } },
{ "type": "Feature", "properties": { "osm_id": "way/991444027", "name": "", "kind": "garden" }, "geometry": { "type": "Polygon", "coordinates": [ [ [ -3.694657, 40.40809 ], [ -3.6945531, 40.4082292 ], [ -3.6945463, 40.4082277 ], [ -3.6945206, 40.4082287 ], [ -3.6944968, 40.4082362 ], [ -3.6944866, 40.4082433 ], [ -3.6944039, 40.4082083 ], [ -3.6944059, 40.4082035 ], [ -3.6944096, 40.4081768 ], [ -3.6944034, 40.4081503 ], [ -3.6943875, 40.4081262 ], [ -3.6943634, 40.4081065 ], [ -3.6943588, 40.4081044 ], [ -3.6944385, 40.4079949 ], [ -3.694657, 40.40809 ] ] ] } },
{ "type": "Feature", "properties": { "osm_id": "way/991444028", "name": "", "kind": "garden" }, "geometry": { "type": "Polygon", "coordinates": [ [ [ -3.6944052, 40.4079809 ], [ -3.6941957, 40.4078921 ], [ -3.6940952, 40.4080271 ], [ -3.6941018, 40.4080305 ], [ -3.6941163, 40.408045 ], [ -3.6941241, 40.4080623 ], [ -3.6941244, 40.4080806 ], [ -3.6941211, 40.4080887 ], [ -3.6941927, 40.408119 ], [ -3.6942008, 40.4081109 ], [ -3.6942299, 40.4080955 ], [ -3.6942635, 40.4080871 ], [ -3.6942988, 40.4080861 ], [ -3.694325, 40.4080912 ], [ -3.6944052, 40.4079809 ] ] ] } },
{ "type": "Feature", "properties": { "osm_id": "way/991444029", "name": "", "kind": "garden" }, "geometry": { "type": "Polygon", "coordinates": [ [ [ -3.6941634, 40.4078782 ], [ -3.6940296, 40.4078211 ], [ -3.6939005, 40.4079954 ], [ -3.6939939, 40.4080349 ], [ -3.6940094, 40.4080236 ], [ -3.6940285, 40.4080167 ], [ -3.6940499, 40.4080149 ], [ -3.6940611, 40.4080156 ], [ -3.6941634, 40.4078782 ] ] ] } },
{ "type": "Feature", "properties": { "osm_id": "way/991537873", "name": "", "kind": "garden" }, "geometry": { "type": "Polygon", "coordinates": [ [ [ -3.6949472, 40.409962 ], [ -3.6951559, 40.4100525 ], [ -3.6954266, 40.409682 ], [ -3.695352, 40.4096494 ], [ -3.6952954, 40.4096835 ], [ -3.6952512, 40.4096997 ], [ -3.6951984, 40.4097113 ], [ -3.6951523, 40.4097128 ], [ -3.6951309, 40.4097305 ], [ -3.6950933, 40.4097218 ], [ -3.6950729, 40.4097501 ], [ -3.6949472, 40.409962 ] ] ] } },
{ "type": "Feature", "properties": { "osm_id": "way/991537874", "name": "", "kind": "garden" }, "geometry": { "type": "Polygon", "coordinates": [ [ [ -3.6946543, 40.4098342 ], [ -3.6947841, 40.4098899 ], [ -3.6949826, 40.4096644 ], [ -3.6949565, 40.4096325 ], [ -3.6949354, 40.4096052 ], [ -3.694924, 40.4095779 ], [ -3.6949174, 40.4095539 ], [ -3.6949169, 40.4095254 ], [ -3.6949196, 40.4095031 ], [ -3.694931, 40.4094754 ], [ -3.6949555, 40.4094468 ], [ -3.6948935, 40.4094175 ], [ -3.6947623, 40.4095901 ], [ -3.6947935, 40.4096427 ], [ -3.6946543, 40.4098342 ] ] ] } },
{ "type": "Feature", "properties": { "osm_id": "way/1016940339", "name": "", "kind": "garden" }, "geometry": { "type": "Polygon", "coordinates": [ [ [ -3.6947204, 40.4193749 ], [ -3.6947219, 40.4194357 ], [ -3.6947148, 40.4194782 ], [ -3.6946998, 40.4195232 ], [ -3.6946723, 40.4195766 ], [ -3.6946468, 40.4196158 ], [ -3.6946122, 40.419653 ], [ -3.6945673, 40.4196836 ], [ -3.6945263, 40.4197027 ], [ -3.6944791, 40.4197123 ], [ -3.6944523, 40.4197171 ], [ -3.6943755, 40.4194316 ], [ -3.6947204, 40.4193749 ] ] ] } },
{ "type": "Feature", "properties": { "osm_id": "way/1016940340", "name": "", "kind": "garden" }, "geometry": { "type": "Polygon", "coordinates": [ [ [ -3.6943336, 40.4194385 ], [ -3.6944078, 40.419721 ], [ -3.6943645, 40.4197228 ], [ -3.6943078, 40.4197198 ], [ -3.6942511, 40.4197096 ], [ -3.6942046, 40.4196863 ], [ -3.6941487, 40.4196515 ], [ -3.6940983, 40.4196089 ], [ -3.6940582, 40.4195681 ], [ -3.694033, 40.4195298 ], [ -3.6940123, 40.4194914 ], [ -3.6943336, 40.4194385 ] ] ] } },
{ "type": "Feature", "properties": { "osm_id": "way/1016940349", "name": "", "kind": "garden" }, "geometry": { "type": "Polygon", "coordinates": [ [ [ -3.6944971, 40.4201396 ], [ -3.694453, 40.4199266 ], [ -3.6944279, 40.4199232 ], [ -3.6943892, 40.4199129 ], [ -3.6943694, 40.4199013 ], [ -3.6943514, 40.419891 ], [ -3.6943388, 40.4198787 ], [ -3.6942452, 40.4199177 ], [ -3.6941589, 40.419965 ], [ -3.6941186, 40.4199917 ], [ -3.6940854, 40.4200172 ], [ -3.6940588, 40.4200415 ], [ -3.6940329, 40.420067 ], [ -3.6940068, 40.4200992 ], [ -3.6940005, 40.4201307 ], [ -3.694005, 40.4201608 ], [ -3.6940266, 40.4201835 ], [ -3.6940563, 40.4201978 ], [ -3.6940851, 40.4202026 ], [ -3.694451, 40.4201908 ], [ -3.6944566, 40.4201742 ], [ -3.6944657, 40.4201605 ], [ -3.6944822, 40.4201482 ], [ -3.6944971, 40.4201396 ] ] ] } },
{ "type": "Feature", "properties": { "osm_id": "way/1016940350", "name": "", "kind": "garden" }, "geometry": { "type": "Polygon", "coordinates": [ [ [ -3.6946186, 40.4201896 ], [ -3.6949712, 40.4201862 ], [ -3.6950063, 40.4201745 ], [ -3.6950234, 40.4201588 ], [ -3.6950297, 40.4201369 ], [ -3.6950243, 40.4201122 ], [ -3.6950054, 40.42008 ], [ -3.6949586, 40.4200383 ], [ -3.6949171, 40.4200047 ], [ -3.6948633, 40.4199711 ], [ -3.6947652, 40.4199184 ], [ -3.6946959, 40.4198889 ], [ -3.6946307, 40.4198642 ], [ -3.6946169, 40.4198827 ], [ -3.6946011, 40.4198986 ], [ -3.6945847, 40.4199081 ], [ -3.6945506, 40.419919 ], [ -3.6945124, 40.4199252 ], [ -3.6945565, 40.4201369 ], [ -3.6945781, 40.4201437 ], [ -3.6945901, 40.4201492 ], [ -3.6946047, 40.4201599 ], [ -3.6946123, 40.4201732 ], [ -3.6946186, 40.4201896 ] ] ] } },
{ "type": "Feature", "properties": { "osm_id": "way/1016940351", "name": "", "kind": "garden" }, "geometry": { "type": "Polygon", "coordinates": [ [ [ -3.6951756, 40.4201396 ], [ -3.6951098, 40.4195379 ], [ -3.6949114, 40.4195755 ], [ -3.694895, 40.4195199 ], [ -3.6948395, 40.4195246 ], [ -3.6948457, 40.4194268 ], [ -3.6948292, 40.4194237 ], [ -3.694822, 40.419509 ], [ -3.6948046, 40.4195715 ], [ -3.6947819, 40.4196216 ], [ -3.694747, 40.4196584 ], [ -3.6947018, 40.4196952 ], [ -3.6946638, 40.4197296 ], [ -3.6946298, 40.4197554 ], [ -3.6946021, 40.4197679 ], [ -3.694671, 40.419793 ], [ -3.6947501, 40.4198243 ], [ -3.6948251, 40.4198626 ], [ -3.6948981, 40.4199009 ], [ -3.6949649, 40.4199463 ], [ -3.6950265, 40.4199933 ], [ -3.6950697, 40.4200339 ], [ -3.6951046, 40.4200699 ], [ -3.6951386, 40.4201153 ], [ -3.6951499, 40.4201419 ], [ -3.6951756, 40.4201396 ] ] ] } },
{ "type": "Feature", "properties": { "osm_id": "way/1016940352", "name": "", "kind": "garden" }, "geometry": { "type": "Polygon", "coordinates": [ [ [ -3.6951835, 40.420187 ], [ -3.6952671, 40.4208299 ], [ -3.6951088, 40.4208375 ], [ -3.6950755, 40.4202879 ], [ -3.6950297, 40.4202835 ], [ -3.6950743, 40.4202522 ], [ -3.6951072, 40.42022 ], [ -3.6951236, 40.4201977 ], [ -3.6951366, 40.4201861 ], [ -3.6951835, 40.420187 ] ] ] } },
{ "type": "Feature", "properties": { "osm_id": "way/1057731910", "name": "", "kind": "park" }, "geometry": { "type": "Polygon", "coordinates": [ [ [ -3.6783106, 40.4074315 ], [ -3.6782805, 40.4074296 ], [ -3.6782714, 40.4075134 ], [ -3.678303, 40.4075154 ], [ -3.6783217, 40.4075115 ], [ -3.6783375, 40.4075027 ], [ -3.6783484, 40.4074904 ], [ -3.6783531, 40.407476 ], [ -3.678351, 40.4074612 ], [ -3.6783425, 40.4074479 ], [ -3.6783284, 40.4074376 ], [ -3.6783106, 40.4074315 ] ] ] } },
{ "type": "Feature", "properties": { "osm_id": "way/1144539856", "name": "", "kind": "garden" }, "geometry": { "type": "Polygon", "coordinates": [ [ [ -3.6933642, 40.4192569 ], [ -3.6933445, 40.419224 ], [ -3.6933204, 40.4191985 ], [ -3.6933975, 40.4191952 ], [ -3.6934071, 40.4192002 ], [ -3.6934093, 40.4192107 ], [ -3.6933642, 40.4192569 ] ] ] } },
{ "type": "Feature", "properties": { "osm_id": "way/1173738187", "name": "", "kind": "garden" }, "geometry": { "type": "Polygon", "coordinates": [ [ [ -3.6926956, 40.407258 ], [ -3.6925878, 40.4072779 ], [ -3.6925138, 40.4072854 ], [ -3.692456, 40.4072887 ], [ -3.6924365, 40.4072887 ], [ -3.6924283, 40.4072883 ], [ -3.6924237, 40.4072854 ], [ -3.6924212, 40.4072821 ], [ -3.6924201, 40.4072763 ], [ -3.6924219, 40.4072736 ], [ -3.6924252, 40.4072708 ], [ -3.6924326, 40.4072659 ], [ -3.6924718, 40.4072427 ], [ -3.6924942, 40.4072249 ], [ -3.6925203, 40.4072008 ], [ -3.6925372, 40.4071789 ], [ -3.6925606, 40.4071362 ], [ -3.6926956, 40.407258 ] ] ] } },
{ "type": "Feature", "properties": { "osm_id": "way/1333561605", "name": "", "kind": "garden" }, "geometry": { "type": "Polygon", "coordinates": [ [ [ -3.6932653, 40.4209506 ], [ -3.6933059, 40.4209667 ], [ -3.6933546, 40.4209886 ], [ -3.6936998, 40.4211127 ], [ -3.6936185, 40.4212609 ], [ -3.6934792, 40.4212164 ], [ -3.6934727, 40.4212314 ], [ -3.6934556, 40.4212257 ], [ -3.6931407, 40.4211346 ], [ -3.6931737, 40.4210858 ], [ -3.6932143, 40.4210258 ], [ -3.6932653, 40.4209506 ] ] ] } },
{ "type": "Feature", "properties": { "osm_id": "way/1345287210", "name": "", "kind": "garden" }, "geometry": { "type": "Polygon", "coordinates": [ [ [ -3.6777573, 40.409455 ], [ -3.6777192, 40.4094395 ], [ -3.6776792, 40.4094962 ], [ -3.6777174, 40.4095118 ], [ -3.6777573, 40.409455 ] ] ] } },
{ "type": "Feature", "properties": { "osm_id": "way/1352302585", "name": "", "kind": "garden" }, "geometry": { "type": "Polygon", "coordinates": [ [ [ -3.6925624, 40.4163659 ], [ -3.6927266, 40.4163828 ], [ -3.6927213, 40.4164178 ], [ -3.6927272, 40.4164246 ], [ -3.6927516, 40.4164486 ], [ -3.6926183, 40.4165286 ], [ -3.6925997, 40.4165074 ], [ -3.6925832, 40.41648 ], [ -3.6925728, 40.4164556 ], [ -3.6925652, 40.4164262 ], [ -3.6925606, 40.4163973 ], [ -3.6925624, 40.4163659 ] ] ] } },
{ "type": "Feature", "properties": { "osm_id": "way/1352302586", "name": "", "kind": "garden" }, "geometry": { "type": "Polygon", "coordinates": [ [ [ -3.6927701, 40.4164674 ], [ -3.6926372, 40.4165484 ], [ -3.6926622, 40.4165679 ], [ -3.6926933, 40.4165885 ], [ -3.6927313, 40.4166071 ], [ -3.69276, 40.4166175 ], [ -3.6927875, 40.4166259 ], [ -3.6928286, 40.4166335 ], [ -3.6928529, 40.4165031 ], [ -3.6927999, 40.4164976 ], [ -3.6927701, 40.4164674 ] ] ] } },
{ "type": "Feature", "properties": { "osm_id": "way/1352302587", "name": "", "kind": "garden" }, "geometry": { "type": "Polygon", "coordinates": [ [ [ -3.692881, 40.416506 ], [ -3.6929402, 40.4165121 ], [ -3.6929762, 40.4164941 ], [ -3.6930718, 40.4165899 ], [ -3.6930566, 40.4165988 ], [ -3.6930228, 40.4166112 ], [ -3.6929969, 40.4166207 ], [ -3.6929614, 40.4166294 ], [ -3.6929332, 40.4166344 ], [ -3.6928967, 40.416637 ], [ -3.6928567, 40.4166361 ], [ -3.692881, 40.416506 ] ] ] } },
{ "type": "Feature", "properties": { "osm_id": "way/1436385157", "name": "", "kind": "garden" }, "geometry": { "type": "Polygon", "coordinates": [ [ [ -3.6900531, 40.4119286 ], [ -3.6900824, 40.4119201 ], [ -3.6901064, 40.411904 ], [ -3.6901229, 40.4118842 ], [ -3.690137, 40.41186 ], [ -3.6901457, 40.4118367 ], [ -3.6901485, 40.4118159 ], [ -3.6901469, 40.4117942 ], [ -3.6901386, 40.4117675 ], [ -3.6901279, 40.4117435 ], [ -3.690108, 40.4117174 ], [ -3.6900915, 40.4117004 ], [ -3.6900717, 40.4116872 ], [ -3.6900456, 40.4116737 ], [ -3.6900179, 40.4116667 ], [ -3.6899911, 40.4116661 ], [ -3.689965, 40.4116715 ], [ -3.6899435, 40.4116818 ], [ -3.6899262, 40.4116973 ], [ -3.6899125, 40.4117149 ], [ -3.6899009, 40.4117335 ], [ -3.6898943, 40.4117596 ], [ -3.6898923, 40.4117882 ], [ -3.6898985, 40.4118172 ], [ -3.6899071, 40.4118446 ], [ -3.6899212, 40.4118688 ], [ -3.6899381, 40.4118874 ], [ -3.6899654, 40.4119066 ], [ -3.6899935, 40.4119176 ], [ -3.6900196, 40.4119264 ], [ -3.6900531, 40.4119286 ] ] ] } },
{ "type": "Feature", "properties": { "osm_id": "way/1436385158", "name": "", "kind": "garden" }, "geometry": { "type": "Polygon", "coordinates": [ [ [ -3.6899165, 40.4119128 ], [ -3.6898874, 40.4119155 ], [ -3.6898535, 40.4119131 ], [ -3.6898254, 40.4119134 ], [ -3.6897635, 40.4119153 ], [ -3.6897553, 40.4119088 ], [ -3.6897471, 40.4118844 ], [ -3.6896922, 40.4116351 ], [ -3.6896954, 40.4116305 ], [ -3.6897018, 40.4116281 ], [ -3.6897096, 40.4116321 ], [ -3.6897224, 40.4116457 ], [ -3.6897399, 40.4116625 ], [ -3.6897608, 40.411675 ], [ -3.689785, 40.4116825 ], [ -3.6898167, 40.4116855 ], [ -3.6898452, 40.411685 ], [ -3.6898658, 40.4116815 ], [ -3.6898829, 40.4116785 ], [ -3.6898886, 40.4116798 ], [ -3.6898883, 40.411688 ], [ -3.6898765, 40.4117134 ], [ -3.6898662, 40.4117435 ], [ -3.6898616, 40.411772 ], [ -3.6898605, 40.4117966 ], [ -3.6898633, 40.4118197 ], [ -3.689873, 40.4118495 ], [ -3.6898861, 40.411872 ], [ -3.6899011, 40.4118931 ], [ -3.6899132, 40.4119069 ], [ -3.6899165, 40.4119128 ] ] ] } },
{ "type": "Feature", "properties": { "osm_id": "way/1436385159", "name": "", "kind": "garden" }, "geometry": { "type": "Polygon", "coordinates": [ [ [ -3.6898611, 40.4116615 ], [ -3.6898367, 40.4116653 ], [ -3.6898115, 40.4116669 ], [ -3.6897916, 40.411664 ], [ -3.6897672, 40.4116562 ], [ -3.6897515, 40.4116452 ], [ -3.6897391, 40.4116329 ], [ -3.6897313, 40.4116159 ], [ -3.6897276, 40.4115989 ], [ -3.68973, 40.4115822 ], [ -3.6897366, 40.411569 ], [ -3.6897482, 40.4115539 ], [ -3.6897619, 40.4115444 ], [ -3.689778, 40.4115378 ], [ -3.6897883, 40.411535 ], [ -3.6897982, 40.4115564 ], [ -3.6898065, 40.4115756 ], [ -3.6898164, 40.4115948 ], [ -3.6898334, 40.4116237 ], [ -3.6898478, 40.4116445 ], [ -3.6898611, 40.4116615 ] ] ] } },
{ "type": "Feature", "properties": { "osm_id": "way/1436385160", "name": "", "kind": "garden" }, "geometry": { "type": "Polygon", "coordinates": [ [ [ -3.6896758, 40.4113454 ], [ -3.6896638, 40.4113382 ], [ -3.6896519, 40.4113331 ], [ -3.6896406, 40.4113312 ], [ -3.6896323, 40.4113326 ], [ -3.6896274, 40.4113384 ], [ -3.6896265, 40.4113475 ], [ -3.6896764, 40.4115815 ], [ -3.6896822, 40.4115911 ], [ -3.6896902, 40.411596 ], [ -3.6896963, 40.4115964 ], [ -3.6897009, 40.4115932 ], [ -3.6897064, 40.4115803 ], [ -3.6897129, 40.4115619 ], [ -3.6897245, 40.4115435 ], [ -3.6897417, 40.4115311 ], [ -3.6897588, 40.4115206 ], [ -3.689784, 40.4115133 ], [ -3.6898008, 40.4115106 ], [ -3.6898065, 40.4115084 ], [ -3.6898072, 40.4115038 ], [ -3.6898045, 40.4114982 ], [ -3.6897898, 40.4114903 ], [ -3.6897708, 40.4114775 ], [ -3.6897527, 40.411456 ], [ -3.6897374, 40.4114359 ], [ -3.6897254, 40.4114128 ], [ -3.6897132, 40.4113879 ], [ -3.6897003, 40.4113701 ], [ -3.6896899, 40.4113582 ], [ -3.6896758, 40.4113454 ] ] ] } },
{ "type": "Feature", "properties": { "osm_id": "way/1436780490", "name": "", "kind": "garden" }, "geometry": { "type": "Polygon", "coordinates": [ [ [ -3.6911929, 40.4088856 ], [ -3.6911447, 40.4089327 ], [ -3.6913644, 40.4090664 ], [ -3.6914015, 40.4090114 ], [ -3.6911929, 40.4088856 ] ] ] } },
{ "type": "Feature", "properties": { "osm_id": "way/1485733716", "name": "", "kind": "garden" }, "geometry": { "type": "Polygon", "coordinates": [ [ [ -3.6900705, 40.4115002 ], [ -3.690094, 40.4114908 ], [ -3.6901206, 40.4114846 ], [ -3.690138, 40.411483 ], [ -3.6901626, 40.411484 ], [ -3.690186, 40.4114898 ], [ -3.6902069, 40.411498 ], [ -3.690223, 40.4115123 ], [ -3.6902335, 40.4115265 ], [ -3.6902401, 40.4115426 ], [ -3.6902422, 40.4115587 ], [ -3.6902391, 40.4115782 ], [ -3.6902296, 40.4115956 ], [ -3.6902164, 40.4116089 ], [ -3.6902008, 40.4116203 ], [ -3.6901789, 40.41163 ], [ -3.6901589, 40.411633 ], [ -3.6901356, 40.411633 ], [ -3.690114, 40.4116314 ], [ -3.690095, 40.4116276 ], [ -3.6900874, 40.4116252 ], [ -3.6900845, 40.4116213 ], [ -3.6900847, 40.4116161 ], [ -3.6900882, 40.4116039 ], [ -3.69009, 40.4115898 ], [ -3.6900903, 40.4115713 ], [ -3.6900882, 40.4115549 ], [ -3.6900837, 40.411539 ], [ -3.6900747, 40.4115219 ], [ -3.6900671, 40.4115103 ], [ -3.6900668, 40.4115042 ], [ -3.6900705, 40.4115002 ] ] ] } },
{ "type": "Feature", "properties": { "osm_id": "relation/1869334", "name": "Jardín", "kind": "garden" }, "geometry": { "type": "MultiPolygon", "coordinates": [ [ [ [ -3.6949696, 40.4163653 ], [ -3.6946392, 40.4163149 ], [ -3.6953, 40.4164157 ], [ -3.6949696, 40.4163653 ] ] ], [ [ [ -3.6945407, 40.4166775 ], [ -3.6945536, 40.4166301 ], [ -3.6946238, 40.4163716 ], [ -3.6946392, 40.4163149 ], [ -3.695216, 40.4167904 ], [ -3.6945407, 40.4166775 ] ] ] ] } },
{ "type": "Feature", "properties": { "osm_id": "relation/4756144", "name": "", "kind": "garden" }, "geometry": { "type": "Polygon", "coordinates": [ [ [ -3.6788958, 40.4075364 ], [ -3.6789299, 40.4075102 ], [ -3.6789507, 40.4074768 ], [ -3.6789557, 40.4074401 ], [ -3.6789445, 40.4074042 ], [ -3.6789198, 40.4073743 ], [ -3.6788838, 40.407352 ], [ -3.6788405, 40.4073395 ], [ -3.6787941, 40.4073381 ], [ -3.6787496, 40.407348 ], [ -3.6787115, 40.4073682 ], [ -3.6786838, 40.4073964 ], [ -3.6786693, 40.40743 ], [ -3.6786695, 40.4074653 ], [ -3.6786854, 40.4075002 ], [ -3.6787156, 40.4075291 ], [ -3.6787567, 40.4075487 ], [ -3.678804, 40.4075568 ], [ -3.6788522, 40.4075526 ], [ -3.6788958, 40.4075364 ] ] ] } },
{ "type": "Feature", "properties": { "osm_id": "relation/10005473", "name": "Jardines de Cecilio Rodríguez", "kind": "garden" }, "geometry": { "type": "Polygon", "coordinates": [ [ [ -3.6790192, 40.414435 ], [ -3.6786476, 40.4144852 ], [ -3.6783192, 40.4145295 ], [ -3.6776955, 40.4146136 ], [ -3.6769259, 40.4124146 ], [ -3.6773938, 40.4123052 ], [ -3.6784622, 40.4120813 ], [ -3.6787037, 40.4131284 ], [ -3.678997, 40.4143565 ], [ -3.6790192, 40.414435 ] ] ] } },
{ "type": "Feature", "properties": { "osm_id": "relation/10005474", "name": "Jardines del Arquitecto Herrero Palacios", "kind": "garden" }, "geometry": { "type": "Polygon", "coordinates": [ [ [ -3.6776955, 40.4146136 ], [ -3.6783192, 40.4145295 ], [ -3.6786476, 40.4144852 ], [ -3.6790192, 40.414435 ], [ -3.6791731, 40.414597 ], [ -3.6795213, 40.4161179 ], [ -3.6795722, 40.4165497 ], [ -3.679462, 40.4165721 ], [ -3.6794679, 40.416589 ], [ -3.6784746, 40.4167904 ], [ -3.6784512, 40.4167196 ], [ -3.6783344, 40.4163909 ], [ -3.678226, 40.416052 ], [ -3.6780489, 40.4155654 ], [ -3.6780237, 40.4155584 ], [ -3.6777566, 40.4148099 ], [ -3.6777543, 40.414803 ], [ -3.6776955, 40.4146136 ] ] ] } },
{ "type": "Feature", "properties": { "osm_id": "relation/13493466", "name": "", "kind": "garden" }, "geometry": { "type": "MultiPolygon", "coordinates": [ [ [ [ -3.6840059, 40.406161 ], [ -3.6839617, 40.4061674 ], [ -3.6839595, 40.4061625 ], [ -3.6839545, 40.4061631 ], [ -3.6839507, 40.4061602 ], [ -3.6839466, 40.4061608 ], [ -3.6839379, 40.406155 ], [ -3.6839318, 40.406155 ], [ -3.6839273, 40.4061547 ], [ -3.6839197, 40.406155 ], [ -3.683917, 40.4061495 ], [ -3.6839098, 40.4061507 ], [ -3.6839083, 40.4061458 ], [ -3.6838992, 40.4061472 ], [ -3.6838954, 40.4061397 ], [ -3.6838913, 40.4061325 ], [ -3.6838826, 40.4061311 ], [ -3.683878, 40.4061253 ], [ -3.683873, 40.4061195 ], [ -3.6838633, 40.40612 ], [ -3.6838535, 40.406086 ], [ -3.683978, 40.406065 ], [ -3.6840059, 40.406161 ] ] ], [ [ [ -3.6838399, 40.4061223 ], [ -3.6838336, 40.4061236 ], [ -3.683834, 40.4061276 ], [ -3.6838336, 40.4061316 ], [ -3.6838302, 40.4061354 ], [ -3.6838256, 40.4061406 ], [ -3.683823, 40.4061469 ], [ -3.6838234, 40.4061527 ], [ -3.6838238, 40.4061573 ], [ -3.6838173, 40.4061582 ], [ -3.683818, 40.4061662 ], [ -3.6838093, 40.4061668 ], [ -3.6838108, 40.406172 ], [ -3.683801, 40.4061748 ], [ -3.6837934, 40.4061797 ], [ -3.6837912, 40.4061832 ], [ -3.6837877, 40.4061844 ], [ -3.6837881, 40.4061872 ], [ -3.6837783, 40.4061904 ], [ -3.6837792, 40.406197 ], [ -3.6837361, 40.4062038 ], [ -3.6837078, 40.4061105 ], [ -3.6838306, 40.4060898 ], [ -3.6838399, 40.4061223 ] ] ], [ [ [ -3.6839105, 40.4062504 ], [ -3.6839162, 40.406243 ], [ -3.6839198, 40.4062377 ], [ -3.6839225, 40.4062319 ], [ -3.6839225, 40.4062274 ], [ -3.6839241, 40.4062236 ], [ -3.6839603, 40.4062423 ], [ -3.6839517, 40.4062436 ], [ -3.6839606, 40.4062766 ], [ -3.6840193, 40.4062665 ], [ -3.684019, 40.4062617 ], [ -3.6840256, 40.4062602 ], [ -3.6840117, 40.4062175 ], [ -3.6839712, 40.4062246 ], [ -3.6839696, 40.4062307 ], [ -3.6839347, 40.4062122 ], [ -3.6839341, 40.4062092 ], [ -3.6839361, 40.4062074 ], [ -3.6839414, 40.4062059 ], [ -3.6839434, 40.4062042 ], [ -3.68395, 40.4062037 ], [ -3.6839523, 40.4061994 ], [ -3.6839553, 40.4061991 ], [ -3.6839563, 40.4061961 ], [ -3.6839619, 40.406192 ], [ -3.6839679, 40.4061895 ], [ -3.683967, 40.4061832 ], [ -3.6840102, 40.4061758 ], [ -3.6840352, 40.4062634 ], [ -3.6840256, 40.4062652 ], [ -3.6840268, 40.4062729 ], [ -3.6839139, 40.4062919 ], [ -3.6839042, 40.4062587 ], [ -3.6839109, 40.4062569 ], [ -3.6839105, 40.4062504 ] ] ], [ [ [ -3.6837844, 40.4062143 ], [ -3.6837861, 40.406219 ], [ -3.6837996, 40.406224 ], [ -3.6838131, 40.4062266 ], [ -3.6838279, 40.4062272 ], [ -3.6838295, 40.4062313 ], [ -3.6838366, 40.4062309 ], [ -3.6838384, 40.4062372 ], [ -3.6838476, 40.4062368 ], [ -3.6838518, 40.4062445 ], [ -3.6838583, 40.4062504 ], [ -3.6838602, 40.4062527 ], [ -3.6838648, 40.4062561 ], [ -3.683867, 40.4062579 ], [ -3.6838723, 40.4062596 ], [ -3.6838735, 40.4062633 ], [ -3.68388, 40.4062624 ], [ -3.6838896, 40.406296 ], [ -3.6837772, 40.4063149 ], [ -3.6837754, 40.4063086 ], [ -3.6837683, 40.4063099 ], [ -3.6837415, 40.4062216 ], [ -3.6837844, 40.4062143 ] ] ] ] } },
{ "type": "Feature", "properties": { "osm_id": "relation/13616929", "name": "Parque del Retiro", "kind": "park" }, "geometry": { "type": "MultiPolygon", "coordinates": [ [ [ [ -3.6858982, 40.4087709 ], [ -3.6859506, 40.4091012 ], [ -3.6859061, 40.4092736 ], [ -3.6841466, 40.4087958 ], [ -3.6858982, 40.4087709 ] ] ], [ [ [ -3.6859409, 40.4094281 ], [ -3.6859512, 40.4094735 ], [ -3.6868644, 40.4094831 ], [ -3.6868342, 40.4099323 ], [ -3.6883649, 40.4095833 ], [ -3.6884066, 40.4097018 ], [ -3.6884482, 40.4098493 ], [ -3.688563, 40.40991 ], [ -3.6886713, 40.412793 ], [ -3.6887134, 40.413943 ], [ -3.6887708, 40.415082 ], [ -3.6886865, 40.4151603 ], [ -3.6886889, 40.4152074 ], [ -3.6886925, 40.4152748 ], [ -3.688697, 40.4153546 ], [ -3.6886986, 40.4153816 ], [ -3.688784, 40.4154485 ], [ -3.6888201, 40.4164128 ], [ -3.6887953, 40.4164618 ], [ -3.688752, 40.4165041 ], [ -3.6886944, 40.4165362 ], [ -3.6886736, 40.4165436 ], [ -3.6886273, 40.41656 ], [ -3.6886285, 40.4165713 ], [ -3.6886371, 40.4166495 ], [ -3.6886554, 40.4167827 ], [ -3.688658, 40.4168017 ], [ -3.6887, 40.4168018 ], [ -3.6887418, 40.4168118 ], [ -3.6887714, 40.4168291 ], [ -3.6887933, 40.4168507 ], [ -3.6888108, 40.4168967 ], [ -3.6886683, 40.4181984 ], [ -3.6885717, 40.419309 ], [ -3.6885027, 40.4193146 ], [ -3.6883729, 40.4193492 ], [ -3.6882635, 40.419394 ], [ -3.688076, 40.4194999 ], [ -3.6880533, 40.4195219 ], [ -3.6879979, 40.4195756 ], [ -3.6879307, 40.419659 ], [ -3.6878757, 40.4197518 ], [ -3.6878438, 40.4198445 ], [ -3.6878256, 40.4199954 ], [ -3.6862626, 40.420332 ], [ -3.6862336, 40.4203131 ], [ -3.6861842, 40.420324 ], [ -3.6860317, 40.4203575 ], [ -3.6860297, 40.4203784 ], [ -3.6860197, 40.4203866 ], [ -3.6858328, 40.4204249 ], [ -3.6850755, 40.4205867 ], [ -3.6843272, 40.4207419 ], [ -3.6832697, 40.4209272 ], [ -3.6827366, 40.4210201 ], [ -3.6824577, 40.4210711 ], [ -3.6822246, 40.4211061 ], [ -3.6821881, 40.421112 ], [ -3.6821687, 40.4211079 ], [ -3.682158, 40.4210972 ], [ -3.6821472, 40.4210757 ], [ -3.6821305, 40.421063 ], [ -3.6821148, 40.4210599 ], [ -3.6820786, 40.4210658 ], [ -3.681824, 40.4211073 ], [ -3.6816053, 40.4211442 ], [ -3.6815832, 40.4211479 ], [ -3.6815632, 40.4211579 ], [ -3.6815431, 40.4212141 ], [ -3.6815221, 40.4212268 ], [ -3.6802203, 40.4214566 ], [ -3.6801434, 40.4214193 ], [ -3.6800601, 40.4213796 ], [ -3.6794914, 40.4197646 ], [ -3.6789964, 40.4184257 ], [ -3.6789976, 40.4183858 ], [ -3.6790198, 40.4183609 ], [ -3.6790579, 40.4183508 ], [ -3.6790286, 40.4182449 ], [ -3.6790074, 40.418176 ], [ -3.6789684, 40.4181781 ], [ -3.6789276, 40.418176 ], [ -3.6788992, 40.4181578 ], [ -3.6786107, 40.4173217 ], [ -3.6786098, 40.4172887 ], [ -3.6786257, 40.4172691 ], [ -3.6786568, 40.4172529 ], [ -3.678613, 40.4171416 ], [ -3.6786068, 40.4171182 ], [ -3.6785667, 40.4170228 ], [ -3.6785021, 40.416869 ], [ -3.6784746, 40.4167904 ], [ -3.6784512, 40.4167196 ], [ -3.6783344, 40.4163909 ], [ -3.678226, 40.416052 ], [ -3.6780489, 40.4155654 ], [ -3.6780237, 40.4155584 ], [ -3.6777566, 40.4148099 ], [ -3.6777543, 40.414803 ], [ -3.6776955, 40.4146136 ], [ -3.6769259, 40.4124146 ], [ -3.6769, 40.4123195 ], [ -3.6766522, 40.4115898 ], [ -3.676701, 40.411522 ], [ -3.6767248, 40.411466 ], [ -3.6767418, 40.411404 ], [ -3.676751, 40.4113196 ], [ -3.6767383, 40.4112335 ], [ -3.6767153, 40.4111399 ], [ -3.6766999, 40.4110896 ], [ -3.6766728, 40.4110491 ], [ -3.6766055, 40.4110193 ], [ -3.6776473, 40.4095318 ], [ -3.6777025, 40.4095603 ], [ -3.6777458, 40.4095826 ], [ -3.6778289, 40.4094633 ], [ -3.6777886, 40.409431 ], [ -3.6777411, 40.4093952 ], [ -3.6785137, 40.4082805 ], [ -3.6785467, 40.4082704 ], [ -3.6796821, 40.4084511 ], [ -3.6804463, 40.4085728 ], [ -3.6817744, 40.4087841 ], [ -3.6818557, 40.4088249 ], [ -3.6859061, 40.4092736 ], [ -3.6859409, 40.4094281 ] ] ] ] } },
{ "type": "Feature", "properties": { "osm_id": "relation/15470278", "name": "", "kind": "garden" }, "geometry": { "type": "Polygon", "coordinates": [ [ [ -3.6929145, 40.4192699 ], [ -3.6929028, 40.4192926 ], [ -3.6928963, 40.4193164 ], [ -3.6928949, 40.4193407 ], [ -3.6928989, 40.4193648 ], [ -3.6929081, 40.4193882 ], [ -3.6929221, 40.41941 ], [ -3.6929407, 40.4194298 ], [ -3.6929634, 40.419447 ], [ -3.6929894, 40.419461 ], [ -3.6930182, 40.4194717 ], [ -3.6930488, 40.4194786 ], [ -3.6930805, 40.4194815 ], [ -3.6931125, 40.4194804 ], [ -3.6931437, 40.4194753 ], [ -3.6931734, 40.4194664 ], [ -3.6932008, 40.4194538 ], [ -3.6932251, 40.419438 ], [ -3.6932456, 40.4194194 ], [ -3.6932618, 40.4193984 ], [ -3.6932732, 40.4193758 ], [ -3.6932796, 40.419352 ], [ -3.6932808, 40.4193278 ], [ -3.6932767, 40.4193038 ], [ -3.6932675, 40.4192806 ], [ -3.6932534, 40.4192589 ], [ -3.6932348, 40.4192392 ], [ -3.6932122, 40.4192221 ], [ -3.6931863, 40.4192081 ], [ -3.6931576, 40.4191975 ], [ -3.6931271, 40.4191907 ], [ -3.6930955, 40.4191877 ], [ -3.6930637, 40.4191887 ], [ -3.6930326, 40.4191937 ], [ -3.693003, 40.4192026 ], [ -3.6929756, 40.419215 ], [ -3.6929513, 40.4192306 ], [ -3.6929308, 40.4192491 ], [ -3.6929145, 40.4192699 ] ] ] } },
{ "type": "Feature", "properties": { "osm_id": "relation/15470279", "name": "", "kind": "garden" }, "geometry": { "type": "Polygon", "coordinates": [ [ [ -3.6940829, 40.4154287 ], [ -3.6941306, 40.4154358 ], [ -3.6941792, 40.4154352 ], [ -3.6942266, 40.4154269 ], [ -3.6942706, 40.4154113 ], [ -3.6943094, 40.4153891 ], [ -3.6943413, 40.4153612 ], [ -3.6943649, 40.4153289 ], [ -3.6943792, 40.4152935 ], [ -3.6943835, 40.4152567 ], [ -3.6943776, 40.4152199 ], [ -3.6943618, 40.415185 ], [ -3.6943368, 40.4151532 ], [ -3.6943037, 40.4151261 ], [ -3.694264, 40.4151049 ], [ -3.6942193, 40.4150904 ], [ -3.6941716, 40.4150833 ], [ -3.694123, 40.4150839 ], [ -3.6940757, 40.4150922 ], [ -3.6940316, 40.4151078 ], [ -3.6939928, 40.41513 ], [ -3.6939609, 40.4151579 ], [ -3.6939373, 40.4151903 ], [ -3.693923, 40.4152256 ], [ -3.6939187, 40.4152625 ], [ -3.6939246, 40.4152992 ], [ -3.6939404, 40.4153342 ], [ -3.6939654, 40.4153659 ], [ -3.6939985, 40.415393 ], [ -3.6940382, 40.4154142 ], [ -3.6940829, 40.4154287 ] ] ] } },
{ "type": "Feature", "properties": { "osm_id": "relation/16657038", "name": "", "kind": "garden" }, "geometry": { "type": "Polygon", "coordinates": [ [ [ -3.6842402, 40.4153475 ], [ -3.6842239, 40.4153461 ], [ -3.6842075, 40.4153471 ], [ -3.6841916, 40.4153504 ], [ -3.6841769, 40.4153561 ], [ -3.6841639, 40.4153637 ], [ -3.6841531, 40.4153732 ], [ -3.6841449, 40.415384 ], [ -3.6841395, 40.4153958 ], [ -3.6841373, 40.4154083 ], [ -3.6841382, 40.4154208 ], [ -3.6841423, 40.4154329 ], [ -3.6841493, 40.4154442 ], [ -3.6841591, 40.4154543 ], [ -3.6841712, 40.4154627 ], [ -3.6841853, 40.4154692 ], [ -3.6842007, 40.4154736 ], [ -3.684217, 40.4154756 ], [ -3.6842311, 40.4154753 ], [ -3.684245, 40.4154733 ], [ -3.6842582, 40.4154696 ], [ -3.6842705, 40.4154643 ], [ -3.6842815, 40.4154575 ], [ -3.6842908, 40.4154494 ], [ -3.6842982, 40.4154402 ], [ -3.6843035, 40.4154303 ], [ -3.6843066, 40.4154198 ], [ -3.6843074, 40.415409 ], [ -3.6843058, 40.4153983 ], [ -3.6843019, 40.415388 ], [ -3.6842958, 40.4153783 ], [ -3.6842877, 40.4153694 ], [ -3.6842778, 40.4153618 ], [ -3.6842664, 40.4153555 ], [ -3.6842537, 40.4153507 ], [ -3.6842402, 40.4153475 ] ] ] } },
{ "type": "Feature", "properties": { "osm_id": "relation/18571165", "name": "", "kind": "garden" }, "geometry": { "type": "MultiPolygon", "coordinates": [ [ [ [ -3.6928482, 40.4162636 ], [ -3.6928056, 40.4162879 ], [ -3.6927056, 40.4161797 ], [ -3.6927389, 40.4161656 ], [ -3.6927663, 40.4161568 ], [ -3.6927963, 40.4161489 ], [ -3.6928405, 40.416142 ], [ -3.6928817, 40.41614 ], [ -3.6929206, 40.4161404 ], [ -3.6928966, 40.4162692 ], [ -3.6928482, 40.4162636 ] ] ], [ [ [ -3.6929778, 40.4162786 ], [ -3.6929247, 40.4162725 ], [ -3.6929485, 40.4161444 ], [ -3.6929819, 40.4161498 ], [ -3.6930189, 40.4161606 ], [ -3.6930488, 40.4161724 ], [ -3.6930813, 40.4161893 ], [ -3.6931112, 40.4162075 ], [ -3.6931389, 40.4162308 ], [ -3.6930057, 40.4163063 ], [ -3.6929778, 40.4162786 ] ] ], [ [ [ -3.69273, 40.4163603 ], [ -3.6925675, 40.4163427 ], [ -3.692572, 40.4163285 ], [ -3.6925847, 40.4163016 ], [ -3.6925944, 40.416281 ], [ -3.6926116, 40.4162558 ], [ -3.692629, 40.416238 ], [ -3.6926515, 40.4162171 ], [ -3.692676, 40.4161978 ], [ -3.6927815, 40.4163016 ], [ -3.6927349, 40.4163282 ], [ -3.69273, 40.4163603 ] ] ] ] } },
{ "type": "Feature", "properties": { "osm_id": "relation/20827650", "name": "Jardín del Parterre", "kind": "garden" }, "geometry": { "type": "MultiPolygon", "coordinates": [ [ [ [ -3.6862214, 40.4152526 ], [ -3.6862305, 40.4152241 ], [ -3.6862454, 40.4151938 ], [ -3.686264, 40.4151636 ], [ -3.6862888, 40.4151356 ], [ -3.686315, 40.4151109 ], [ -3.6863402, 40.4150928 ], [ -3.6863686, 40.4150726 ], [ -3.6863967, 40.4150568 ], [ -3.6864302, 40.4150412 ], [ -3.6864637, 40.4150301 ], [ -3.6865001, 40.4150204 ], [ -3.6865296, 40.4150154 ], [ -3.6865431, 40.4150132 ], [ -3.6865577, 40.415001 ], [ -3.6865553, 40.4148875 ], [ -3.6865543, 40.4148382 ], [ -3.6885581, 40.4148009 ], [ -3.6862156, 40.4152745 ], [ -3.6862214, 40.4152526 ] ] ], [ [ [ -3.6862199, 40.415375 ], [ -3.6862166, 40.4153251 ], [ -3.6862156, 40.4152745 ], [ -3.6862199, 40.415375 ] ] ] ] } }
]
}
