{
"type": "FeatureCollection",
"name": "green_polygons",
"crs": { "type": "name", "properties": { "name": "urn:ogc:def:crs:OGC:1.3:CRS84" } },
"features": [
{ "type": "Feature", "properties": { "asset_id": "A21", "osm_id": "way/15244804", "name": "Real Jardín Botánico de Madrid", "area_m2": 81247.0 }, "geometry": { "type": "Polygon", "coordinates": [ [ [ -3.6890058, 40.4120017 ], [ -3.6891003, 40.4120234 ], [ -3.6891567, 40.4120364 ], [ -3.6892223, 40.4120514 ], [ -3.6892764, 40.4120639 ], [ -3.6893483, 40.4120804 ], [ -3.6894243, 40.4120978 ], [ -3.6894447, 40.4121025 ], [ -3.6896329, 40.4121454 ], [ -3.6896933, 40.4121592 ], [ -3.689702, 40.4121614 ], [ -3.6897047, 40.4121621 ], [ -3.6901978, 40.4122857 ], [ -3.6904329, 40.412339 ], [ -3.6904465, 40.4125734 ], [ -3.6904853, 40.4126075 ], [ -3.6905998, 40.4126039 ], [ -3.6912814, 40.4125855 ], [ -3.6913076, 40.4125573 ], [ -3.6912905, 40.4124618 ], [ -3.6918671, 40.4123987 ], [ -3.6920894, 40.4123728 ], [ -3.6921452, 40.4123656 ], [ -3.6925873, 40.4123086 ], [ -3.6922718, 40.4109724 ], [ -3.6922645, 40.4109417 ], [ -3.6922572, 40.4109096 ], [ -3.6919781, 40.4097313 ], [ -3.6893722, 40.4097671 ], [ -3.6890965, 40.4097631 ], [ -3.6889179, 40.4098835 ], [ -3.6889504, 40.4105923 ], [ -3.6890058, 40.4120017 ] ] ] } },
{ "type": "Feature", "properties": { "asset_id": "A22", "osm_id": "way/23596451", "name": "Palacio de Cristal", "area_m2": 1292.0 }, "geometry": { "type": "Polygon", "coordinates": [ [ [ -3.6820393, 40.413839 ], [ -3.6820689, 40.4138399 ], [ -3.6820964, 40.4138366 ], [ -3.68212, 40.4138293 ], [ -3.6821435, 40.4138158 ], [ -3.6821607, 40.4138015 ], [ -3.6821733, 40.4137844 ], [ -3.682181, 40.4137603 ], [ -3.6821793, 40.4137341 ], [ -3.6821482, 40.4136442 ], [ -3.682225, 40.4136282 ], [ -3.6822468, 40.4136185 ], [ -3.682265, 40.4136048 ], [ -3.6822764, 40.4135909 ], [ -3.6822842, 40.4135757 ], [ -3.682287, 40.4135563 ], [ -3.6822825, 40.4135336 ], [ -3.6822729, 40.4135191 ], [ -3.6822601, 40.4135057 ], [ -3.6822468, 40.4134955 ], [ -3.6822258, 40.4134863 ], [ -3.6822054, 40.4134815 ], [ -3.6821847, 40.4134797 ], [ -3.6821632, 40.4134822 ], [ -3.6820949, 40.4134971 ], [ -3.6820628, 40.413404 ], [ -3.6820465, 40.4133804 ], [ -3.6820219, 40.4133611 ], [ -3.6819916, 40.4133491 ], [ -3.6819674, 40.4133453 ], [ -3.6819426, 40.4133448 ], [ -3.6819157, 40.4133496 ], [ -3.6818896, 40.4133579 ], [ -3.6818621, 40.4133782 ], [ -3.6818507, 40.4133905 ], [ -3.6818432, 40.4134053 ], [ -3.6818378, 40.4134238 ], [ -3.6818388, 40.4134472 ], [ -3.6818707, 40.4135408 ], [ -3.681827, 40.4135493 ], [ -3.6818382, 40.4135825 ], [ -3.6818529, 40.4135796 ], [ -3.6818668, 40.4136209 ], [ -3.6818816, 40.4136648 ], [ -3.6818649, 40.4136681 ], [ -3.6818756, 40.4136999 ], [ -3.6819212, 40.4136911 ], [ -3.6819513, 40.4137791 ], [ -3.6819715, 40.4138091 ], [ -3.682004, 40.4138288 ], [ -3.6820393, 40.413839 ] ] ] } },
{ "type": "Feature", "properties": { "asset_id": "A24", "osm_id": "way/29471363", "name": "La Rosaleda", "area_m2": 7825.0 }, "geometry": { "type": "Polygon", "coordinates": [ [ [ -3.6803805, 40.4113198 ], [ -3.6802721, 40.4112984 ], [ -3.6801495, 40.4112411 ], [ -3.6800567, 40.4111881 ], [ -3.6799585, 40.4110944 ], [ -3.679896, 40.4109974 ], [ -3.6798786, 40.4109526 ], [ -3.6798391, 40.4108636 ], [ -3.6798275, 40.4108303 ], [ -3.6798115, 40.4107392 ], [ -3.679808, 40.4106527 ], [ -3.6798287, 40.4105397 ], [ -3.6798861, 40.4104143 ], [ -3.6799837, 40.4103169 ], [ -3.6800508, 40.4102854 ], [ -3.6801159, 40.4102632 ], [ -3.6801914, 40.4102563 ], [ -3.6802902, 40.4102726 ], [ -3.6803829, 40.4102957 ], [ -3.6804858, 40.4103329 ], [ -3.6806046, 40.4104039 ], [ -3.6806357, 40.4104351 ], [ -3.6806677, 40.4104742 ], [ -3.6807197, 40.410554 ], [ -3.6807756, 40.4106562 ], [ -3.6807898, 40.4106821 ], [ -3.6808062, 40.4107336 ], [ -3.6808137, 40.4107572 ], [ -3.6808276, 40.4108449 ], [ -3.6808289, 40.4109176 ], [ -3.6808095, 40.410994 ], [ -3.6807747, 40.411085 ], [ -3.6807303, 40.4111602 ], [ -3.6806689, 40.4112438 ], [ -3.6806102, 40.4112843 ], [ -3.6805259, 40.4113197 ], [ -3.6803805, 40.4113198 ] ] ] } },
{ "type": "Feature", "properties": { "asset_id": "A26", "osm_id": "way/722360391", "name": "Monumento a Alfonso XII", "area_m2": 87.0 }, "geometry": { "type": "Polygon", "coordinates": [ [ [ -3.6831447, 40.4173176 ], [ -3.6831206, 40.417323 ], [ -3.6831231, 40.4173297 ], [ -3.6831024, 40.4173343 ], [ -3.6831093, 40.4173525 ], [ -3.6830582, 40.4173639 ], [ -3.6830513, 40.4173459 ], [ -3.6830298, 40.4173507 ], [ -3.6830273, 40.4173441 ], [ -3.6830041, 40.4173493 ], [ -3.6829892, 40.4173109 ], [ -3.6830124, 40.4173057 ], [ -3.6830095, 40.4172986 ], [ -3.6830312, 40.4172937 ], [ -3.6830245, 40.4172762 ], [ -3.6830756, 40.4172648 ], [ -3.6830823, 40.4172822 ], [ -3.6831029, 40.4172776 ], [ -3.6831056, 40.4172846 ], [ -3.6831297, 40.4172792 ], [ -3.6831447, 40.4173176 ] ] ] } },
{ "type": "Feature", "properties": { "asset_id": "A23", "osm_id": "relation/10005473", "name": "Jardines de Cecilio Rodríguez", "area_m2": 32225.0 }, "geometry": { "type": "Polygon", "coordinates": [ [ [ -3.6790192, 40.414435 ], [ -3.6786476, 40.4144852 ], [ -3.6783192, 40.4145295 ], [ -3.6776955, 40.4146136 ], [ -3.6769259, 40.4124146 ], [ -3.6773938, 40.4123052 ], [ -3.6784622, 40.4120813 ], [ -3.6787037, 40.4131284 ], [ -3.678997, 40.4143565 ], [ -3.6790192, 40.414435 ] ] ] } },
{ "type": "Feature", "properties": { "asset_id": "A27", "osm_id": "relation/10005474", "name": "Jardines del Arquitecto Herrero Palacios", "area_m2": 27283.0 }, "geometry": { "type": "Polygon", "coordinates": [ [ [ -3.6776955, 40.4146136 ], [ -3.6783192, 40.4145295 ], [ -3.6786476, 40.4144852 ], [ -3.6790192, 40.414435 ], [ -3.6791731, 40.414597 ], [ -3.6795213, 40.4161179 ], [ -3.6795722, 40.4165497 ], [ -3.679462, 40.4165721 ], [ -3.6794679, 40.416589 ], [ -3.6784746, 40.4167904 ], [ -3.6784512, 40.4167196 ], [ -3.6783344, 40.4163909 ], [ -3.678226, 40.416052 ], [ -3.6780489, 40.4155654 ], [ -3.6780237, 40.4155584 ], [ -3.6777566, 40.4148099 ], [ -3.6777543, 40.414803 ], [ -3.6776955, 40.4146136 ] ] ] } },
{ "type": "Feature", "properties": { "asset_id": "A20", "osm_id": "relation/13616929", "name": "Parque del Retiro", "area_m2": 1174699.0 }, "geometry": { "type": "MultiPolygon", "coordinates": [ [ [ [ -3.6858982, 40.4087709 ], [ -3.6859506, 40.4091012 ], [ -3.6859061, 40.4092736 ], [ -3.6841466, 40.4087958 ], [ -3.6858982, 40.4087709 ] ] ], [ [ [ -3.6859409, 40.4094281 ], [ -3.6859512, 40.4094735 ], [ -3.6868644, 40.4094831 ], [ -3.6868342, 40.4099323 ], [ -3.6883649, 40.4095833 ], [ -3.6884066, 40.4097018 ], [ -3.6884482, 40.4098493 ], [ -3.688563, 40.40991 ], [ -3.6886713, 40.412793 ], [ -3.6887134, 40.413943 ], [ -3.6887708, 40.415082 ], [ -3.6886865, 40.4151603 ], [ -3.6886889, 40.4152074 ], [ -3.6886925, 40.4152748 ], [ -3.688697, 40.4153546 ], [ -3.6886986, 40.4153816 ], [ -3.688784, 40.4154485 ], [ -3.6888201, 40.4164128 ], [ -3.6887953, 40.4164618 ], [ -3.688752, 40.4165041 ], [ -3.6886944, 40.4165362 ], [ -3.6886736, 40.4165436 ], [ -3.6886273, 40.41656 ], [ -3.6886285, 40.4165713 ], [ -3.6886371, 40.4166495 ], [ -3.6886554, 40.4167827 ], [ -3.688658, 40.4168017 ], [ -3.6887, 40.4168018 ], [ -3.6887418, 40.4168118 ], [ -3.6887714, 40.4168291 ], [ -3.6887933, 40.4168507 ], [ -3.6888108, 40.4168967 ], [ -3.6886683, 40.4181984 ], [ -3.6885717, 40.419309 ], [ -3.6885027, 40.4193146 ], [ -3.6883729, 40.4193492 ], [ -3.6882635, 40.419394 ], [ -3.688076, 40.4194999 ], [ -3.6880533, 40.4195219 ], [ -3.6879979, 40.4195756 ], [ -3.6879307, 40.419659 ], [ -3.6878757, 40.4197518 ], [ -3.6878438, 40.4198445 ], [ -3.6878256, 40.4199954 ], [ -3.6862626, 40.420332 ], [ -3.6862336, 40.4203131 ], [ -3.6861842, 40.420324 ], [ -3.6860317, 40.4203575 ], [ -3.6860297, 40.4203784 ], [ -3.6860197, 40.4203866 ], [ -3.6858328, 40.4204249 ], [ -3.6850755, 40.4205867 ], [ -3.6843272, 40.4207419 ], [ -3.6832697, 40.4209272 ], [ -3.6827366, 40.4210201 ], [ -3.6824577, 40.4210711 ], [ -3.6822246, 40.4211061 ], [ -3.6821881, 40.421112 ], [ -3.6821687, 40.4211079 ], [ -3.682158, 40.4210972 ], [ -3.6821472, 40.4210757 ], [ -3.6821305, 40.421063 ], [ -3.6821148, 40.4210599 ], [ -3.6820786, 40.4210658 ], [ -3.681824, 40.4211073 ], [ -3.6816053, 40.4211442 ], [ -3.6815832, 40.4211479 ], [ -3.6815632, 40.4211579 ], [ -3.6815431, 40.4212141 ], [ -3.6815221, 40.4212268 ], [ -3.6802203, 40.4214566 ], [ -3.6801434, 40.4214193 ], [ -3.6800601, 40.4213796 ], [ -3.6794914, 40.4197646 ], [ -3.6789964, 40.4184257 ], [ -3.6789976, 40.4183858 ], [ -3.6790198, 40.4183609 ], [ -3.6790579, 40.4183508 ], [ -3.6790286, 40.4182449 ], [ -3.6790074, 40.418176 ], [ -3.6789684, 40.4181781 ], [ -3.6789276, 40.418176 ], [ -3.6788992, 40.4181578 ], [ -3.6786107, 40.4173217 ], [ -3.6786098, 40.4172887 ], [ -3.6786257, 40.4172691 ], [ -3.6786568, 40.4172529 ], [ -3.678613, 40.4171416 ], [ -3.6786068, 40.4171182 ], [ -3.6785667, 40.4170228 ], [ -3.6785021, 40.416869 ], [ -3.6784746, 40.4167904 ], [ -3.6784512, 40.4167196 ], [ -3.6783344, 40.4163909 ], [ -3.678226, 40.416052 ], [ -3.6780489, 40.4155654 ], [ -3.6780237, 40.4155584 ], [ -3.6777566, 40.4148099 ], [ -3.6777543, 40.414803 ], [ -3.6776955, 40.4146136 ], [ -3.6769259, 40.4124146 ], [ -3.6769, 40.4123195 ], [ -3.6766522, 40.4115898 ], [ -3.676701, 40.411522 ], [ -3.6767248, 40.411466 ], [ -3.6767418, 40.411404 ], [ -3.676751, 40.4113196 ], [ -3.6767383, 40.4112335 ], [ -3.6767153, 40.4111399 ], [ -3.6766999, 40.4110896 ], [ -3.6766728, 40.4110491 ], [ -3.6766055, 40.4110193 ], [ -3.6776473, 40.4095318 ], [ -3.6777025, 40.4095603 ], [ -3.6777458, 40.4095826 ], [ -3.6778289, 40.4094633 ], [ -3.6777886, 40.409431 ], [ -3.6777411, 40.4093952 ], [ -3.6785137, 40.4082805 ], [ -3.6785467, 40.4082704 ], [ -3.6796821, 40.4084511 ], [ -3.6804463, 40.4085728 ], [ -3.6817744, 40.4087841 ], [ -3.6818557, 40.4088249 ], [ -3.6859061, 40.4092736 ], [ -3.6859409, 40.4094281 ] ] ] ] } },
{ "type": "Feature", "properties": { "asset_id": "A25", "osm_id": "relation/20827650", "name": "Jardín del Parterre", "area_m2": 3968.0 }, "geometry": { "type": "MultiPolygon", "coordinates": [ [ [ [ -3.6862214, 40.4152526 ], [ -3.6862305, 40.4152241 ], [ -3.6862454, 40.4151938 ], [ -3.686264, 40.4151636 ], [ -3.6862888, 40.4151356 ], [ -3.686315, 40.4151109 ], [ -3.6863402, 40.4150928 ], [ -3.6863686, 40.4150726 ], [ -3.6863967, 40.4150568 ], [ -3.6864302, 40.4150412 ], [ -3.6864637, 40.4150301 ], [ -3.6865001, 40.4150204 ], [ -3.6865296, 40.4150154 ], [ -3.6865431, 40.4150132 ], [ -3.6865577, 40.415001 ], [ -3.6865553, 40.4148875 ], [ -3.6865543, 40.4148382 ], [ -3.6885581, 40.4148009 ], [ -3.6862156, 40.4152745 ], [ -3.6862214, 40.4152526 ] ] ], [ [ [ -3.6862199, 40.415375 ], [ -3.6862166, 40.4153251 ], [ -3.6862156, 40.4152745 ], [ -3.6862199, 40.415375 ] ] ] ] } }
]
}
