{
"type": "FeatureCollection",
"name": "green_spaces",
"crs": { "type": "name", "properties": { "name": "urn:ogc:def:crs:OGC:1.3:CRS84" } },
"features": [
{ "type": "Feature", "properties": { "osm_id": "node/10654185205", "name": "Jardín Vertical Caixaforum", "leisure": "garden" }, "geometry": { "type": "Point", "coordinates": [ -3.693165, 40.4110841 ] } },
{ "type": "Feature", "properties": { "osm_id": "way/4349012", "name": "Parque Infantil Paseo del prado", "leisure": "park" }, "geometry": { "type": "Point", "coordinates": [ -3.6939296, 40.4172276 ] } },
{ "type": "Feature", "properties": { "osm_id": "way/15244787", "name": "", "leisure": "garden" }, "geometry": { "type": "Point", "coordinates": [ -3.6923674, 40.4149307 ] } },
{ "type": "Feature", "properties": { "osm_id": "way/15244804", "name": "Real Jardín Botánico de Madrid", "leisure": "garden" }, "geometry": { "type": "Point", "coordinates": [ -3.6907526, 40.4111694 ] } },
{ "type": "Feature", "properties": { "osm_id": "way/15244847", "name": "", "leisure": "garden" }, "geometry": { "type": "Point", "coordinates": [ -3.6936563, 40.413933 ] } },
{ "type": "Feature", "properties": { "osm_id": "way/28683983", "name": "", "leisure": "park" }, "geometry": { "type": "Point", "coordinates": [ -3.6959248, 40.4044891 ] } },
{ "type": "Feature", "properties": { "osm_id": "way/28684065", "name": "", "leisure": "park" }, "geometry": { "type": "Point", "coordinates": [ -3.6914931, 40.4092508 ] } },
{ "type": "Feature", "properties": { "osm_id": "way/29471311", "name": "Real Observatorio de Madrid", "leisure": "park" }, "geometry": { "type": "Point", "coordinates": [ -3.6872662, 40.4084364 ] } },
{ "type": "Feature", "properties": { "osm_id": "way/29471363", "name": "La Rosaleda", "leisure": "garden" }, "geometry": { "type": "Point", "coordinates": [ -3.6803184, 40.410788 ] } },
{ "type": "Feature", "properties": { "osm_id": "way/29489645", "name": "Plaza de la Lealtad", "leisure": "park" }, "geometry": { "type": "Point", "coordinates": [ -3.6929134, 40.4163864 ] } },
{ "type": "Feature", "properties": { "osm_id": "way/30675430", "name": "", "leisure": "garden" }, "geometry": { "type": "Point", "coordinates": [ -3.6900467, 40.4154876 ] } },
{ "type": "Feature", "properties": { "osm_id": "way/30759681", "name": "", "leisure": "park" }, "geometry": { "type": "Point", "coordinates": [ -3.6859884, 40.4060195 ] } },
{ "type": "Feature", "properties": { "osm_id": "way/108878883", "name": "", "leisure": "garden" }, "geometry": { "type": "Point", "coordinates": [ -3.6870958, 40.4065085 ] } },
{ "type": "Feature", "properties": { "osm_id": "way/108878921", "name": "", "leisure": "garden" }, "geometry": { "type": "Point", "coordinates": [ -3.6871509, 40.4061638 ] } },
{ "type": "Feature", "properties": { "osm_id": "way/128089340", "name": "", "leisure": "garden" }, "geometry": { "type": "Point", "coordinates": [ -3.692035, 40.4126364 ] } },
{ "type": "Feature", "properties": { "osm_id": "way/158854585", "name": "", "leisure": "garden" }, "geometry": { "type": "Point", "coordinates": [ -3.6917421, 40.4145764 ] } },
{ "type": "Feature", "properties": { "osm_id": "way/183213419", "name": "", "leisure": "park" }, "geometry": { "type": "Point", "coordinates": [ -3.6879316, 40.4093376 ] } },
{ "type": "Feature", "properties": { "osm_id": "way/186321487", "name": "", "leisure": "park" }, "geometry": { "type": "Point", "coordinates": [ -3.6879186, 40.4078474 ] } },
{ "type": "Feature", "properties": { "osm_id": "way/261164085", "name": "", "leisure": "garden" }, "geometry": { "type": "Point", "coordinates": [ -3.6900958, 40.4077275 ] } },
{ "type": "Feature", "properties": { "osm_id": "way/261523820", "name": "", "leisure": "garden" }, "geometry": { "type": "Point", "coordinates": [ -3.6928725, 40.407899 ] } },
{ "type": "Feature", "properties": { "osm_id": "way/311105283", "name": "", "leisure": "garden" }, "geometry": { "type": "Point", "coordinates": [ -3.6931076, 40.4144462 ] } },
{ "type": "Feature", "properties": { "osm_id": "way/311105284", "name": "", "leisure": "garden" }, "geometry": { "type": "Point", "coordinates": [ -3.6920851, 40.4146097 ] } },
{ "type": "Feature", "properties": { "osm_id": "way/311105285", "name": "", "leisure": "garden" }, "geometry": { "type": "Point", "coordinates": [ -3.6925394, 40.4128255 ] } },
{ "type": "Feature", "properties": { "osm_id": "way/311105286", "name": "", "leisure": "garden" }, "geometry": { "type": "Point", "coordinates": [ -3.6926656, 40.4130864 ] } },
{ "type": "Feature", "properties": { "osm_id": "way/311105287", "name": "", "leisure": "garden" }, "geometry": { "type": "Point", "coordinates": [ -3.6925622, 40.4140475 ] } },
{ "type": "Feature", "properties": { "osm_id": "way/311105288", "name": "", "leisure": "garden" }, "geometry": { "type": "Point", "coordinates": [ -3.6929755, 40.4144866 ] } },
{ "type": "Feature", "properties": { "osm_id": "way/311105289", "name": "", "leisure": "garden" }, "geometry": { "type": "Point", "coordinates": [ -3.6928254, 40.4145051 ] } },
{ "type": "Feature", "properties": { "osm_id": "way/311105290", "name": "", "leisure": "garden" }, "geometry": { "type": "Point", "coordinates": [ -3.6928772, 40.4134127 ] } },
{ "type": "Feature", "properties": { "osm_id": "way/311105291", "name": "", "leisure": "garden" }, "geometry": { "type": "Point", "coordinates": [ -3.6929324, 40.4146473 ] } },
{ "type": "Feature", "properties": { "osm_id": "way/311105292", "name": "", "leisure": "garden" }, "geometry": { "type": "Point", "coordinates": [ -3.6924316, 40.4134628 ] } },
{ "type": "Feature", "properties": { "osm_id": "way/311105293", "name": "", "leisure": "garden" }, "geometry": { "type": "Point", "coordinates": [ -3.6930091, 40.4139817 ] } },
{ "type": "Feature", "properties": { "osm_id": "way/311105294", "name": "", "leisure": "garden" }, "geometry": { "type": "Point", "coordinates": [ -3.6927926, 40.4143631 ] } },
{ "type": "Feature", "properties": { "osm_id": "way/311105295", "name": "", "leisure": "garden" }, "geometry": { "type": "Point", "coordinates": [ -3.692635, 40.4129451 ] } },
{ "type": "Feature", "properties": { "osm_id": "way/311105296", "name": "", "leisure": "garden" }, "geometry": { "type": "Point", "coordinates": [ -3.6929429, 40.4143445 ] } },
{ "type": "Feature", "properties": { "osm_id": "way/311105297", "name": "", "leisure": "garden" }, "geometry": { "type": "Point", "coordinates": [ -3.6925162, 40.4131057 ] } },
{ "type": "Feature", "properties": { "osm_id": "way/311105298", "name": "", "leisure": "garden" }, "geometry": { "type": "Point", "coordinates": [ -3.6924824, 40.412964 ] } },
{ "type": "Feature", "properties": { "osm_id": "way/311105299", "name": "", "leisure": "garden" }, "geometry": { "type": "Point", "coordinates": [ -3.6926863, 40.4135407 ] } },
{ "type": "Feature", "properties": { "osm_id": "way/311105300", "name": "", "leisure": "garden" }, "geometry": { "type": "Point", "coordinates": [ -3.6927559, 40.4139121 ] } },
{ "type": "Feature", "properties": { "osm_id": "way/311105301", "name": "", "leisure": "garden" }, "geometry": { "type": "Point", "coordinates": [ -3.6926314, 40.4133376 ] } },
{ "type": "Feature", "properties": { "osm_id": "way/311105302", "name": "", "leisure": "garden" }, "geometry": { "type": "Point", "coordinates": [ -3.6928142, 40.4141132 ] } },
{ "type": "Feature", "properties": { "osm_id": "way/311105303", "name": "", "leisure": "garden" }, "geometry": { "type": "Point", "coordinates": [ -3.6927826, 40.4130295 ] } },
{ "type": "Feature", "properties": { "osm_id": "way/311105304", "name": "", "leisure": "garden" }, "geometry": { "type": "Point", "coordinates": [ -3.6928422, 40.4142417 ] } },
{ "type": "Feature", "properties": { "osm_id": "way/311105305", "name": "", "leisure": "garden" }, "geometry": { "type": "Point", "coordinates": [ -3.6926144, 40.4132089 ] } },
{ "type": "Feature", "properties": { "osm_id": "way/311106574", "name": "", "leisure": "garden" }, "geometry": { "type": "Point", "coordinates": [ -3.6929193, 40.4114515 ] } },
{ "type": "Feature", "properties": { "osm_id": "way/311106575", "name": "", "leisure": "garden" }, "geometry": { "type": "Point", "coordinates": [ -3.692253, 40.4095161 ] } },
{ "type": "Feature", "properties": { "osm_id": "way/311275308", "name": "Plantas ornamentales", "leisure": "garden" }, "geometry": { "type": "Point", "coordinates": [ -3.6919124, 40.4120008 ] } },
{ "type": "Feature", "properties": { "osm_id": "way/311275311", "name": "Rosaleda", "leisure": "garden" }, "geometry": { "type": "Point", "coordinates": [ -3.6916914, 40.4110223 ] } },
{ "type": "Feature", "properties": { "osm_id": "way/311391622", "name": "Astéridas", "leisure": "garden" }, "geometry": { "type": "Point", "coordinates": [ -3.6909785, 40.4114496 ] } },
{ "type": "Feature", "properties": { "osm_id": "way/311391623", "name": "Cariofílidas y Dillénidas", "leisure": "garden" }, "geometry": { "type": "Point", "coordinates": [ -3.6904921, 40.4111738 ] } },
{ "type": "Feature", "properties": { "osm_id": "way/311391624", "name": "Comelínidas", "leisure": "garden" }, "geometry": { "type": "Point", "coordinates": [ -3.6907591, 40.4104567 ] } },
{ "type": "Feature", "properties": { "osm_id": "way/311391625", "name": "Gimnospermas", "leisure": "garden" }, "geometry": { "type": "Point", "coordinates": [ -3.6903074, 40.4103422 ] } },
{ "type": "Feature", "properties": { "osm_id": "way/311391626", "name": "Huerta y frutales", "leisure": "garden" }, "geometry": { "type": "Point", "coordinates": [ -3.6915029, 40.4101937 ] } },
{ "type": "Feature", "properties": { "osm_id": "way/311391627", "name": "Magnólidas y Hamamélidas", "leisure": "garden" }, "geometry": { "type": "Point", "coordinates": [ -3.6903779, 40.4106778 ] } },
{ "type": "Feature", "properties": { "osm_id": "way/311391628", "name": "Plantas acidófilas", "leisure": "garden" }, "geometry": { "type": "Point", "coordinates": [ -3.6918144, 40.4104918 ] } },
{ "type": "Feature", "properties": { "osm_id": "way/311391629", "name": "Plantas aromáticas y medicinales", "leisure": "garden" }, "geometry": { "type": "Point", "coordinates": [ -3.6913316, 40.4105542 ] } },
{ "type": "Feature", "properties": { "osm_id": "way/311391630", "name": "Plantas de bosque de ribera y de la Comunidad de Madrid", "leisure": "garden" }, "geometry": { "type": "Point", "coordinates": [ -3.6918015, 40.4115159 ] } },
{ "type": "Feature", "properties": { "osm_id": "way/311391631", "name": "Rósidas", "leisure": "garden" }, "geometry": { "type": "Point", "coordinates": [ -3.6906425, 40.4118358 ] } },
{ "type": "Feature", "properties": { "osm_id": "way/320320747", "name": "", "leisure": "garden" }, "geometry": { "type": "Point", "coordinates": [ -3.6793991, 40.4077117 ] } },
{ "type": "Feature", "properties": { "osm_id": "way/323039754", "name": "", "leisure": "garden" }, "geometry": { "type": "Point", "coordinates": [ -3.6885473, 40.4199986 ] } },
{ "type": "Feature", "properties": { "osm_id": "way/323039756", "name": "", "leisure": "garden" }, "geometry": { "type": "Point", "coordinates": [ -3.688917, 40.4199746 ] } },
{ "type": "Feature", "properties": { "osm_id": "way/323039759", "name": "", "leisure": "garden" }, "geometry": { "type": "Point", "coordinates": [ -3.6882608, 40.4200513 ] } },
{ "type": "Feature", "properties": { "osm_id": "way/323143341", "name": "", "leisure": "garden" }, "geometry": { "type": "Point", "coordinates": [ -3.6796847, 40.4075551 ] } },
{ "type": "Feature", "properties": { "osm_id": "way/323143346", "name": "", "leisure": "garden" }, "geometry": { "type": "Point", "coordinates": [ -3.6795776, 40.4082265 ] } },
{ "type": "Feature", "properties": { "osm_id": "way/356932659", "name": "", "leisure": "garden" }, "geometry": { "type": "Point", "coordinates": [ -3.6959079, 40.4179884 ] } },
{ "type": "Feature", "properties": { "osm_id": "way/356932662", "name": "Jardines del Thyssen", "leisure": "garden" }, "geometry": { "type": "Point", "coordinates": [ -3.6949204, 40.4165526 ] } },
{ "type": "Feature", "properties": { "osm_id": "way/370648509", "name": "", "leisure": "garden" }, "geometry": { "type": "Point", "coordinates": [ -3.6919347, 40.4201856 ] } },
{ "type": "Feature", "properties": { "osm_id": "way/393196791", "name": "", "leisure": "garden" }, "geometry": { "type": "Point", "coordinates": [ -3.6873588, 40.4082232 ] } },
{ "type": "Feature", "properties": { "osm_id": "way/393196796", "name": "", "leisure": "garden" }, "geometry": { "type": "Point", "coordinates": [ -3.6878507, 40.4082475 ] } },
{ "type": "Feature", "properties": { "osm_id": "way/393196797", "name": "", "leisure": "garden" }, "geometry": { "type": "Point", "coordinates": [ -3.6873147, 40.4081645 ] } },
{ "type": "Feature", "properties": { "osm_id": "way/393196798", "name": "", "leisure": "garden" }, "geometry": { "type": "Point", "coordinates": [ -3.687308, 40.4082771 ] } },
{ "type": "Feature", "properties": { "osm_id": "way/393196799", "name": "", "leisure": "garden" }, "geometry": { "type": "Point", "coordinates": [ -3.6874225, 40.4082842 ] } },
{ "type": "Feature", "properties": { "osm_id": "way/393196800", "name": "", "leisure": "garden" }, "geometry": { "type": "Point", "coordinates": [ -3.6874342, 40.4081753 ] } },
{ "type": "Feature", "properties": { "osm_id": "way/463905871", "name": "", "leisure": "garden" }, "geometry": { "type": "Point", "coordinates": [ -3.6919391, 40.4111965 ] } },
{ "type": "Feature", "properties": { "osm_id": "way/463905872", "name": "", "leisure": "garden" }, "geometry": { "type": "Point", "coordinates": [ -3.6920237, 40.4111077 ] } },
{ "type": "Feature", "properties": { "osm_id": "way/463905873", "name": "", "leisure": "garden" }, "geometry": { "type": "Point", "coordinates": [ -3.6919129, 40.4112253 ] } },
{ "type": "Feature", "properties": { "osm_id": "way/463905874", "name": "", "leisure": "garden" }, "geometry": { "type": "Point", "coordinates": [ -3.6919967, 40.4111354 ] } },
{ "type": "Feature", "properties": { "osm_id": "way/463905875", "name": "", "leisure": "garden" }, "geometry": { "type": "Point", "coordinates": [ -3.6920076, 40.4111881 ] } },
{ "type": "Feature", "properties": { "osm_id": "way/463905876", "name": "", "leisure": "garden" }, "geometry": { "type": "Point", "coordinates": [ -3.6918964, 40.4111207 ] } },
{ "type": "Feature", "properties": { "osm_id": "way/463905877", "name": "", "leisure": "garden" }, "geometry": { "type": "Point", "coordinates": [ -3.6919308, 40.411144 ] } },
{ "type": "Feature", "properties": { "osm_id": "way/463905878", "name": "", "leisure": "garden" }, "geometry": { "type": "Point", "coordinates": [ -3.6920458, 40.4112104 ] } },
{ "type": "Feature", "properties": { "osm_id": "way/463905879", "name": "", "leisure": "garden" }, "geometry": { "type": "Point", "coordinates": [ -3.6918533, 40.4108365 ] } },
{ "type": "Feature", "properties": { "osm_id": "way/463905880", "name": "", "leisure": "garden" }, "geometry": { "type": "Point", "coordinates": [ -3.6919379, 40.4107477 ] } },
{ "type": "Feature", "properties": { "osm_id": "way/463905881", "name": "", "leisure": "garden" }, "geometry": { "type": "Point", "coordinates": [ -3.6918272, 40.4108652 ] } },
{ "type": "Feature", "properties": { "osm_id": "way/463905882", "name": "", "leisure": "garden" }, "geometry": { "type": "Point", "coordinates": [ -3.691911, 40.4107753 ] } },
{ "type": "Feature", "properties": { "osm_id": "way/463905883", "name": "", "leisure": "garden" }, "geometry": { "type": "Point", "coordinates": [ -3.6919219, 40.4108281 ] } },
{ "type": "Feature", "properties": { "osm_id": "way/463905884", "name": "", "leisure": "garden" }, "geometry": { "type": "Point", "coordinates": [ -3.6918108, 40.4107607 ] } },
{ "type": "Feature", "properties": { "osm_id": "way/463905885", "name": "", "leisure": "garden" }, "geometry": { "type": "Point", "coordinates": [ -3.6918451, 40.410784 ] } },
{ "type": "Feature", "properties": { "osm_id": "way/463905886", "name": "", "leisure": "garden" }, "geometry": { "type": "Point", "coordinates": [ -3.6919601, 40.4108504 ] } },
{ "type": "Feature", "properties": { "osm_id": "way/463905887", "name": "", "leisure": "garden" }, "geometry": { "type": "Point", "coordinates": [ -3.6913738, 40.4109011 ] } },
{ "type": "Feature", "properties": { "osm_id": "way/463905888", "name": "", "leisure": "garden" }, "geometry": { "type": "Point", "coordinates": [ -3.6914583, 40.4108123 ] } },
{ "type": "Feature", "properties": { "osm_id": "way/463905889", "name": "", "leisure": "garden" }, "geometry": { "type": "Point", "coordinates": [ -3.6913475, 40.4109298 ] } },
{ "type": "Feature", "properties": { "osm_id": "way/463905890", "name": "", "leisure": "garden" }, "geometry": { "type": "Point", "coordinates": [ -3.6914315, 40.4108399 ] } },
{ "type": "Feature", "properties": { "osm_id": "way/463905891", "name": "", "leisure": "garden" }, "geometry": { "type": "Point", "coordinates": [ -3.6914423, 40.4108927 ] } },
{ "type": "Feature", "properties": { "osm_id": "way/463905892", "name": "", "leisure": "garden" }, "geometry": { "type": "Point", "coordinates": [ -3.6913311, 40.4108253 ] } },
{ "type": "Feature", "properties": { "osm_id": "way/463905893", "name": "", "leisure": "garden" }, "geometry": { "type": "Point", "coordinates": [ -3.6913655, 40.4108486 ] } },
{ "type": "Feature", "properties": { "osm_id": "way/463905894", "name": "", "leisure": "garden" }, "geometry": { "type": "Point", "coordinates": [ -3.6914805, 40.410915 ] } },
{ "type": "Feature", "properties": { "osm_id": "way/463905895", "name": "", "leisure": "garden" }, "geometry": { "type": "Point", "coordinates": [ -3.6914106, 40.4111795 ] } },
{ "type": "Feature", "properties": { "osm_id": "way/463905896", "name": "", "leisure": "garden" }, "geometry": { "type": "Point", "coordinates": [ -3.6915378, 40.4111665 ] } },
{ "type": "Feature", "properties": { "osm_id": "way/463905897", "name": "", "leisure": "garden" }, "geometry": { "type": "Point", "coordinates": [ -3.69156, 40.4112692 ] } },
{ "type": "Feature", "properties": { "osm_id": "way/463905898", "name": "", "leisure": "garden" }, "geometry": { "type": "Point", "coordinates": [ -3.6914271, 40.411284 ] } },
{ "type": "Feature", "properties": { "osm_id": "way/463905899", "name": "", "leisure": "garden" }, "geometry": { "type": "Point", "coordinates": [ -3.6915218, 40.4112469 ] } },
{ "type": "Feature", "properties": { "osm_id": "way/463905900", "name": "", "leisure": "garden" }, "geometry": { "type": "Point", "coordinates": [ -3.6914533, 40.4112553 ] } },
{ "type": "Feature", "properties": { "osm_id": "way/463905901", "name": "", "leisure": "garden" }, "geometry": { "type": "Point", "coordinates": [ -3.691511, 40.4111942 ] } },
{ "type": "Feature", "properties": { "osm_id": "way/463905902", "name": "", "leisure": "garden" }, "geometry": { "type": "Point", "coordinates": [ -3.691445, 40.4112028 ] } },
{ "type": "Feature", "properties": { "osm_id": "way/539422505", "name": "", "leisure": "garden" }, "geometry": { "type": "Point", "coordinates": [ -3.69175, 40.4141635 ] } },
{ "type": "Feature", "properties": { "osm_id": "way/539422507", "name": "", "leisure": "garden" }, "geometry": { "type": "Point", "coordinates": [ -3.6916987, 40.4140183 ] } },
{ "type": "Feature", "properties": { "osm_id": "way/539422508", "name": "", "leisure": "garden" }, "geometry": { "type": "Point", "coordinates": [ -3.6916869, 40.4138364 ] } },
{ "type": "Feature", "properties": { "osm_id": "way/539422509", "name": "", "leisure": "garden" }, "geometry": { "type": "Point", "coordinates": [ -3.6916724, 40.4136685 ] } },
{ "type": "Feature", "properties": { "osm_id": "way/539422511", "name": "", "leisure": "garden" }, "geometry": { "type": "Point", "coordinates": [ -3.6916427, 40.4134547 ] } },
{ "type": "Feature", "properties": { "osm_id": "way/554720472", "name": "Jardín Tropical", "leisure": "garden" }, "geometry": { "type": "Point", "coordinates": [ -3.6913643, 40.4070141 ] } },
{ "type": "Feature", "properties": { "osm_id": "way/556136740", "name": "", "leisure": "garden" }, "geometry": { "type": "Point", "coordinates": [ -3.6941735, 40.4050188 ] } },
{ "type": "Feature", "properties": { "osm_id": "way/556136741", "name": "", "leisure": "garden" }, "geometry": { "type": "Point", "coordinates": [ -3.694171, 40.4049753 ] } },
{ "type": "Feature", "properties": { "osm_id": "way/570379828", "name": "", "leisure": "garden" }, "geometry": { "type": "Point", "coordinates": [ -3.6937833, 40.4198732 ] } },
{ "type": "Feature", "properties": { "osm_id": "way/584992253", "name": "", "leisure": "garden" }, "geometry": { "type": "Point", "coordinates": [ -3.6792581, 40.4078633 ] } },
{ "type": "Feature", "properties": { "osm_id": "way/598662590", "name": "", "leisure": "garden" }, "geometry": { "type": "Point", "coordinates": [ -3.6928418, 40.420815 ] } },
{ "type": "Feature", "properties": { "osm_id": "way/598662591", "name": "", "leisure": "garden" }, "geometry": { "type": "Point", "coordinates": [ -3.692394, 40.4210111 ] } },
{ "type": "Feature", "properties": { "osm_id": "way/661052395", "name": "", "leisure": "park" }, "geometry": { "type": "Point", "coordinates": [ -3.6783916, 40.4077207 ] } },
{ "type": "Feature", "properties": { "osm_id": "way/661052396", "name": "", "leisure": "park" }, "geometry": { "type": "Point", "coordinates": [ -3.678244, 40.407228 ] } },
{ "type": "Feature", "properties": { "osm_id": "way/661052397", "name": "", "leisure": "park" }, "geometry": { "type": "Point", "coordinates": [ -3.6784301, 40.4074746 ] } },
{ "type": "Feature", "properties": { "osm_id": "way/741227868", "name": "", "leisure": "garden" }, "geometry": { "type": "Point", "coordinates": [ -3.6837328, 40.4211284 ] } },
{ "type": "Feature", "properties": { "osm_id": "way/991444022", "name": "", "leisure": "garden" }, "geometry": { "type": "Point", "coordinates": [ -3.6947059, 40.4082186 ] } },
{ "type": "Feature", "properties": { "osm_id": "way/991444023", "name": "", "leisure": "garden" }, "geometry": { "type": "Point", "coordinates": [ -3.6945444, 40.4084302 ] } },
{ "type": "Feature", "properties": { "osm_id": "way/991444024", "name": "", "leisure": "garden" }, "geometry": { "type": "Point", "coordinates": [ -3.6943241, 40.40835 ] } },
{ "type": "Feature", "properties": { "osm_id": "way/991444025", "name": "", "leisure": "garden" }, "geometry": { "type": "Point", "coordinates": [ -3.6940624, 40.4082358 ] } },
{ "type": "Feature", "properties": { "osm_id": "way/991444026", "name": "", "leisure": "garden" }, "geometry": { "type": "Point", "coordinates": [ -3.6938724, 40.4081369 ] } },
{ "type": "Feature", "properties": { "osm_id": "way/991444027", "name": "", "leisure": "garden" }, "geometry": { "type": "Point", "coordinates": [ -3.6945079, 40.4081191 ] } },
{ "type": "Feature", "properties": { "osm_id": "way/991444028", "name": "", "leisure": "garden" }, "geometry": { "type": "Point", "coordinates": [ -3.6942502, 40.4080055 ] } },
{ "type": "Feature", "properties": { "osm_id": "way/991444029", "name": "", "leisure": "garden" }, "geometry": { "type": "Point", "coordinates": [ -3.6940319, 40.407928 ] } },
{ "type": "Feature", "properties": { "osm_id": "way/991537873", "name": "", "leisure": "garden" }, "geometry": { "type": "Point", "coordinates": [ -3.6951869, 40.409851 ] } },
{ "type": "Feature", "properties": { "osm_id": "way/991537874", "name": "", "leisure": "garden" }, "geometry": { "type": "Point", "coordinates": [ -3.6948184, 40.4096537 ] } },
{ "type": "Feature", "properties": { "osm_id": "way/1016940339", "name": "", "leisure": "garden" }, "geometry": { "type": "Point", "coordinates": [ -3.6945487, 40.419546 ] } },
{ "type": "Feature", "properties": { "osm_id": "way/1016940340", "name": "", "leisure": "garden" }, "geometry": { "type": "Point", "coordinates": [ -3.69421, 40.4195807 ] } },
{ "type": "Feature", "properties": { "osm_id": "way/1016940349", "name": "", "leisure": "garden" }, "geometry": { "type": "Point", "coordinates": [ -3.6942488, 40.4200407 ] } },
{ "type": "Feature", "properties": { "osm_id": "way/1016940350", "name": "", "leisure": "garden" }, "geometry": { "type": "Point", "coordinates": [ -3.694771, 40.4200269 ] } },
{ "type": "Feature", "properties": { "osm_id": "way/1016940351", "name": "", "leisure": "garden" }, "geometry": { "type": "Point", "coordinates": [ -3.6948888, 40.4197828 ] } },
{ "type": "Feature", "properties": { "osm_id": "way/1016940352", "name": "", "leisure": "garden" }, "geometry": { "type": "Point", "coordinates": [ -3.6951484, 40.4205118 ] } },
{ "type": "Feature", "properties": { "osm_id": "way/1057731910", "name": "", "leisure": "park" }, "geometry": { "type": "Point", "coordinates": [ -3.6783122, 40.4074725 ] } },
{ "type": "Feature", "properties": { "osm_id": "way/1144539856", "name": "", "leisure": "garden" }, "geometry": { "type": "Point", "coordinates": [ -3.6933649, 40.419226 ] } },
{ "type": "Feature", "properties": { "osm_id": "way/1173738187", "name": "", "leisure": "garden" }, "geometry": { "type": "Point", "coordinates": [ -3.6925579, 40.4072125 ] } },
{ "type": "Feature", "properties": { "osm_id": "way/1333561605", "name": "", "leisure": "garden" }, "geometry": { "type": "Point", "coordinates": [ -3.6934202, 40.4211057 ] } },
{ "type": "Feature", "properties": { "osm_id": "way/1345287210", "name": "", "leisure": "garden" }, "geometry": { "type": "Point", "coordinates": [ -3.6777182, 40.4094756 ] } },
{ "type": "Feature", "properties": { "osm_id": "way/1352302585", "name": "", "leisure": "garden" }, "geometry": { "type": "Point", "coordinates": [ -3.6926561, 40.4164472 ] } },
{ "type": "Feature", "properties": { "osm_id": "way/1352302586", "name": "", "leisure": "garden" }, "geometry": { "type": "Point", "coordinates": [ -3.6927451, 40.4165504 ] } },
{ "type": "Feature", "properties": { "osm_id": "way/1352302587", "name": "", "leisure": "garden" }, "geometry": { "type": "Point", "coordinates": [ -3.6929643, 40.4165656 ] } },
{ "type": "Feature", "properties": { "osm_id": "way/1436385157", "name": "", "leisure": "garden" }, "geometry": { "type": "Point", "coordinates": [ -3.6900204, 40.4117974 ] } },
{ "type": "Feature", "properties": { "osm_id": "way/1436385158", "name": "", "leisure": "garden" }, "geometry": { "type": "Point", "coordinates": [ -3.6898044, 40.4117718 ] } },
{ "type": "Feature", "properties": { "osm_id": "way/1436385159", "name": "", "leisure": "garden" }, "geometry": { "type": "Point", "coordinates": [ -3.6897943, 40.4116009 ] } },
{ "type": "Feature", "properties": { "osm_id": "way/1436385160", "name": "", "leisure": "garden" }, "geometry": { "type": "Point", "coordinates": [ -3.6897168, 40.4114638 ] } },
{ "type": "Feature", "properties": { "osm_id": "way/1436780490", "name": "", "leisure": "garden" }, "geometry": { "type": "Point", "coordinates": [ -3.6912731, 40.408976 ] } },
{ "type": "Feature", "properties": { "osm_id": "way/1485733716", "name": "", "leisure": "garden" }, "geometry": { "type": "Point", "coordinates": [ -3.6901545, 40.411558 ] } },
{ "type": "Feature", "properties": { "osm_id": "relation/1869334", "name": "Jardín", "leisure": "garden" }, "geometry": { "type": "Point", "coordinates": [ -3.6949204, 40.4165526 ] } },
{ "type": "Feature", "properties": { "osm_id": "relation/4756144", "name": "", "leisure": "garden" }, "geometry": { "type": "Point", "coordinates": [ -3.6788125, 40.4074475 ] } },
{ "type": "Feature", "properties": { "osm_id": "relation/10005473", "name": "Jardines de Cecilio Rodríguez", "leisure": "garden" }, "geometry": { "type": "Point", "coordinates": [ -3.6779725, 40.4133475 ] } },
{ "type": "Feature", "properties": { "osm_id": "relation/10005474", "name": "Jardines del Arquitecto Herrero Palacios", "leisure": "garden" }, "geometry": { "type": "Point", "coordinates": [ -3.6786338, 40.4156127 ] } },
{ "type": "Feature", "properties": { "osm_id": "relation/13493466", "name": "", "leisure": "garden" }, "geometry": { "type": "Point", "coordinates": [ -3.6838715, 40.40619 ] } },
{ "type": "Feature", "properties": { "osm_id": "relation/13616929", "name": "Parque del Retiro", "leisure": "park" }, "geometry": { "type": "Point", "coordinates": [ -3.6827128, 40.4148635 ] } },
{ "type": "Feature", "properties": { "osm_id": "relation/15470278", "name": "", "leisure": "garden" }, "geometry": { "type": "Point", "coordinates": [ -3.6930879, 40.4193346 ] } },
{ "type": "Feature", "properties": { "osm_id": "relation/15470279", "name": "", "leisure": "garden" }, "geometry": { "type": "Point", "coordinates": [ -3.6941511, 40.4152596 ] } },
{ "type": "Feature", "properties": { "osm_id": "relation/16657038", "name": "", "leisure": "garden" }, "geometry": { "type": "Point", "coordinates": [ -3.6842223, 40.4154109 ] } },
{ "type": "Feature", "properties": { "osm_id": "relation/18571165", "name": "", "leisure": "garden" }, "geometry": { "type": "Point", "coordinates": [ -3.6928532, 40.4162502 ] } },
{ "type": "Feature", "properties": { "osm_id": "relation/20827650", "name": "Jardín del Parterre", "leisure": "garden" }, "geometry": { "type": "Point", "coordinates": [ -3.6874061, 40.4152953 ] } }
]
}
