{
"type": "FeatureCollection",
"name": "transit_points",
"crs": { "type": "name", "properties": { "name": "urn:ogc:def:crs:OGC:1.3:CRS84" } },
"features": [
{ "type": "Feature", "properties": { "osm_id": "node/25903356", "name": "Retiro", "mode": "rail_metro" }, "geometry": { "type": "Point", "coordinates": [ -3.6864209, 40.4204766 ] } },
{ "type": "Feature", "properties": { "osm_id": "node/5299314576", "name": "Atocha", "mode": "rail_metro" }, "geometry": { "type": "Point", "coordinates": [ -3.6886008, 40.4069749 ] } },
{ "type": "Feature", "properties": { "osm_id": "node/5299314577", "name": "Estación del Arte", "mode": "rail_metro" }, "geometry": { "type": "Point", "coordinates": [ -3.6914748, 40.4088389 ] } },
{ "type": "Feature", "properties": { "osm_id": "node/5303271999", "name": "Banco de España", "mode": "rail_metro" }, "geometry": { "type": "Point", "coordinates": [ -3.6949256, 40.4190548 ] } },
{ "type": "Feature", "properties": { "osm_id": "node/5303272000", "name": "Retiro", "mode": "rail_metro" }, "geometry": { "type": "Point", "coordinates": [ -3.6864269, 40.4204626 ] } },
{ "type": "Feature", "properties": { "osm_id": "node/5303272012", "name": "Retiro", "mode": "rail_metro" }, "geometry": { "type": "Point", "coordinates": [ -3.6864129, 40.420447 ] } },
{ "type": "Feature", "properties": { "osm_id": "node/5307477095", "name": "Ibiza", "mode": "rail_metro" }, "geometry": { "type": "Point", "coordinates": [ -3.6781374, 40.4183658 ] } },
{ "type": "Feature", "properties": { "osm_id": "node/5462590351", "name": "Menéndez Pelayo", "mode": "rail_metro" }, "geometry": { "type": "Point", "coordinates": [ -3.6811007, 40.4042973 ] } },
{ "type": "Feature", "properties": { "osm_id": "node/7499028215", "name": "Atocha-Cercanías", "mode": "rail_metro" }, "geometry": { "type": "Point", "coordinates": [ -3.6887662, 40.4059688 ] } },
{ "type": "Feature", "properties": { "osm_id": "node/7499028216", "name": "Madrid-Puerta de Atocha-Almudena Grandes", "mode": "rail_metro" }, "geometry": { "type": "Point", "coordinates": [ -3.6900187, 40.4056837 ] } },
{ "type": "Feature", "properties": { "osm_id": "way/255246391", "name": "Atocha-Cercanías", "mode": "rail_metro" }, "geometry": { "type": "Point", "coordinates": [ -3.6880869, 40.4053057 ] } },
{ "type": "Feature", "properties": { "osm_id": "way/733993037", "name": "Madrid-Puerta de Atocha-Almudena Grandes", "mode": "rail_metro" }, "geometry": { "type": "Point", "coordinates": [ -3.6886835, 40.4045571 ] } },
{ "type": "Feature", "properties": { "osm_id": "node/1439699426", "name": "Alcalá-Retiro", "mode": "bus" }, "geometry": { "type": "Point", "coordinates": [ -3.685889, 40.4204282 ] } },
{ "type": "Feature", "properties": { "osm_id": "node/1439699495", "name": "Casón del Buen Retiro", "mode": "bus" }, "geometry": { "type": "Point", "coordinates": [ -3.689139, 40.4163486 ] } },
{ "type": "Feature", "properties": { "osm_id": "node/1439699499", "name": "Casón del Buen Retiro", "mode": "bus" }, "geometry": { "type": "Point", "coordinates": [ -3.6888739, 40.4165306 ] } },
{ "type": "Feature", "properties": { "osm_id": "node/1439699504", "name": "Cuesta de Moyano", "mode": "bus" }, "geometry": { "type": "Point", "coordinates": [ -3.688836, 40.4091614 ] } },
{ "type": "Feature", "properties": { "osm_id": "node/1439699507", "name": "Cuesta de Moyano", "mode": "bus" }, "geometry": { "type": "Point", "coordinates": [ -3.6885635, 40.409199 ] } },
{ "type": "Feature", "properties": { "osm_id": "node/1439699508", "name": "Alfonso XII-Jardín Botánico", "mode": "bus" }, "geometry": { "type": "Point", "coordinates": [ -3.6889698, 40.4125629 ] } },
{ "type": "Feature", "properties": { "osm_id": "node/1439699509", "name": "Alfonso XII-Jardín Botánico", "mode": "bus" }, "geometry": { "type": "Point", "coordinates": [ -3.6887063, 40.4128108 ] } },
{ "type": "Feature", "properties": { "osm_id": "node/1439699510", "name": "Alfonso XII-Estación de Atocha", "mode": "bus" }, "geometry": { "type": "Point", "coordinates": [ -3.6888015, 40.4076839 ] } },
{ "type": "Feature", "properties": { "osm_id": "node/1439699511", "name": "Puerta de Alcalá", "mode": "bus" }, "geometry": { "type": "Point", "coordinates": [ -3.6889469, 40.4189857 ] } },
{ "type": "Feature", "properties": { "osm_id": "node/1439700479", "name": "Prado-Atocha", "mode": "bus" }, "geometry": { "type": "Point", "coordinates": [ -3.6932684, 40.4094412 ] } },
{ "type": "Feature", "properties": { "osm_id": "node/1439700487", "name": "Prado-Atocha", "mode": "bus" }, "geometry": { "type": "Point", "coordinates": [ -3.6931914, 40.409693 ] } },
{ "type": "Feature", "properties": { "osm_id": "node/1439701389", "name": "Av. Cdad. Barcelona - Int. Atocha", "mode": "bus" }, "geometry": { "type": "Point", "coordinates": [ -3.6905525, 40.407621 ] } },
{ "type": "Feature", "properties": { "osm_id": "node/1439701433", "name": "Menéndez Pelayo", "mode": "bus" }, "geometry": { "type": "Point", "coordinates": [ -3.6806204, 40.4040264 ] } },
{ "type": "Feature", "properties": { "osm_id": "node/1439701447", "name": "Menéndez Pelayo", "mode": "bus" }, "geometry": { "type": "Point", "coordinates": [ -3.6815206, 40.4046374 ] } },
{ "type": "Feature", "properties": { "osm_id": "node/1439701457", "name": "Basílica de Atocha", "mode": "bus" }, "geometry": { "type": "Point", "coordinates": [ -3.6849557, 40.4056637 ] } },
{ "type": "Feature", "properties": { "osm_id": "node/1439701468", "name": "Basílica de Atocha", "mode": "bus" }, "geometry": { "type": "Point", "coordinates": [ -3.6850419, 40.405466 ] } },
{ "type": "Feature", "properties": { "osm_id": "node/1439702369", "name": "Mariano de Cavia", "mode": "bus" }, "geometry": { "type": "Point", "coordinates": [ -3.6778863, 40.407292 ] } },
{ "type": "Feature", "properties": { "osm_id": "node/1439702373", "name": "Mariano de Cavia", "mode": "bus" }, "geometry": { "type": "Point", "coordinates": [ -3.6780951, 40.4076065 ] } },
{ "type": "Feature", "properties": { "osm_id": "node/1439702393", "name": "Menéndez Pelayo-Sainz de Baranda", "mode": "bus" }, "geometry": { "type": "Point", "coordinates": [ -3.6780891, 40.4167383 ] } },
{ "type": "Feature", "properties": { "osm_id": "node/1439702397", "name": "Mariano de Cavia", "mode": "bus" }, "geometry": { "type": "Point", "coordinates": [ -3.6790141, 40.406949 ] } },
{ "type": "Feature", "properties": { "osm_id": "node/1439702399", "name": "Mariano de Cavia", "mode": "bus" }, "geometry": { "type": "Point", "coordinates": [ -3.6792397, 40.4070761 ] } },
{ "type": "Feature", "properties": { "osm_id": "node/1439702401", "name": "Menéndez Pelayo-Granada", "mode": "bus" }, "geometry": { "type": "Point", "coordinates": [ -3.6803343, 40.4054007 ] } },
{ "type": "Feature", "properties": { "osm_id": "node/1439702402", "name": "Menéndez Pelayo-Granada", "mode": "bus" }, "geometry": { "type": "Point", "coordinates": [ -3.6799233, 40.4055473 ] } },
{ "type": "Feature", "properties": { "osm_id": "node/1439702403", "name": "Menéndez Pelayo-Menorca", "mode": "bus" }, "geometry": { "type": "Point", "coordinates": [ -3.6793664, 40.4195822 ] } },
{ "type": "Feature", "properties": { "osm_id": "node/1439702404", "name": "Menéndez Pelayo-Menorca", "mode": "bus" }, "geometry": { "type": "Point", "coordinates": [ -3.6791815, 40.419768 ] } },
{ "type": "Feature", "properties": { "osm_id": "node/1439702410", "name": "Mariano de Cavia", "mode": "bus" }, "geometry": { "type": "Point", "coordinates": [ -3.6786074, 40.4080373 ] } },
{ "type": "Feature", "properties": { "osm_id": "node/1439702418", "name": "Mariano de Cavia", "mode": "bus" }, "geometry": { "type": "Point", "coordinates": [ -3.6783305, 40.4080534 ] } },
{ "type": "Feature", "properties": { "osm_id": "node/1439703131", "name": "Batalla del Salado-Delicias", "mode": "bus" }, "geometry": { "type": "Point", "coordinates": [ -3.6958505, 40.4044572 ] } },
{ "type": "Feature", "properties": { "osm_id": "node/1439703420", "name": "Mariano de Cavia", "mode": "bus" }, "geometry": { "type": "Point", "coordinates": [ -3.6780156, 40.4068266 ] } },
{ "type": "Feature", "properties": { "osm_id": "node/1439703421", "name": "Mariano de Cavia", "mode": "bus" }, "geometry": { "type": "Point", "coordinates": [ -3.6781907, 40.4071445 ] } },
{ "type": "Feature", "properties": { "osm_id": "node/1439703500", "name": "Comercio Nº 2", "mode": "bus" }, "geometry": { "type": "Point", "coordinates": [ -3.6811409, 40.4040393 ] } },
{ "type": "Feature", "properties": { "osm_id": "node/1439704190", "name": "Calle de las Delicias", "mode": "bus" }, "geometry": { "type": "Point", "coordinates": [ -3.6939223, 40.4040994 ] } },
{ "type": "Feature", "properties": { "osm_id": "node/1439705594", "name": "Hospital Niño Jesús", "mode": "bus" }, "geometry": { "type": "Point", "coordinates": [ -3.6775483, 40.4143361 ] } },
{ "type": "Feature", "properties": { "osm_id": "node/1439705788", "name": "Estación de Atocha", "mode": "bus" }, "geometry": { "type": "Point", "coordinates": [ -3.6896054, 40.4063007 ] } },
{ "type": "Feature", "properties": { "osm_id": "node/1439705791", "name": "Estación de Atocha", "mode": "bus" }, "geometry": { "type": "Point", "coordinates": [ -3.6899269, 40.406207 ] } },
{ "type": "Feature", "properties": { "osm_id": "node/1439705798", "name": "Estación de Atocha", "mode": "bus" }, "geometry": { "type": "Point", "coordinates": [ -3.6893754, 40.4063823 ] } },
{ "type": "Feature", "properties": { "osm_id": "node/1439705799", "name": "Estación de Atocha", "mode": "bus" }, "geometry": { "type": "Point", "coordinates": [ -3.6900959, 40.4063764 ] } },
{ "type": "Feature", "properties": { "osm_id": "node/1439705802", "name": "Estación de Atocha", "mode": "bus" }, "geometry": { "type": "Point", "coordinates": [ -3.6898891, 40.4065055 ] } },
{ "type": "Feature", "properties": { "osm_id": "node/1439705809", "name": "Estación de Atocha", "mode": "bus" }, "geometry": { "type": "Point", "coordinates": [ -3.6891104, 40.4066294 ] } },
{ "type": "Feature", "properties": { "osm_id": "node/1439705810", "name": "Estación de Atocha", "mode": "bus" }, "geometry": { "type": "Point", "coordinates": [ -3.6895611, 40.406688 ] } },
{ "type": "Feature", "properties": { "osm_id": "node/1439707462", "name": "Menéndez Pelayo-Sainz de Baranda", "mode": "bus" }, "geometry": { "type": "Point", "coordinates": [ -3.678366, 40.4167736 ] } },
{ "type": "Feature", "properties": { "osm_id": "node/1439707570", "name": "Ministerio de Agricultura", "mode": "bus" }, "geometry": { "type": "Point", "coordinates": [ -3.6903711, 40.4083326 ] } },
{ "type": "Feature", "properties": { "osm_id": "node/1439709323", "name": "Puerta de Alcalá-Retiro", "mode": "bus" }, "geometry": { "type": "Point", "coordinates": [ -3.6882554, 40.4196063 ] } },
{ "type": "Feature", "properties": { "osm_id": "node/1439709326", "name": "Puerta de Alcalá", "mode": "bus" }, "geometry": { "type": "Point", "coordinates": [ -3.688504, 40.4204877 ] } },
{ "type": "Feature", "properties": { "osm_id": "node/1439709331", "name": "Puerta de Alcalá", "mode": "bus" }, "geometry": { "type": "Point", "coordinates": [ -3.6890678, 40.4204534 ] } },
{ "type": "Feature", "properties": { "osm_id": "node/1439709386", "name": "Neptuno", "mode": "bus" }, "geometry": { "type": "Point", "coordinates": [ -3.6946521, 40.4150366 ] } },
{ "type": "Feature", "properties": { "osm_id": "node/1439709389", "name": "Neptuno", "mode": "bus" }, "geometry": { "type": "Point", "coordinates": [ -3.6932805, 40.4155263 ] } },
{ "type": "Feature", "properties": { "osm_id": "node/1439709515", "name": "Cibeles", "mode": "bus" }, "geometry": { "type": "Point", "coordinates": [ -3.6934077, 40.4189068 ] } },
{ "type": "Feature", "properties": { "osm_id": "node/1439709528", "name": "Cibeles", "mode": "bus" }, "geometry": { "type": "Point", "coordinates": [ -3.6935562, 40.4189282 ] } },
{ "type": "Feature", "properties": { "osm_id": "node/1439709531", "name": "Cibeles", "mode": "bus" }, "geometry": { "type": "Point", "coordinates": [ -3.6932618, 40.4189928 ] } },
{ "type": "Feature", "properties": { "osm_id": "node/1439709554", "name": "Cibeles", "mode": "bus" }, "geometry": { "type": "Point", "coordinates": [ -3.6935268, 40.419701 ] } },
{ "type": "Feature", "properties": { "osm_id": "node/1439709781", "name": "Museo Reina Sofía", "mode": "bus" }, "geometry": { "type": "Point", "coordinates": [ -3.6936114, 40.407458 ] } },
{ "type": "Feature", "properties": { "osm_id": "node/1439709788", "name": "Museo Reina Sofía", "mode": "bus" }, "geometry": { "type": "Point", "coordinates": [ -3.693587, 40.4076825 ] } },
{ "type": "Feature", "properties": { "osm_id": "node/1439709790", "name": "Pza. Emperador Carlos V", "mode": "bus" }, "geometry": { "type": "Point", "coordinates": [ -3.693402, 40.4077945 ] } },
{ "type": "Feature", "properties": { "osm_id": "node/1439710584", "name": "Delicias-Atocha", "mode": "bus" }, "geometry": { "type": "Point", "coordinates": [ -3.6931571, 40.4067662 ] } },
{ "type": "Feature", "properties": { "osm_id": "node/1439710609", "name": "Delicias-Atocha", "mode": "bus" }, "geometry": { "type": "Point", "coordinates": [ -3.6931717, 40.4065273 ] } },
{ "type": "Feature", "properties": { "osm_id": "node/1439710717", "name": "Estación de Atocha", "mode": "bus" }, "geometry": { "type": "Point", "coordinates": [ -3.6881053, 40.4069759 ] } },
{ "type": "Feature", "properties": { "osm_id": "node/1439710720", "name": "Museo de Antropología", "mode": "bus" }, "geometry": { "type": "Point", "coordinates": [ -3.6895894, 40.4078284 ] } },
{ "type": "Feature", "properties": { "osm_id": "node/1439710722", "name": "Ministerio de Agricultura", "mode": "bus" }, "geometry": { "type": "Point", "coordinates": [ -3.6910755, 40.4087458 ] } },
{ "type": "Feature", "properties": { "osm_id": "node/1439710724", "name": "Basílica de Atocha", "mode": "bus" }, "geometry": { "type": "Point", "coordinates": [ -3.6855941, 40.4064874 ] } },
{ "type": "Feature", "properties": { "osm_id": "node/1439710773", "name": "Prado-Atocha", "mode": "bus" }, "geometry": { "type": "Point", "coordinates": [ -3.6926219, 40.4098325 ] } },
{ "type": "Feature", "properties": { "osm_id": "node/1439710774", "name": "Prado-Atocha", "mode": "bus" }, "geometry": { "type": "Point", "coordinates": [ -3.6921726, 40.4099658 ] } },
{ "type": "Feature", "properties": { "osm_id": "node/1439710775", "name": "Banco de España", "mode": "bus" }, "geometry": { "type": "Point", "coordinates": [ -3.6942375, 40.4177328 ] } },
{ "type": "Feature", "properties": { "osm_id": "node/1439710776", "name": "Cibeles-Ayuntamiento", "mode": "bus" }, "geometry": { "type": "Point", "coordinates": [ -3.6929925, 40.4185729 ] } },
{ "type": "Feature", "properties": { "osm_id": "node/1439710777", "name": "Cibeles", "mode": "bus" }, "geometry": { "type": "Point", "coordinates": [ -3.6926384, 40.4187121 ] } },
{ "type": "Feature", "properties": { "osm_id": "node/1439710778", "name": "Cibeles", "mode": "bus" }, "geometry": { "type": "Point", "coordinates": [ -3.6928652, 40.4187873 ] } },
{ "type": "Feature", "properties": { "osm_id": "node/1439710780", "name": "Museo del Prado-Jardín Botánico", "mode": "bus" }, "geometry": { "type": "Point", "coordinates": [ -3.6928561, 40.4129935 ] } },
{ "type": "Feature", "properties": { "osm_id": "node/1439710781", "name": "Museo del Prado-Jardín Botánico", "mode": "bus" }, "geometry": { "type": "Point", "coordinates": [ -3.6934236, 40.4122736 ] } },
{ "type": "Feature", "properties": { "osm_id": "node/1439710788", "name": "Cibeles", "mode": "bus" }, "geometry": { "type": "Point", "coordinates": [ -3.6928009, 40.4201423 ] } },
{ "type": "Feature", "properties": { "osm_id": "node/1439710790", "name": "Cibeles-Casa de América", "mode": "bus" }, "geometry": { "type": "Point", "coordinates": [ -3.6921563, 40.420279 ] } },
{ "type": "Feature", "properties": { "osm_id": "node/1439710791", "name": "Reina Cristina", "mode": "bus" }, "geometry": { "type": "Point", "coordinates": [ -3.6817169, 40.4069457 ] } },
{ "type": "Feature", "properties": { "osm_id": "node/1439710792", "name": "Reina Cristina", "mode": "bus" }, "geometry": { "type": "Point", "coordinates": [ -3.6824825, 40.4069756 ] } },
{ "type": "Feature", "properties": { "osm_id": "node/1439710793", "name": "Basílica de Atocha", "mode": "bus" }, "geometry": { "type": "Point", "coordinates": [ -3.6848978, 40.4064124 ] } },
{ "type": "Feature", "properties": { "osm_id": "node/1439710828", "name": "Atocha", "mode": "bus" }, "geometry": { "type": "Point", "coordinates": [ -3.6940028, 40.4069561 ] } },
{ "type": "Feature", "properties": { "osm_id": "node/1439711191", "name": "Reina Sofía", "mode": "bus" }, "geometry": { "type": "Point", "coordinates": [ -3.6941413, 40.4072107 ] } },
{ "type": "Feature", "properties": { "osm_id": "node/1439711714", "name": "Atocha", "mode": "bus" }, "geometry": { "type": "Point", "coordinates": [ -3.6927752, 40.4061293 ] } },
{ "type": "Feature", "properties": { "osm_id": "node/1449632130", "name": "Estación de Atocha", "mode": "bus" }, "geometry": { "type": "Point", "coordinates": [ -3.6897134, 40.4065898 ] } },
{ "type": "Feature", "properties": { "osm_id": "node/1449632131", "name": "Cibeles", "mode": "bus" }, "geometry": { "type": "Point", "coordinates": [ -3.692686, 40.4184001 ] } },
{ "type": "Feature", "properties": { "osm_id": "node/2046697921", "name": "Cibeles", "mode": "bus" }, "geometry": { "type": "Point", "coordinates": [ -3.6932393, 40.4197242 ] } },
{ "type": "Feature", "properties": { "osm_id": "node/2339199617", "name": "Méndez Álvaro-Estación de Atocha", "mode": "bus" }, "geometry": { "type": "Point", "coordinates": [ -3.691606, 40.4060469 ] } },
{ "type": "Feature", "properties": { "osm_id": "node/2670849440", "name": "Estación de Atocha", "mode": "bus" }, "geometry": { "type": "Point", "coordinates": [ -3.6899276, 40.407223 ] } },
{ "type": "Feature", "properties": { "osm_id": "node/5377443853", "name": "Cibeles", "mode": "bus" }, "geometry": { "type": "Point", "coordinates": [ -3.6933237, 40.4189973 ] } },
{ "type": "Feature", "properties": { "osm_id": "node/7007160200", "name": "Cibeles", "mode": "bus" }, "geometry": { "type": "Point", "coordinates": [ -3.6931716, 40.4198104 ] } },
{ "type": "Feature", "properties": { "osm_id": "node/7007160201", "name": "Cibeles", "mode": "bus" }, "geometry": { "type": "Point", "coordinates": [ -3.6932872, 40.4196643 ] } },
{ "type": "Feature", "properties": { "osm_id": "node/8291690731", "name": "Pza. Emperador Carlos V - Atocha", "mode": "bus" }, "geometry": { "type": "Point", "coordinates": [ -3.6936581, 40.4074214 ] } },
{ "type": "Feature", "properties": { "osm_id": "node/8350084071", "name": "Pza. Emperador Carlos V - Atocha", "mode": "bus" }, "geometry": { "type": "Point", "coordinates": [ -3.6930998, 40.4080775 ] } },
{ "type": "Feature", "properties": { "osm_id": "node/9936978318", "name": "", "mode": "bus" }, "geometry": { "type": "Point", "coordinates": [ -3.6887684, 40.4152822 ] } },
{ "type": "Feature", "properties": { "osm_id": "node/12251456661", "name": "Plaza Emperador Carlos V", "mode": "bus" }, "geometry": { "type": "Point", "coordinates": [ -3.69267, 40.40779 ] } },
{ "type": "Feature", "properties": { "osm_id": "node/12251456676", "name": "Estación De Atocha", "mode": "bus" }, "geometry": { "type": "Point", "coordinates": [ -3.6902789, 40.4074564 ] } },
{ "type": "Feature", "properties": { "osm_id": "node/12251459511", "name": "Museo de Antropología", "mode": "bus" }, "geometry": { "type": "Point", "coordinates": [ -3.6895258, 40.4077881 ] } },
{ "type": "Feature", "properties": { "osm_id": "node/12251459535", "name": "Alfonso XII - Estación De Atocha", "mode": "bus" }, "geometry": { "type": "Point", "coordinates": [ -3.68851, 40.4077 ] } },
{ "type": "Feature", "properties": { "osm_id": "node/12253373085", "name": "Av. Ciudad de Barcelona - Est. Atocha", "mode": "bus" }, "geometry": { "type": "Point", "coordinates": [ -3.6906673, 40.4077198 ] } },
{ "type": "Feature", "properties": { "osm_id": "node/12829397376", "name": "Estación De Atocha", "mode": "bus" }, "geometry": { "type": "Point", "coordinates": [ -3.690232, 40.407433 ] } },
{ "type": "Feature", "properties": { "osm_id": "node/13234385001", "name": "", "mode": "bus" }, "geometry": { "type": "Point", "coordinates": [ -3.6926028, 40.4190684 ] } },
{ "type": "Feature", "properties": { "osm_id": "node/13234385101", "name": "", "mode": "bus" }, "geometry": { "type": "Point", "coordinates": [ -3.6925951, 40.4190578 ] } }
]
}
