{
"type": "FeatureCollection",
"name": "water_points",
"crs": { "type": "name", "properties": { "name": "urn:ogc:def:crs:OGC:1.3:CRS84" } },
"features": [
{ "type": "Feature", "properties": { "osm_id": "node/167302670", "amenity": "drinking_water" }, "geometry": { "type": "Point", "coordinates": [ -3.6957228, 40.413707 ] } },
{ "type": "Feature", "properties": { "osm_id": "node/559824976", "amenity": "drinking_water" }, "geometry": { "type": "Point", "coordinates": [ -3.691375, 40.4124146 ] } },
{ "type": "Feature", "properties": { "osm_id": "node/960871298", "amenity": "fountain" }, "geometry": { "type": "Point", "coordinates": [ -3.6939563, 40.4126854 ] } },
{ "type": "Feature", "properties": { "osm_id": "node/991793741", "amenity": "drinking_water" }, "geometry": { "type": "Point", "coordinates": [ -3.6908892, 40.4100963 ] } },
{ "type": "Feature", "properties": { "osm_id": "node/1464142403", "amenity": "drinking_water" }, "geometry": { "type": "Point", "coordinates": [ -3.6811704, 40.4190697 ] } },
{ "type": "Feature", "properties": { "osm_id": "node/1743699808", "amenity": "drinking_water" }, "geometry": { "type": "Point", "coordinates": [ -3.6809721, 40.4156411 ] } },
{ "type": "Feature", "properties": { "osm_id": "node/2496787804", "amenity": "drinking_water" }, "geometry": { "type": "Point", "coordinates": [ -3.6855094, 40.4183443 ] } },
{ "type": "Feature", "properties": { "osm_id": "node/2527420077", "amenity": "drinking_water" }, "geometry": { "type": "Point", "coordinates": [ -3.6814686, 40.4133699 ] } },
{ "type": "Feature", "properties": { "osm_id": "node/2527420100", "amenity": "fountain" }, "geometry": { "type": "Point", "coordinates": [ -3.6814358, 40.4137132 ] } },
{ "type": "Feature", "properties": { "osm_id": "node/2946159113", "amenity": "drinking_water" }, "geometry": { "type": "Point", "coordinates": [ -3.6959545, 40.4095083 ] } },
{ "type": "Feature", "properties": { "osm_id": "node/3166536664", "amenity": "fountain" }, "geometry": { "type": "Point", "coordinates": [ -3.6917388, 40.4101588 ] } },
{ "type": "Feature", "properties": { "osm_id": "node/3166536671", "amenity": "fountain" }, "geometry": { "type": "Point", "coordinates": [ -3.6907208, 40.4102906 ] } },
{ "type": "Feature", "properties": { "osm_id": "node/3166536674", "amenity": "fountain" }, "geometry": { "type": "Point", "coordinates": [ -3.6903131, 40.4103419 ] } },
{ "type": "Feature", "properties": { "osm_id": "node/3166536678", "amenity": "fountain" }, "geometry": { "type": "Point", "coordinates": [ -3.6918136, 40.4104892 ] } },
{ "type": "Feature", "properties": { "osm_id": "node/3166536682", "amenity": "fountain" }, "geometry": { "type": "Point", "coordinates": [ -3.6913304, 40.4105545 ] } },
{ "type": "Feature", "properties": { "osm_id": "node/3166536686", "amenity": "fountain" }, "geometry": { "type": "Point", "coordinates": [ -3.6907896, 40.4106208 ] } },
{ "type": "Feature", "properties": { "osm_id": "node/3166536689", "amenity": "fountain" }, "geometry": { "type": "Point", "coordinates": [ -3.6903842, 40.4106729 ] } },
{ "type": "Feature", "properties": { "osm_id": "node/3166536693", "amenity": "fountain" }, "geometry": { "type": "Point", "coordinates": [ -3.6918842, 40.4108046 ] } },
{ "type": "Feature", "properties": { "osm_id": "node/3166536701", "amenity": "fountain" }, "geometry": { "type": "Point", "coordinates": [ -3.6908654, 40.4109385 ] } },
{ "type": "Feature", "properties": { "osm_id": "node/3166536705", "amenity": "fountain" }, "geometry": { "type": "Point", "coordinates": [ -3.6904587, 40.410992 ] } },
{ "type": "Feature", "properties": { "osm_id": "node/3166536721", "amenity": "fountain" }, "geometry": { "type": "Point", "coordinates": [ -3.6905377, 40.4113414 ] } },
{ "type": "Feature", "properties": { "osm_id": "node/3166536731", "amenity": "fountain" }, "geometry": { "type": "Point", "coordinates": [ -3.6910169, 40.4116164 ] } },
{ "type": "Feature", "properties": { "osm_id": "node/3166536734", "amenity": "fountain" }, "geometry": { "type": "Point", "coordinates": [ -3.6906123, 40.4116614 ] } },
{ "type": "Feature", "properties": { "osm_id": "node/3166536742", "amenity": "fountain" }, "geometry": { "type": "Point", "coordinates": [ -3.6910922, 40.4119463 ] } },
{ "type": "Feature", "properties": { "osm_id": "node/3166536745", "amenity": "fountain" }, "geometry": { "type": "Point", "coordinates": [ -3.6906884, 40.4119978 ] } },
{ "type": "Feature", "properties": { "osm_id": "node/3166536749", "amenity": "fountain" }, "geometry": { "type": "Point", "coordinates": [ -3.6921868, 40.412134 ] } },
{ "type": "Feature", "properties": { "osm_id": "node/3166536753", "amenity": "fountain" }, "geometry": { "type": "Point", "coordinates": [ -3.6911571, 40.4122373 ] } },
{ "type": "Feature", "properties": { "osm_id": "node/3168768769", "amenity": "fountain" }, "geometry": { "type": "Point", "coordinates": [ -3.6909458, 40.4112947 ] } },
{ "type": "Feature", "properties": { "osm_id": "node/3170272294", "amenity": "drinking_water" }, "geometry": { "type": "Point", "coordinates": [ -3.6897489, 40.4120637 ] } },
{ "type": "Feature", "properties": { "osm_id": "node/3428424999", "amenity": "fountain" }, "geometry": { "type": "Point", "coordinates": [ -3.6930388, 40.4121432 ] } },
{ "type": "Feature", "properties": { "osm_id": "node/3497610236", "amenity": "drinking_water" }, "geometry": { "type": "Point", "coordinates": [ -3.680829, 40.4172923 ] } },
{ "type": "Feature", "properties": { "osm_id": "node/3497610361", "amenity": "drinking_water" }, "geometry": { "type": "Point", "coordinates": [ -3.6827361, 40.4141507 ] } },
{ "type": "Feature", "properties": { "osm_id": "node/3657652927", "amenity": "drinking_water" }, "geometry": { "type": "Point", "coordinates": [ -3.6932535, 40.4127548 ] } },
{ "type": "Feature", "properties": { "osm_id": "node/4227924890", "amenity": "drinking_water" }, "geometry": { "type": "Point", "coordinates": [ -3.6790489, 40.4144412 ] } },
{ "type": "Feature", "properties": { "osm_id": "node/4330672707", "amenity": "drinking_water" }, "geometry": { "type": "Point", "coordinates": [ -3.6886031, 40.4163972 ] } },
{ "type": "Feature", "properties": { "osm_id": "node/4330672708", "amenity": "drinking_water" }, "geometry": { "type": "Point", "coordinates": [ -3.6821419, 40.4170109 ] } },
{ "type": "Feature", "properties": { "osm_id": "node/4331358251", "amenity": "drinking_water" }, "geometry": { "type": "Point", "coordinates": [ -3.6860234, 40.4061264 ] } },
{ "type": "Feature", "properties": { "osm_id": "node/5407179434", "amenity": "drinking_water" }, "geometry": { "type": "Point", "coordinates": [ -3.6790793, 40.4151191 ] } },
{ "type": "Feature", "properties": { "osm_id": "node/5407179435", "amenity": "drinking_water" }, "geometry": { "type": "Point", "coordinates": [ -3.6785096, 40.416734 ] } },
{ "type": "Feature", "properties": { "osm_id": "node/5407179436", "amenity": "drinking_water" }, "geometry": { "type": "Point", "coordinates": [ -3.6792251, 40.4171448 ] } },
{ "type": "Feature", "properties": { "osm_id": "node/5407179457", "amenity": "drinking_water" }, "geometry": { "type": "Point", "coordinates": [ -3.6799125, 40.418682 ] } },
{ "type": "Feature", "properties": { "osm_id": "node/5407179473", "amenity": "drinking_water" }, "geometry": { "type": "Point", "coordinates": [ -3.6802547, 40.4198651 ] } },
{ "type": "Feature", "properties": { "osm_id": "node/5407179493", "amenity": "drinking_water" }, "geometry": { "type": "Point", "coordinates": [ -3.6824338, 40.4206758 ] } },
{ "type": "Feature", "properties": { "osm_id": "node/5407179494", "amenity": "drinking_water" }, "geometry": { "type": "Point", "coordinates": [ -3.6842604, 40.4204166 ] } },
{ "type": "Feature", "properties": { "osm_id": "node/5407179495", "amenity": "fountain" }, "geometry": { "type": "Point", "coordinates": [ -3.6843953, 40.4205326 ] } },
{ "type": "Feature", "properties": { "osm_id": "node/5407179496", "amenity": "fountain" }, "geometry": { "type": "Point", "coordinates": [ -3.6860799, 40.4201848 ] } },
{ "type": "Feature", "properties": { "osm_id": "node/5407179497", "amenity": "drinking_water" }, "geometry": { "type": "Point", "coordinates": [ -3.6865706, 40.4197034 ] } },
{ "type": "Feature", "properties": { "osm_id": "node/5407179498", "amenity": "drinking_water" }, "geometry": { "type": "Point", "coordinates": [ -3.6880326, 40.4186278 ] } },
{ "type": "Feature", "properties": { "osm_id": "node/5407188002", "amenity": "drinking_water" }, "geometry": { "type": "Point", "coordinates": [ -3.6883757, 40.4139692 ] } },
{ "type": "Feature", "properties": { "osm_id": "node/5407188003", "amenity": "drinking_water" }, "geometry": { "type": "Point", "coordinates": [ -3.6867756, 40.4116961 ] } },
{ "type": "Feature", "properties": { "osm_id": "node/5407192747", "amenity": "drinking_water" }, "geometry": { "type": "Point", "coordinates": [ -3.6871493, 40.4107345 ] } },
{ "type": "Feature", "properties": { "osm_id": "node/5407206291", "amenity": "drinking_water" }, "geometry": { "type": "Point", "coordinates": [ -3.6861303, 40.4098423 ] } },
{ "type": "Feature", "properties": { "osm_id": "node/5407222305", "amenity": "drinking_water" }, "geometry": { "type": "Point", "coordinates": [ -3.6832617, 40.4107577 ] } },
{ "type": "Feature", "properties": { "osm_id": "node/5407222306", "amenity": "drinking_water" }, "geometry": { "type": "Point", "coordinates": [ -3.6804945, 40.4093711 ] } },
{ "type": "Feature", "properties": { "osm_id": "node/5407222307", "amenity": "drinking_water" }, "geometry": { "type": "Point", "coordinates": [ -3.6786313, 40.408492 ] } },
{ "type": "Feature", "properties": { "osm_id": "node/5407222308", "amenity": "drinking_water" }, "geometry": { "type": "Point", "coordinates": [ -3.680999, 40.4111617 ] } },
{ "type": "Feature", "properties": { "osm_id": "node/5407222310", "amenity": "drinking_water" }, "geometry": { "type": "Point", "coordinates": [ -3.6800558, 40.4113795 ] } },
{ "type": "Feature", "properties": { "osm_id": "node/5422559201", "amenity": "drinking_water" }, "geometry": { "type": "Point", "coordinates": [ -3.6840684, 40.4155487 ] } },
{ "type": "Feature", "properties": { "osm_id": "node/5422559205", "amenity": "drinking_water" }, "geometry": { "type": "Point", "coordinates": [ -3.6835184, 40.4157864 ] } },
{ "type": "Feature", "properties": { "osm_id": "node/5422559210", "amenity": "drinking_water" }, "geometry": { "type": "Point", "coordinates": [ -3.6814203, 40.4163956 ] } },
{ "type": "Feature", "properties": { "osm_id": "node/5422559211", "amenity": "drinking_water" }, "geometry": { "type": "Point", "coordinates": [ -3.6800527, 40.4166761 ] } },
{ "type": "Feature", "properties": { "osm_id": "node/5424625643", "amenity": "drinking_water" }, "geometry": { "type": "Point", "coordinates": [ -3.6916265, 40.4194627 ] } },
{ "type": "Feature", "properties": { "osm_id": "node/5424962110", "amenity": "drinking_water" }, "geometry": { "type": "Point", "coordinates": [ -3.6865275, 40.4187685 ] } },
{ "type": "Feature", "properties": { "osm_id": "node/6018055990", "amenity": "drinking_water" }, "geometry": { "type": "Point", "coordinates": [ -3.6904215, 40.4122205 ] } },
{ "type": "Feature", "properties": { "osm_id": "node/6513754519", "amenity": "drinking_water" }, "geometry": { "type": "Point", "coordinates": [ -3.6932399, 40.4198138 ] } },
{ "type": "Feature", "properties": { "osm_id": "node/6614865890", "amenity": "drinking_water" }, "geometry": { "type": "Point", "coordinates": [ -3.6937646, 40.4127302 ] } },
{ "type": "Feature", "properties": { "osm_id": "node/8714822072", "amenity": "fountain" }, "geometry": { "type": "Point", "coordinates": [ -3.6913983, 40.4108722 ] } },
{ "type": "Feature", "properties": { "osm_id": "node/8928837417", "amenity": "drinking_water" }, "geometry": { "type": "Point", "coordinates": [ -3.6947546, 40.4189391 ] } },
{ "type": "Feature", "properties": { "osm_id": "node/9047955431", "amenity": "fountain" }, "geometry": { "type": "Point", "coordinates": [ -3.6941218, 40.4172412 ] } },
{ "type": "Feature", "properties": { "osm_id": "node/9059608366", "amenity": "drinking_water" }, "geometry": { "type": "Point", "coordinates": [ -3.6929558, 40.4148916 ] } },
{ "type": "Feature", "properties": { "osm_id": "node/9249492979", "amenity": "fountain" }, "geometry": { "type": "Point", "coordinates": [ -3.6912505, 40.4102225 ] } },
{ "type": "Feature", "properties": { "osm_id": "node/9249492980", "amenity": "fountain" }, "geometry": { "type": "Point", "coordinates": [ -3.6914776, 40.4112265 ] } },
{ "type": "Feature", "properties": { "osm_id": "node/9249492981", "amenity": "fountain" }, "geometry": { "type": "Point", "coordinates": [ -3.6919664, 40.4111677 ] } },
{ "type": "Feature", "properties": { "osm_id": "node/9249492982", "amenity": "fountain" }, "geometry": { "type": "Point", "coordinates": [ -3.691547, 40.4115428 ] } },
{ "type": "Feature", "properties": { "osm_id": "node/9249492983", "amenity": "fountain" }, "geometry": { "type": "Point", "coordinates": [ -3.6920351, 40.4114789 ] } },
{ "type": "Feature", "properties": { "osm_id": "node/9249493008", "amenity": "fountain" }, "geometry": { "type": "Point", "coordinates": [ -3.6921137, 40.4118158 ] } },
{ "type": "Feature", "properties": { "osm_id": "node/9249493013", "amenity": "fountain" }, "geometry": { "type": "Point", "coordinates": [ -3.6916245, 40.4118736 ] } },
{ "type": "Feature", "properties": { "osm_id": "node/9249496422", "amenity": "fountain" }, "geometry": { "type": "Point", "coordinates": [ -3.6917001, 40.412206 ] } },
{ "type": "Feature", "properties": { "osm_id": "node/9249496446", "amenity": "fountain" }, "geometry": { "type": "Point", "coordinates": [ -3.6899603, 40.4115764 ] } },
{ "type": "Feature", "properties": { "osm_id": "node/9723658315", "amenity": "drinking_water" }, "geometry": { "type": "Point", "coordinates": [ -3.6944116, 40.4089036 ] } },
{ "type": "Feature", "properties": { "osm_id": "node/10142702497", "amenity": "drinking_water" }, "geometry": { "type": "Point", "coordinates": [ -3.6933541, 40.4084935 ] } },
{ "type": "Feature", "properties": { "osm_id": "node/11028349894", "amenity": "drinking_water" }, "geometry": { "type": "Point", "coordinates": [ -3.6897642, 40.4103404 ] } },
{ "type": "Feature", "properties": { "osm_id": "node/11225322937", "amenity": "drinking_water" }, "geometry": { "type": "Point", "coordinates": [ -3.6795233, 40.417949 ] } },
{ "type": "Feature", "properties": { "osm_id": "node/11305376947", "amenity": "drinking_water" }, "geometry": { "type": "Point", "coordinates": [ -3.6953882, 40.4130959 ] } },
{ "type": "Feature", "properties": { "osm_id": "node/11668867435", "amenity": "drinking_water" }, "geometry": { "type": "Point", "coordinates": [ -3.6957624, 40.420072 ] } },
{ "type": "Feature", "properties": { "osm_id": "node/11847421102", "amenity": "drinking_water" }, "geometry": { "type": "Point", "coordinates": [ -3.6915831, 40.4125853 ] } },
{ "type": "Feature", "properties": { "osm_id": "node/11974156086", "amenity": "drinking_water" }, "geometry": { "type": "Point", "coordinates": [ -3.678086, 40.4072561 ] } },
{ "type": "Feature", "properties": { "osm_id": "node/12144709504", "amenity": "drinking_water" }, "geometry": { "type": "Point", "coordinates": [ -3.6919535, 40.4194272 ] } },
{ "type": "Feature", "properties": { "osm_id": "node/12430299177", "amenity": "drinking_water" }, "geometry": { "type": "Point", "coordinates": [ -3.6948403, 40.4115091 ] } },
{ "type": "Feature", "properties": { "osm_id": "node/12430928704", "amenity": "drinking_water" }, "geometry": { "type": "Point", "coordinates": [ -3.6825541, 40.4082081 ] } },
{ "type": "Feature", "properties": { "osm_id": "node/12459005104", "amenity": "drinking_water" }, "geometry": { "type": "Point", "coordinates": [ -3.6948187, 40.4155688 ] } },
{ "type": "Feature", "properties": { "osm_id": "node/12702300385", "amenity": "drinking_water" }, "geometry": { "type": "Point", "coordinates": [ -3.6913158, 40.4051478 ] } },
{ "type": "Feature", "properties": { "osm_id": "node/12908196184", "amenity": "drinking_water" }, "geometry": { "type": "Point", "coordinates": [ -3.6935306, 40.407117 ] } },
{ "type": "Feature", "properties": { "osm_id": "node/13620585320", "amenity": "fountain" }, "geometry": { "type": "Point", "coordinates": [ -3.6906548, 40.4099952 ] } },
{ "type": "Feature", "properties": { "osm_id": "node/13620585327", "amenity": "fountain" }, "geometry": { "type": "Point", "coordinates": [ -3.6911817, 40.4098915 ] } },
{ "type": "Feature", "properties": { "osm_id": "node/13729643301", "amenity": "drinking_water" }, "geometry": { "type": "Point", "coordinates": [ -3.6790201, 40.4167397 ] } },
{ "type": "Feature", "properties": { "osm_id": "way/82567678", "amenity": "fountain" }, "geometry": { "type": "Point", "coordinates": [ -3.6935008, 40.4132082 ] } },
{ "type": "Feature", "properties": { "osm_id": "way/174819344", "amenity": "fountain" }, "geometry": { "type": "Point", "coordinates": [ -3.6938985, 40.4172106 ] } },
{ "type": "Feature", "properties": { "osm_id": "way/194088939", "amenity": "fountain" }, "geometry": { "type": "Point", "coordinates": [ -3.6898864, 40.4112511 ] } },
{ "type": "Feature", "properties": { "osm_id": "way/336157962", "amenity": "fountain" }, "geometry": { "type": "Point", "coordinates": [ -3.6788132, 40.4074479 ] } },
{ "type": "Feature", "properties": { "osm_id": "way/465630304", "amenity": "fountain" }, "geometry": { "type": "Point", "coordinates": [ -3.6860101, 40.420017 ] } },
{ "type": "Feature", "properties": { "osm_id": "way/551511200", "amenity": "fountain" }, "geometry": { "type": "Point", "coordinates": [ -3.6876899, 40.419553 ] } },
{ "type": "Feature", "properties": { "osm_id": "way/551512273", "amenity": "fountain" }, "geometry": { "type": "Point", "coordinates": [ -3.6876167, 40.4195212 ] } },
{ "type": "Feature", "properties": { "osm_id": "way/560711483", "amenity": "fountain" }, "geometry": { "type": "Point", "coordinates": [ -3.6878206, 40.4155176 ] } },
{ "type": "Feature", "properties": { "osm_id": "way/560715385", "amenity": "fountain" }, "geometry": { "type": "Point", "coordinates": [ -3.6782741, 40.4143065 ] } },
{ "type": "Feature", "properties": { "osm_id": "way/562587825", "amenity": "fountain" }, "geometry": { "type": "Point", "coordinates": [ -3.6863463, 40.4153225 ] } },
{ "type": "Feature", "properties": { "osm_id": "way/562596195", "amenity": "fountain" }, "geometry": { "type": "Point", "coordinates": [ -3.6778651, 40.4143565 ] } },
{ "type": "Feature", "properties": { "osm_id": "way/562596197", "amenity": "fountain" }, "geometry": { "type": "Point", "coordinates": [ -3.6786436, 40.414254 ] } },
{ "type": "Feature", "properties": { "osm_id": "way/578229239", "amenity": "fountain" }, "geometry": { "type": "Point", "coordinates": [ -3.6800365, 40.4190678 ] } },
{ "type": "Feature", "properties": { "osm_id": "way/681043535", "amenity": "fountain" }, "geometry": { "type": "Point", "coordinates": [ -3.6820819, 40.4171543 ] } },
{ "type": "Feature", "properties": { "osm_id": "way/681048520", "amenity": "fountain" }, "geometry": { "type": "Point", "coordinates": [ -3.6854772, 40.418626 ] } },
{ "type": "Feature", "properties": { "osm_id": "way/969788964", "amenity": "fountain" }, "geometry": { "type": "Point", "coordinates": [ -3.6929722, 40.4123769 ] } },
{ "type": "Feature", "properties": { "osm_id": "way/969788965", "amenity": "fountain" }, "geometry": { "type": "Point", "coordinates": [ -3.6927305, 40.4124063 ] } },
{ "type": "Feature", "properties": { "osm_id": "way/969788966", "amenity": "fountain" }, "geometry": { "type": "Point", "coordinates": [ -3.6927663, 40.4125772 ] } },
{ "type": "Feature", "properties": { "osm_id": "way/969788967", "amenity": "fountain" }, "geometry": { "type": "Point", "coordinates": [ -3.6930074, 40.4125468 ] } },
{ "type": "Feature", "properties": { "osm_id": "way/984796371", "amenity": "fountain" }, "geometry": { "type": "Point", "coordinates": [ -3.6781198, 40.4134538 ] } },
{ "type": "Feature", "properties": { "osm_id": "way/984796372", "amenity": "fountain" }, "geometry": { "type": "Point", "coordinates": [ -3.6779705, 40.413476 ] } },
{ "type": "Feature", "properties": { "osm_id": "way/984796373", "amenity": "fountain" }, "geometry": { "type": "Point", "coordinates": [ -3.6779917, 40.4129964 ] } },
{ "type": "Feature", "properties": { "osm_id": "way/984796374", "amenity": "fountain" }, "geometry": { "type": "Point", "coordinates": [ -3.6778423, 40.4130186 ] } },
{ "type": "Feature", "properties": { "osm_id": "way/984796375", "amenity": "fountain" }, "geometry": { "type": "Point", "coordinates": [ -3.677617, 40.413782 ] } },
{ "type": "Feature", "properties": { "osm_id": "way/984796376", "amenity": "fountain" }, "geometry": { "type": "Point", "coordinates": [ -3.6777995, 40.414157 ] } },
{ "type": "Feature", "properties": { "osm_id": "way/984797723", "amenity": "fountain" }, "geometry": { "type": "Point", "coordinates": [ -3.6816546, 40.4178574 ] } },
{ "type": "Feature", "properties": { "osm_id": "way/984797724", "amenity": "fountain" }, "geometry": { "type": "Point", "coordinates": [ -3.6803943, 40.4201399 ] } },
{ "type": "Feature", "properties": { "osm_id": "way/984800677", "amenity": "fountain" }, "geometry": { "type": "Point", "coordinates": [ -3.6825391, 40.411048 ] } },
{ "type": "Feature", "properties": { "osm_id": "way/984801054", "amenity": "fountain" }, "geometry": { "type": "Point", "coordinates": [ -3.6803229, 40.4107977 ] } },
{ "type": "Feature", "properties": { "osm_id": "way/984801055", "amenity": "fountain" }, "geometry": { "type": "Point", "coordinates": [ -3.6804247, 40.4110606 ] } },
{ "type": "Feature", "properties": { "osm_id": "way/984801056", "amenity": "fountain" }, "geometry": { "type": "Point", "coordinates": [ -3.6802141, 40.4105103 ] } },
{ "type": "Feature", "properties": { "osm_id": "way/991444030", "amenity": "fountain" }, "geometry": { "type": "Point", "coordinates": [ -3.6945355, 40.4082858 ] } },
{ "type": "Feature", "properties": { "osm_id": "way/991444031", "amenity": "fountain" }, "geometry": { "type": "Point", "coordinates": [ -3.6940427, 40.4080727 ] } },
{ "type": "Feature", "properties": { "osm_id": "way/1076530252", "amenity": "fountain" }, "geometry": { "type": "Point", "coordinates": [ -3.6920173, 40.4086961 ] } },
{ "type": "Feature", "properties": { "osm_id": "way/1077518054", "amenity": "fountain" }, "geometry": { "type": "Point", "coordinates": [ -3.6782873, 40.4144007 ] } },
{ "type": "Feature", "properties": { "osm_id": "way/1221357496", "amenity": "fountain" }, "geometry": { "type": "Point", "coordinates": [ -3.6878059, 40.4150637 ] } },
{ "type": "Feature", "properties": { "osm_id": "way/1221362062", "amenity": "fountain" }, "geometry": { "type": "Point", "coordinates": [ -3.6842222, 40.4154111 ] } },
{ "type": "Feature", "properties": { "osm_id": "way/1221362068", "amenity": "fountain" }, "geometry": { "type": "Point", "coordinates": [ -3.6799126, 40.4173367 ] } },
{ "type": "Feature", "properties": { "osm_id": "way/1346140194", "amenity": "fountain" }, "geometry": { "type": "Point", "coordinates": [ -3.6934615, 40.4185845 ] } },
{ "type": "Feature", "properties": { "osm_id": "relation/6345116", "amenity": "fountain" }, "geometry": { "type": "Point", "coordinates": [ -3.6930878, 40.4193344 ] } },
{ "type": "Feature", "properties": { "osm_id": "relation/6423339", "amenity": "fountain" }, "geometry": { "type": "Point", "coordinates": [ -3.694152, 40.4152601 ] } },
{ "type": "Feature", "properties": { "osm_id": "relation/8192117", "amenity": "fountain" }, "geometry": { "type": "Point", "coordinates": [ -3.6809472, 40.4177968 ] } },
{ "type": "Feature", "properties": { "osm_id": "relation/16657037", "amenity": "fountain" }, "geometry": { "type": "Point", "coordinates": [ -3.6859482, 40.4159089 ] } }
]
}
