{
 "type": "FeatureCollection",
 "name": "OD1_Route_A_epsg25830",
 "crs": {
  "type": "name",
  "properties": {
   "name": "urn:ogc:def:crs:EPSG::25830"
  }
 },
 "features": [
  {
   "type": "Feature",
   "properties": {
    "route": "A",
    "identity": "Paseo del Prado / Recoletos monumental axis (open, low continuous canopy)",
    "od": "Atocha A09 (40.404557,-3.688683) -> Puerta de Alcala A14 (40.419987,-3.688724)",
    "crs": "EPSG:25830",
    "length_m": 2657.8,
    "n_vertices": 127,
    "n_osm_ways": 42,
    "osm_way_ids": [
     1331762491,
     1534642166,
     1541005766,
     1541005767,
     1541005760,
     659775382,
     1541010725,
     450189607,
     450189612,
     450189613,
     48225058,
     1272096387,
     1424805024,
     1424805023,
     453750023,
     1424805022,
     1424805021,
     1272096386,
     1272096385,
     884332539,
     302580498,
     562027283,
     562027284,
     302580240,
     30674619,
     302580242,
     302580241,
     243991596,
     1333734936,
     911013768,
     131751221,
     1354412884,
     112538815,
     1291584233,
     909137345,
     27396510,
     554230296,
     43759853,
     252387586,
     7972767,
     7972768,
     7972761
    ],
    "n_controlled_crossings_on_route": 23,
    "n_gates_on_route": 0,
    "source": "OpenStreetMap contributors, ODbL; bounded Overpass fetch 2026-09-14 (osm base 2026-09-14T19:45:03Z)",
    "construction": "corridor-pinned shortest walkable path on OSM footway/pedestrian graph; NO thermal input"
   },
   "geometry": {
    "type": "LineString",
    "coordinates": [
     [
      441562.39,
      4472888.31
     ],
     [
      441495.71,
      4472826.33
     ],
     [
      441495.73,
      4472823.86
     ],
     [
      441495.53,
      4472822.15
     ],
     [
      441494.96,
      4472820.76
     ],
     [
      441493.94,
      4472819.59
     ],
     [
      441492.85,
      4472818.89
     ],
     [
      441491.37,
      4472818.45
     ],
     [
      441490.13,
      4472818.39
     ],
     [
      441488.47,
      4472818.48
     ],
     [
      441486.23,
      4472822.03
     ],
     [
      441484.05,
      4472824.97
     ],
     [
      441482.77,
      4472829.99
     ],
     [
      441411.04,
      4472914.42
     ],
     [
      441415.11,
      4472917.98
     ],
     [
      441418.61,
      4472920.5
     ],
     [
      441420.94,
      4472922.44
     ],
     [
      441423.68,
      4472924.63
     ],
     [
      441361.16,
      4473000.53
     ],
     [
      441355.38,
      4473007.84
     ],
     [
      441309.01,
      4473066.43
     ],
     [
      441303.85,
      4473072.79
     ],
     [
      441299.53,
      4473078.15
     ],
     [
      441296.99,
      4473081.06
     ],
     [
      441293.49,
      4473084.91
     ],
     [
      441231.57,
      4473160.05
     ],
     [
      441209.76,
      4473187.81
     ],
     [
      441210.83,
      4473197.54
     ],
     [
      441209.12,
      4473211.61
     ],
     [
      441224.41,
      4473235.16
     ],
     [
      441242.26,
      4473258.05
     ],
     [
      441250.52,
      4473264.38
     ],
     [
      441278.15,
      4473287.62
     ],
     [
      441294.58,
      4473294.68
     ],
     [
      441313.18,
      4473296.41
     ],
     [
      441321.56,
      4473293.72
     ],
     [
      441323.08,
      4473299.94
     ],
     [
      441325.62,
      4473310.4
     ],
     [
      441327.59,
      4473319.65
     ],
     [
      441330.8,
      4473334.7
     ],
     [
      441336.65,
      4473349.94
     ],
     [
      441338.28,
      4473354.2
     ],
     [
      441345.35,
      4473363.22
     ],
     [
      441350.02,
      4473368.23
     ],
     [
      441333.54,
      4473385.2
     ],
     [
      441317.86,
      4473401.34
     ],
     [
      441313.54,
      4473405.78
     ],
     [
      441294.33,
      4473447.96
     ],
     [
      441280.55,
      4473475.12
     ],
     [
      441274.96,
      4473473.84
     ],
     [
      441266.13,
      4473471.83
     ],
     [
      441262.43,
      4473489.44
     ],
     [
      441254.89,
      4473524.95
     ],
     [
      441242.45,
      4473595.71
     ],
     [
      441228.66,
      4473675.21
     ],
     [
      441218.43,
      4473745.36
     ],
     [
      441214.02,
      4473773.0
     ],
     [
      441210.05,
      4473802.75
     ],
     [
      441209.44,
      4473807.31
     ],
     [
      441206.05,
      4473825.82
     ],
     [
      441201.69,
      4473849.67
     ],
     [
      441190.06,
      4473916.94
     ],
     [
      441175.6,
      4474000.54
     ],
     [
      441173.52,
      4474011.88
     ],
     [
      441172.76,
      4474016.05
     ],
     [
      441170.1,
      4474032.6
     ],
     [
      441167.27,
      4474049.88
     ],
     [
      441165.83,
      4474057.97
     ],
     [
      441165.11,
      4474063.34
     ],
     [
      441163.11,
      4474074.93
     ],
     [
      441160.51,
      4474090.73
     ],
     [
      441159.32,
      4474097.47
     ],
     [
      441154.31,
      4474121.94
     ],
     [
      441152.99,
      4474130.48
     ],
     [
      441147.89,
      4474152.76
     ],
     [
      441147.46,
      4474157.55
     ],
     [
      441147.52,
      4474161.08
     ],
     [
      441149.76,
      4474171.92
     ],
     [
      441152.74,
      4474183.97
     ],
     [
      441168.49,
      4474269.33
     ],
     [
      441194.68,
      4474430.65
     ],
     [
      441198.77,
      4474448.34
     ],
     [
      441199.91,
      4474453.58
     ],
     [
      441200.27,
      4474455.23
     ],
     [
      441201.41,
      4474460.38
     ],
     [
      441206.6,
      4474459.82
     ],
     [
      441214.78,
      4474458.92
     ],
     [
      441223.78,
      4474470.75
     ],
     [
      441228.32,
      4474471.28
     ],
     [
      441233.38,
      4474471.04
     ],
     [
      441238.08,
      4474470.72
     ],
     [
      441239.98,
      4474488.57
     ],
     [
      441242.78,
      4474505.82
     ],
     [
      441244.7,
      4474511.05
     ],
     [
      441247.55,
      4474515.75
     ],
     [
      441244.7,
      4474511.05
     ],
     [
      441242.78,
      4474505.82
     ],
     [
      441239.98,
      4474488.57
     ],
     [
      441238.08,
      4474470.72
     ],
     [
      441233.38,
      4474471.04
     ],
     [
      441233.88,
      4474474.9
     ],
     [
      441235.47,
      4474487.18
     ],
     [
      441243.41,
      4474525.34
     ],
     [
      441251.08,
      4474549.82
     ],
     [
      441252.71,
      4474556.05
     ],
     [
      441253.7,
      4474565.59
     ],
     [
      441256.22,
      4474578.93
     ],
     [
      441258.12,
      4474584.16
     ],
     [
      441276.54,
      4474636.39
     ],
     [
      441281.85,
      4474652.84
     ],
     [
      441283.46,
      4474658.31
     ],
     [
      441295.77,
      4474656.04
     ],
     [
      441393.05,
      4474638.58
     ],
     [
      441400.16,
      4474637.61
     ],
     [
      441403.74,
      4474644.25
     ],
     [
      441414.67,
      4474673.33
     ],
     [
      441415.64,
      4474675.91
     ],
     [
      441417.84,
      4474679.83
     ],
     [
      441440.3,
      4474667.61
     ],
     [
      441448.25,
      4474663.49
     ],
     [
      441464.53,
      4474655.07
     ],
     [
      441507.74,
      4474632.8
     ],
     [
      441511.0,
      4474630.99
     ],
     [
      441519.52,
      4474626.41
     ],
     [
      441526.33,
      4474623.16
     ],
     [
      441534.67,
      4474620.11
     ],
     [
      441572.25,
      4474601.06
     ]
    ]
   }
  }
 ]
}