{
 "type": "FeatureCollection",
 "name": "OD1_Route_B_epsg25830",
 "crs": {
  "type": "name",
  "properties": {
   "name": "urn:ogc:def:crs:EPSG::25830"
  }
 },
 "features": [
  {
   "type": "Feature",
   "properties": {
    "route": "B",
    "identity": "Real Jardin Botanico / Retiro western edge + Calle Alfonso XII (tree-lined)",
    "od": "Atocha A09 (40.404557,-3.688683) -> Puerta de Alcala A14 (40.419987,-3.688724)",
    "crs": "EPSG:25830",
    "length_m": 2365.7,
    "n_vertices": 115,
    "n_osm_ways": 38,
    "osm_way_ids": [
     1331762491,
     1534642166,
     1541005766,
     1541005767,
     1541005760,
     659775382,
     1541010725,
     450189607,
     1174075285,
     450189610,
     912379817,
     666968471,
     666968472,
     666968473,
     261122821,
     854466429,
     819783848,
     1425541106,
     1425541105,
     1425541104,
     484843896,
     1425541103,
     1542777486,
     666968470,
     393196814,
     393196806,
     393196808,
     226263593,
     1284706385,
     1383543417,
     1383543416,
     1284706386,
     1383543414,
     1383543415,
     1284706387,
     1284706388,
     1284706389,
     7972761
    ],
    "n_controlled_crossings_on_route": 13,
    "n_gates_on_route": 0,
    "source": "OpenStreetMap contributors, ODbL; bounded Overpass fetch 2026-09-14 (osm base 2026-09-14T19:45:03Z)",
    "construction": "corridor-pinned shortest walkable path on OSM footway/pedestrian graph; NO thermal input"
   },
   "geometry": {
    "type": "LineString",
    "coordinates": [
     [
      441562.39,
      4472888.31
     ],
     [
      441495.71,
      4472826.33
     ],
     [
      441495.73,
      4472823.86
     ],
     [
      441495.53,
      4472822.15
     ],
     [
      441494.96,
      4472820.76
     ],
     [
      441493.94,
      4472819.59
     ],
     [
      441492.85,
      4472818.89
     ],
     [
      441491.37,
      4472818.45
     ],
     [
      441490.13,
      4472818.39
     ],
     [
      441488.47,
      4472818.48
     ],
     [
      441486.23,
      4472822.03
     ],
     [
      441484.05,
      4472824.97
     ],
     [
      441482.77,
      4472829.99
     ],
     [
      441411.04,
      4472914.42
     ],
     [
      441415.11,
      4472917.98
     ],
     [
      441418.61,
      4472920.5
     ],
     [
      441420.94,
      4472922.44
     ],
     [
      441423.68,
      4472924.63
     ],
     [
      441361.16,
      4473000.53
     ],
     [
      441355.38,
      4473007.84
     ],
     [
      441309.01,
      4473066.43
     ],
     [
      441303.85,
      4473072.79
     ],
     [
      441304.56,
      4473073.4
     ],
     [
      441313.89,
      4473081.3
     ],
     [
      441319.35,
      4473085.83
     ],
     [
      441322.68,
      4473090.0
     ],
     [
      441337.56,
      4473073.89
     ],
     [
      441342.1,
      4473076.09
     ],
     [
      441345.76,
      4473071.05
     ],
     [
      441371.58,
      4473085.48
     ],
     [
      441387.04,
      4473094.16
     ],
     [
      441410.86,
      4473107.49
     ],
     [
      441431.96,
      4473118.66
     ],
     [
      441435.07,
      4473120.27
     ],
     [
      441448.64,
      4473127.35
     ],
     [
      441467.68,
      4473143.8
     ],
     [
      441472.84,
      4473153.39
     ],
     [
      441472.72,
      4473160.51
     ],
     [
      441470.93,
      4473167.93
     ],
     [
      441473.7,
      4473171.32
     ],
     [
      441482.41,
      4473179.44
     ],
     [
      441491.07,
      4473187.78
     ],
     [
      441497.27,
      4473203.91
     ],
     [
      441502.89,
      4473209.76
     ],
     [
      441509.38,
      4473217.86
     ],
     [
      441514.43,
      4473223.69
     ],
     [
      441517.44,
      4473227.5
     ],
     [
      441526.54,
      4473223.11
     ],
     [
      441535.58,
      4473216.14
     ],
     [
      441540.37,
      4473212.44
     ],
     [
      441548.2,
      4473215.33
     ],
     [
      441558.25,
      4473219.56
     ],
     [
      441553.91,
      4473415.33
     ],
     [
      441557.43,
      4473415.12
     ],
     [
      441573.0,
      4473415.17
     ],
     [
      441578.14,
      4473415.15
     ],
     [
      441577.54,
      4473429.91
     ],
     [
      441577.75,
      4473434.81
     ],
     [
      441578.59,
      4473442.45
     ],
     [
      441580.17,
      4473445.33
     ],
     [
      441583.4,
      4473450.14
     ],
     [
      441585.31,
      4473457.76
     ],
     [
      441584.2,
      4473466.43
     ],
     [
      441582.3,
      4473470.68
     ],
     [
      441577.03,
      4473478.16
     ],
     [
      441576.08,
      4473481.05
     ],
     [
      441576.11,
      4473484.17
     ],
     [
      441573.8,
      4473597.41
     ],
     [
      441570.92,
      4473724.94
     ],
     [
      441569.43,
      4473782.06
     ],
     [
      441568.74,
      4473802.25
     ],
     [
      441567.2,
      4473894.14
     ],
     [
      441564.7,
      4473995.82
     ],
     [
      441563.21,
      4474068.16
     ],
     [
      441562.0,
      4474068.13
     ],
     [
      441557.87,
      4474068.02
     ],
     [
      441562.0,
      4474068.13
     ],
     [
      441563.21,
      4474068.16
     ],
     [
      441563.11,
      4474077.93
     ],
     [
      441559.78,
      4474207.85
     ],
     [
      441561.16,
      4474230.82
     ],
     [
      441561.85,
      4474237.43
     ],
     [
      441562.06,
      4474244.03
     ],
     [
      441561.61,
      4474252.56
     ],
     [
      441561.52,
      4474254.1
     ],
     [
      441561.28,
      4474258.66
     ],
     [
      441564.97,
      4474306.43
     ],
     [
      441576.18,
      4474457.53
     ],
     [
      441580.36,
      4474512.5
     ],
     [
      441582.07,
      4474523.58
     ],
     [
      441582.91,
      4474526.87
     ],
     [
      441586.16,
      4474531.72
     ],
     [
      441581.38,
      4474530.76
     ],
     [
      441576.54,
      4474530.14
     ],
     [
      441571.4,
      4474529.79
     ],
     [
      441568.26,
      4474529.88
     ],
     [
      441562.73,
      4474530.28
     ],
     [
      441557.77,
      4474531.02
     ],
     [
      441543.72,
      4474535.26
     ],
     [
      441530.9,
      4474542.4
     ],
     [
      441519.93,
      4474552.13
     ],
     [
      441511.32,
      4474563.96
     ],
     [
      441504.65,
      4474574.43
     ],
     [
      441503.17,
      4474583.24
     ],
     [
      441502.44,
      4474587.64
     ],
     [
      441502.13,
      4474589.46
     ],
     [
      441501.34,
      4474594.13
     ],
     [
      441499.74,
      4474603.71
     ],
     [
      441505.96,
      4474619.25
     ],
     [
      441509.6,
      4474628.12
     ],
     [
      441511.0,
      4474630.99
     ],
     [
      441519.52,
      4474626.41
     ],
     [
      441526.33,
      4474623.16
     ],
     [
      441534.67,
      4474620.11
     ],
     [
      441572.25,
      4474601.06
     ]
    ]
   }
  }
 ]
}