{"type": "FeatureCollection", "name": "OD1_Route_B_wgs84", "features": [{"type": "Feature", "properties": {"route": "B", "length_m_wgs84_haversine": 2234.5, "n_ways": 38, "way_ids": [1331762491, 1534642166, 1541005766, 1541005767, 1541005760, 659775382, 1541010725, 450189607, 1174075285, 450189610, 912379817, 666968471, 666968472, 666968473, 261122821, 854466429, 819783848, 1425541106, 1425541105, 1425541104, 484843896, 1425541103, 1542777486, 666968470, 393196814, 393196806, 393196808, 226263593, 1284706385, 1383543417, 1383543416, 1284706386, 1383543414, 1383543415, 1284706387, 1284706388, 1284706389, 7972761]}, "geometry": {"type": "LineString", "coordinates": [[-3.689463, 40.403994], [-3.6894626, 40.4039717], [-3.6894648, 40.4039563], [-3.6894713, 40.4039437], [-3.6894833, 40.4039331], [-3.6894961, 40.4039267], [-3.6895135, 40.4039227], [-3.6895281, 40.403922], [-3.6895476, 40.4039227], [-3.6895743, 40.4039546], [-3.6896003, 40.4039809], [-3.6896159, 40.404026], [-3.6904689, 40.4047816], [-3.6904212, 40.4048139], [-3.6903802, 40.4048369], [-3.690353, 40.4048545], [-3.6903209, 40.4048744], [-3.6910646, 40.4055538], [-3.6911334, 40.4056192], [-3.6916853, 40.4061438], [-3.6917466, 40.4062007], [-3.6917383, 40.4062062], [-3.6916291, 40.4062781], [-3.6915652, 40.4063193], [-3.6915263, 40.4063571], [-3.6913495, 40.406213], [-3.6912962, 40.4062331], [-3.6912526, 40.406188], [-3.6909496, 40.4063198], [-3.6907683, 40.4063991], [-3.6904888, 40.4065208], [-3.6902412, 40.4066229], [-3.6902047, 40.4066377], [-3.6900454, 40.4067024], [-3.6898225, 40.4068519], [-3.6897626, 40.4069387], [-3.6897647, 40.4070028], [-3.6897864, 40.4070695], [-3.6897541, 40.4071003], [-3.6896522, 40.407174], [-3.6895509, 40.4072498], [-3.6894794, 40.4073955], [-3.6894137, 40.4074486], [-3.6893379, 40.407522], [-3.689279, 40.4075749], [-3.6892438, 40.4076094], [-3.6891362, 40.4075705], [-3.689029, 40.4075084], [-3.6889722, 40.4074754], [-3.6888802, 40.407502], [-3.6887622, 40.4075408], [-3.6888313, 40.4093041], [-3.6887898, 40.4093024], [-3.6886063, 40.409304], [-3.6885457, 40.4093041], [-3.6885541, 40.4094371], [-3.6885521, 40.4094812], [-3.6885429, 40.4095501], [-3.6885246, 40.4095762], [-3.688487, 40.4096197], [-3.6884651, 40.4096885], [-3.688479, 40.4097665], [-3.6885018, 40.4098047], [-3.6885646, 40.4098717], [-3.688576, 40.4098977], [-3.688576, 40.4099258], [-3.6886136, 40.4109457], [-3.6886593, 40.4120944], [-3.6886821, 40.4126088], [-3.6886921, 40.4127907], [-3.6887186, 40.4136184], [-3.6887574, 40.4145342], [-3.6887816, 40.4151857], [-3.6887959, 40.4151854], [-3.6888446, 40.4151841], [-3.6887959, 40.4151854], [-3.6887816, 40.4151857], [-3.6887837, 40.4152737], [-3.6888349, 40.4164439], [-3.6888208, 40.4166509], [-3.6888132, 40.4167105], [-3.6888114, 40.41677], [-3.6888175, 40.4168468], [-3.6888186, 40.4168607], [-3.6888219, 40.4169017], [-3.6887828, 40.4173323], [-3.6886646, 40.4186943], [-3.6886203, 40.4191898], [-3.6886012, 40.4192897], [-3.6885916, 40.4193194], [-3.6885537, 40.4193633], [-3.68861, 40.4193543], [-3.688667, 40.4193484], [-3.6887275, 40.4193449], [-3.6887645, 40.4193455], [-3.6888298, 40.4193487], [-3.6888883, 40.419355], [-3.6890543, 40.4193922], [-3.689206, 40.4194557], [-3.6893362, 40.4195425], [-3.6894388, 40.4196485], [-3.6895184, 40.4197424], [-3.6895366, 40.4198216], [-3.6895457, 40.4198612], [-3.6895495, 40.4198776], [-3.6895592, 40.4199196], [-3.689579, 40.4200058], [-3.6895071, 40.4201462], [-3.689465, 40.4202264], [-3.6894488, 40.4202523], [-3.6893479, 40.4202117], [-3.6892673, 40.4201829], [-3.6891687, 40.420156]]}}]}