{"type": "FeatureCollection", "name": "OD1_Route_A_wgs84", "features": [{"type": "Feature", "properties": {"route": "A", "length_m_wgs84_haversine": 2526.4, "n_ways": 42, "way_ids": [1331762491, 1534642166, 1541005766, 1541005767, 1541005760, 659775382, 1541010725, 450189607, 450189612, 450189613, 48225058, 1272096387, 1424805024, 1424805023, 453750023, 1424805022, 1424805021, 1272096386, 1272096385, 884332539, 302580498, 562027283, 562027284, 302580240, 30674619, 302580242, 302580241, 243991596, 1333734936, 911013768, 131751221, 1354412884, 112538815, 1291584233, 909137345, 27396510, 554230296, 43759853, 252387586, 7972767, 7972768, 7972761]}, "geometry": {"type": "LineString", "coordinates": [[-3.689463, 40.403994], [-3.6894626, 40.4039717], [-3.6894648, 40.4039563], [-3.6894713, 40.4039437], [-3.6894833, 40.4039331], [-3.6894961, 40.4039267], [-3.6895135, 40.4039227], [-3.6895281, 40.403922], [-3.6895476, 40.4039227], [-3.6895743, 40.4039546], [-3.6896003, 40.4039809], [-3.6896159, 40.404026], [-3.6904689, 40.4047816], [-3.6904212, 40.4048139], [-3.6903802, 40.4048369], [-3.690353, 40.4048545], [-3.6903209, 40.4048744], [-3.6910646, 40.4055538], [-3.6911334, 40.4056192], [-3.6916853, 40.4061438], [-3.6917466, 40.4062007], [-3.691798, 40.4062487], [-3.6918282, 40.4062747], [-3.6918699, 40.4063091], [-3.6926065, 40.4069817], [-3.692866, 40.4072302], [-3.6928543, 40.4073179], [-3.6928758, 40.4074446], [-3.6926978, 40.4076578], [-3.6924896, 40.4078653], [-3.6923928, 40.4079229], [-3.6920693, 40.4081342], [-3.6918764, 40.4081989], [-3.6916573, 40.4082158], [-3.6915583, 40.4081922], [-3.691541, 40.4082483], [-3.691512, 40.4083427], [-3.6914896, 40.4084262], [-3.6914532, 40.408562], [-3.6913857, 40.4086997], [-3.6913668, 40.4087382], [-3.6912844, 40.40882], [-3.6912298, 40.4088654], [-3.6914256, 40.4090171], [-3.6916118, 40.4091614], [-3.6916631, 40.4092011], [-3.6918934, 40.4095797], [-3.6920583, 40.4098234], [-3.6921241, 40.4098115], [-3.692228, 40.4097928], [-3.6922732, 40.4099512], [-3.6923653, 40.4102705], [-3.6925185, 40.4109071], [-3.6926883, 40.4116223], [-3.6928154, 40.4122535], [-3.6928699, 40.4125022], [-3.6929195, 40.4127699], [-3.6929271, 40.412811], [-3.6929687, 40.4129775], [-3.6930223, 40.413192], [-3.6931656, 40.4137972], [-3.6933438, 40.4145493], [-3.6933693, 40.4146513], [-3.6933787, 40.4146888], [-3.6934115, 40.4148377], [-3.6934465, 40.4149932], [-3.6934642, 40.4150659], [-3.6934732, 40.4151143], [-3.6934979, 40.4152185], [-3.69353, 40.4153607], [-3.6935446, 40.4154213], [-3.6936059, 40.4156414], [-3.6936223, 40.4157182], [-3.6936844, 40.4159186], [-3.6936899, 40.4159617], [-3.6936896, 40.4159935], [-3.6936642, 40.4160913], [-3.6936301, 40.4162001], [-3.6934524, 40.4169702], [-3.6931586, 40.4184253], [-3.6931121, 40.4185849], [-3.6930991, 40.4186322], [-3.693095, 40.4186471], [-3.6930821, 40.4186936], [-3.6930208, 40.4186889], [-3.6929244, 40.4186814], [-3.6928194, 40.4187886], [-3.6927659, 40.4187937], [-3.6927062, 40.4187919], [-3.6926508, 40.4187893], [-3.6926301, 40.4189502], [-3.6925986, 40.4191058], [-3.6925765, 40.4191531], [-3.6925434, 40.4191956], [-3.6925765, 40.4191531], [-3.6925986, 40.4191058], [-3.6926301, 40.4189502], [-3.6926508, 40.4187893], [-3.6927062, 40.4187919], [-3.6927007, 40.4188267], [-3.6926831, 40.4189374], [-3.692593, 40.4192817], [-3.6925049, 40.4195028], [-3.6924862, 40.419559], [-3.6924755, 40.419645], [-3.692447, 40.4197654], [-3.6924251, 40.4198126], [-3.6922128, 40.4202845], [-3.6921517, 40.420433], [-3.6921333, 40.4204824], [-3.691988, 40.4204628], [-3.6908397, 40.4203124], [-3.6907558, 40.4203042], [-3.6907142, 40.4203642], [-3.6905881, 40.420627], [-3.6905769, 40.4206503], [-3.6905513, 40.4206857], [-3.6902854, 40.4205772], [-3.6901914, 40.4205407], [-3.6899987, 40.420466], [-3.6894874, 40.4202684], [-3.6894488, 40.4202523], [-3.6893479, 40.4202117], [-3.6892673, 40.4201829], [-3.6891687, 40.420156]]}}]}